ID	Name	Glottocode	Family	Macroarea	Latitude	Longitude	Sounds	Consonants	Vowels	Clusters	Diphthongs	LongConsonants	LongVowels	Ratio	Phonemes
hmon1264-2239	Hmong Njua	hmon1264	Hmong-Mien	Eurasia	22.5638	101.95	61	48	13	0	4	0	0	3.6923076923076925	c cʰ f h j k kʰ l m ⁿp ⁿpʰ n ⁿt ⁿts ⁿtsʰ ⁿtʰ ⁿtʃ ⁿtʃʰ p pʰ q qʰ s sʰ t ts tsʰ tʰ tʃ tʃʰ v ç ŋ ⁿk ⁿkʰ ɬ ɲ ⁿc ⁿcʰ ⁿʈʂ ⁿʈʂʰ ⁿq ⁿqʰ ʃ ʈʂ ʈʂʰ ʒ ʔ a ai̯ au̯ aɯ ã e i ĩ u ua ũ ɔ ɨ
east2328-2241	Eastern Mari	east2328	Uralic	Eurasia	55.8307	48.405	27	19	8	0	0	0	0	2.375	j k l̺ m n̺ p r s tɕ t̪̺ z ð̺ ŋ ɣ ɲ ʂ ʎ ʐ β a e i o u y̞ œ ɪ̈
east2337-2242	East Yugur	east2337	Mongolic-Khitan	Eurasia	37.9882	101.762	42	28	14	0	0	0	7	2.0	h j j̊ k kʰ l l̥ m n n̥ p pʰ q qʰ r s t ts tsʰ tʰ tʃ tʃʰ ŋ ɣ ʁ ʃ β χ a aː e eː u uː y yː ɔ ɔː ə əː ɵ ɵː
moks1248-2243	Moksha	moks1248	Uralic	Eurasia	54.1855	42.6728	40	33	7	0	0	0	0	4.714285714285714	b dʲ d̪ f j k lʲ m nʲ n̪ p sʲ s̪ tsʲ tɕ tʲ t̪ ts̪ v x zʲ z̪ ɕ g lˠ ɬʲ ɬˠ ɾ ɾʲ ɾ̥ ɾ̥ʲ ʂ ʐ ä e̞ i o̞ u æ ə̆
lith1251-2244	Lithuanian	lith1251	Indo-European	Eurasia	55.1429	23.9601	60	45	15	0	2	0	6	3.0	b bʲ dzʲ dʲ dʒ dʒʲ d̪ dz̪ f fʲ j k kʲ lʲ m mʲ nʲ n̪ p pʲ r rʲ sʲ s̪ tsʲ tʲ tʃ tʃʲ t̪ ts̪ v vʲ x xʲ zʲ z̪ g gʲ ɣ ɣʲ lˠ ʃ ʃʲ ʒ ʒʲ äː eː iə iː oː uə uː æː ɐ ɔ ɛ ɪ ɪ̯ ʊ ʊ̯
moks1248-2245	Moksha	moks1248	Uralic	Eurasia	54.1855	42.6728	41	35	6	0	0	0	0	5.833333333333333	b dʲ d̪ f j k lʲ m nʲ n̪ p sʲ s̪ tsʲ tɕ tʲ t̪ ts̪ v x zʲ z̪ ɕ g lˠ ɬʲ ɬˠ ɾ ɾʲ ɾ̥ ɾ̥ʲ ʂ ʈʂ ʐ ʑ ä e̞ i o̞ u ə̆
laoo1244-2246	Lao	laoo1244	Tai-Kadai	Eurasia	19.0	102.46	42	21	21	0	3	0	9	1.0	b c d f h j k kʰ l m n p pʰ s t tʰ v w ŋ ɲ ʔ a aː e eː i ia iː o oː u ua uː ɔ ɔː ə əː ɛ ɛː ɯ ɯa ɯː
rajb1243-2247	Rajbanshi	rajb1243	Indo-European	Eurasia	26.521945	88.038582	43	34	9	0	1	0	0	3.7777777777777777	b bʱ dz dzʱ d̪ d̪ʱ d̺ d̺ʱ h j k kʰ l lʱ m mʱ n̪ n̪ʱ p pʰ r rʱ s ts tsʰ t̪ t̪ʰ t̺ t̺ʰ w ŋ ŋʱ g gʱ e ẽ i o u ũĩ æ æ̃ ʌ
esto1258-2248	Estonian	esto1258	Uralic	Eurasia	58.55	25.82	26	17	9	0	0	0	0	1.8888888888888888	f h j k l lʲ m n nʲ p r sʲ s̪ tʲ t̪ ʃ ʋ e i o u y æ ø ɑ ɤ
bakh1245-2249	Bakhtiari	bakh1245	Indo-European	Eurasia	32.0163	49.7713	36	24	12	0	6	0	3	2.0	b d dʒ f h j kʲʰ l m n pʰ qʰ s tʰ tʃʰ v z ɹ̪ gʲ ɢ ɾ ʃ ʒ χ a au̯ eːi̯ iː oːu̯ uː æi̯ ɑː ɑːi̯ ɔ ɔi̯ ɛ
cent1972-2250	Central Kurdish	cent1972	Indo-European	Eurasia	35.6539	45.8077	39	31	8	0	0	0	5	3.875	b dʒ d̪ f h j k l̪ m n̪ p q r̪ sˤ s̪ tʃ t̪ v w x z̪ ħ ŋ g ɣ l̪ˠ ɾ̪ ʃ ʒ ʔ ʕ äː eː iː oː uː ə ɯ̽ ʊ
ingu1240-2251	Ingush	ingu1240	Nakh-Daghestanian	Eurasia	43.11	45.03	69	52	17	0	4	3	3	3.0588235294117645	b bˤ d̪ d̪ˤ f h j kʰ kʲʰ kʼʲ kʼ l̪ m mˤ n nˤ pʰ pʼ pˤʰ qʰ qʼ qː r̺̥ s sː tsʰ tsʼ tsˤʰ tʃʰ tʃʼ tʃˤʰ tʃʼˤ t̪ʰ t̪ʼ t̪ː t̪ˤʰ t̪ʼˤ v vˤ x̠ z zˤ g gʲ ɾ̺ ʁ ʃ ʒ ʒˤ ʔ ʜ ʡ a aː i iː iːɛ o u uː uːʌ æ ɔaː ɛ ɛ̯æː ɨ ɪ ʊ ʌ
stan1293-2252	English	stan1293	Indo-European	Eurasia	53.0	-1.0	44	24	20	0	8	0	5	1.2	b d dʒ f h j kʰ l m n pʰ s tʰ tʃ v w z ð ŋ g ɹ ʃ ʒ θ aɪ aʊ e eə eɪ iː uː æ ɑː ɒ ɔɪ ɔː ə əʊ ɜː ɪ ɪə ʊ ʊə ʌ
dupa1235-2253	Dupaninan Agta	dupa1235	Austronesian	Papunesia	17.3748	122.188	21	15	6	0	0	0	0	2.5	b d j k l m n p r s t w ŋ g ʔ ä i o u ə ɛ
lazz1240-2254	Laz	lazz1240	Kartvelian	Eurasia	41.5004	41.9096	38	33	5	0	0	0	0	6.6	b cʰ cʼ dz dʒ d̪ f h j kʰ kʼ l m n̪ pʰ pʼ qχʼ s ts tsʼ tʃ tʃʼ t̪ʰ t̪ʼ v z ɟ g ɾ ʁ ʃ ʒ χ a i u ɔ ɛ
dolg1241-2255	Dolgan	dolg1241	Turkic	Eurasia	71.1083	94.2936	42	22	20	0	4	0	8	1.1	b c d dʒ h j m n p q r r̥ s t tʃ ŋ ɟ g ɢ lˠ ɬ ɲ i iɛ iː u uɔ uː y yœ yː œ œː ɑ ɑː ɔ ɔː ɛ ɛː ɯ ɯɑ ɯː
dark1243-2256	Darkhat	dark1243	Mongolic-Khitan	Eurasia	50.623	99.4449	39	20	19	0	4	0	8	1.0526315789473684	b d dz dʑ l m n p r s t ts tɕ v w x ŋ ɕ g ʝ ae̯ aː e eː i iː u uː y yi̯ yː æː œ̜ œ̜ː ɑ ɔ̜ ɔ̜ː ɞe̯ ʉi̯
jiar1240-2257	Northern Gyalrong	jiar1240	Sino-Tibetan	Eurasia	31.60295	102.22875	63	52	11	0	2	0	0	4.7272727272727275	b c cʰ d dz dʒ f j k kʰ l l̥ m ⁿb n ⁿd ⁿdz ⁿdʒ p pʰ q qʰ r s t ts tsʰ tʰ tʃ tʃʰ v w x z ŋ ⁿg ɖʐ ɟ g ɣ ɲ ⁿɟ ⁿɖʐ ⁿɢ ʁ ʂ ʃ ʈʂ ʈʂʰ ʒ ʔ χ a e i o oi̯ u ɐ ɐi̯ ɔ ə ɛ
juan1238-2258	Juang	juan1238	Austroasiatic	Eurasia	21.2606	85.5845	37	19	18	0	0	0	6	1.0555555555555556	b c d j k l m n p r s t ŋ ɖ ɟ g ɭ ɲ ʈ a aː ã e eː ẽ i iː ĩ o oː õ u uː ũ ɔ ɔː ɔ̃
sout2697-2259	South Azerbaijani	sout2697	Turkic	Eurasia	36.5137	48.4302	33	24	9	0	0	0	0	2.6666666666666665	b cç d̪ dz̪ f h j k l m n̪ p s t̪ ts̪ v x z ɟʝ g ɣ ɾ ʃ ʒ e i o u y æ œ ɑ ɯ
kild1236-2260	Kildin Saami	kild1236	Uralic	Eurasia	68.2158	35.8348	128	113	15	0	3	46	6	7.533333333333333	b bʲ bʲː b̥ː c d dz dzʲ dʑ dʲ dz̥ dz̥ʲ dʑ̥ d̥ː f fʲ fʲː fː k kʲ kʲː kː l lʲ lʲː lː l̥ l̥ʲ l̥ʲː l̥ː m mʲ mʲː mː m̥ m̥ʲ m̥ʲː m̥ː n nʲ nʲː nː n̥ n̥ʲ n̥ʲː n̥ː p pʲ pʲː pː r rʲ rʲː rː r̥ r̥ʲ r̥ʲː r̥ː s sʲ sʲː sː t ts tsʲ tsʲː tsː tɕ tɕː tʲ tː x xʲ xʲː xː z zʲ zʲː zː ç çː ŋ ŋʲ ŋʲː ŋː ɕ ɕː ɟ g gʲ gʲː g̥ː ɲ ɲː ʂ ʂː ʐ ʑ ʝ ʝː ʰk ʰkʲ ʰp ʰpʲ ʰt ʰts ʰtsʲ ʰtɕ ʰtʲ β βʲ βʲː βː äː e̞ e̞ː i iː o̞ o̞ä o̞ː u uä ue̞ uː ɐ ɨ ɨː
russ1263-2261	Russian	russ1263	Indo-European	Eurasia	59.0	50.0	42	36	6	0	0	1	0	6.0	b bʲ d̪ d̪ʲ f fʲ j k kʲ l lʲ m mʲ n̪ n̪ʲ p pʲ r s sʲ tɕ t̪ ts̪ t̪ʲ v vʲ x xʲ z zʲ ɕː g gʲ ɾʲ ʂ ʐ a e i o u ɨ
iris1253-2262	Irish	iris1253	Indo-European	Eurasia	53.2186	-7.61509	49	35	14	0	3	0	0	2.5	bʲ bˠ c d̠ʲ d̪ˠ fʲ fˠ h j k l l̠ʲ l̪ˠ mʲ mˠ n n̠ʲ n̪ˠ pʲ pˠ sˠ t̠ʲ t̪ˠ vʲ w x ç ŋ ɕ ɟ g ɣ ɲ ɾʲ ɾˠ a au e i ia o u ua æ ɔ ɛ ɤ ɪ ʌ
lowa1242-2263	Lowa	lowa1242	Sino-Tibetan	Eurasia	29.0324	83.8959	43	35	8	0	0	0	0	4.375	b d dz dʒ h j k kʰ l l̥ m n p pʰ r r̥ s t ts tsʰ tʰ tʃ tʃʰ w z ç ŋ ɖ g ɦ ɲ ʃ ʈ ʈʰ ʔ a e i o u æ ɵ ʉ
stod1241-2264	Stod Bhoti	stod1241	Sino-Tibetan	Eurasia	32.497	77.116	41	35	6	0	0	0	0	5.833333333333333	b bʱ c cʰ dʒ d̪ d̪ʱ h j k kʰ l m n p pʰ r tʃ tʃʰ t̪ t̪ʰ w z ŋ ɖ ɖʱ ɟ ɟʱ g gʱ ɲ ʃ ʈ ʈʰ ʒ a e i o u ə
dani1285-2265	Danish	dani1285	Indo-European	Eurasia	54.8655	9.36284	26	15	11	0	0	0	0	1.3636363636363635	f h j k kʰ l m n p pʰ s t tsʰ ʁ ʋ a e i o u y ø œ ɔ ə ɛ
taji1245-2266	Tajik	taji1245	Indo-European	Eurasia	38.8213	68.5549	29	23	6	0	0	0	0	3.8333333333333335	b dʑ d̪ f h j k l m n p q s tɕ t̪ v z ɕ g ɾ ʁ ʑ χ ä e i o u ɵ
yong1270-2267	Narua	yong1270	Sino-Tibetan	Eurasia	27.8	100.9	47	37	10	0	0	0	0	3.7	b d dz dʑ f h j k kʰ l l̥ m n p pʰ q qʰ s t ts tsʰ tɕ tɕʰ tʰ w z ɕ ɖʐ g ɢ ɣ ɲ ʂ ʈʂ ʈʂʰ ʐ ʑ i u æ æ̃ ɑ ɔ ɛ ɤ ɯ ɯ̝
stan1290-2269	French	stan1290	Indo-European	Eurasia	48.0	2.0	34	20	14	0	0	0	0	1.4285714285714286	b d f j k l m n p s t v w z g ɥ ɲ ʁ ʃ ʒ a e i o u y ø œ ɑ̃ ɔ ɔ̃ ə ɛ ɛ̃
ishk1246-2270	Ishkashimi	ishk1246	Indo-European	Eurasia	36.67	71.55	39	32	7	0	0	0	0	4.571428571428571	b d dz dʒ f h j k l m n p q r s t ts tʃ v w x z ɖ g ɣ ɭ ʂ ʃ ʈ ʈʂ ʐ ʒ ä e̞ i o u ɔ ə
khan1273-2271	Kazym-Berezover-Suryskarer Khanty	khan1273	Uralic	Eurasia	62.4308	66.1218	25	16	9	0	0	0	4	1.7777777777777777	c̟ j k l m n p r s t w x ç̟ ŋ ɲ̟ ȴ a äː ĕ e̞ː i o u uː ɵ̞ː
swis1247-2272	Central Alemannic	swis1247	Indo-European	Eurasia	47.0516	8.46419	55	26	29	0	8	0	10	0.896551724137931	b̥ d̥ f h j k kx l m n p pf s t ts tʃ v̥ x z̥ ŋ g̊ ɣ̊ ʀ ʃ ʋ ʒ̊ e ei̯ eː i iə̯ iː o oi̯ ou̯ oː u uə̯ uː y yə̯ yː æ æi̯ æu̯ æː ø øː œ œː ɒ ɒː ə ɛ ɛː
west2392-2273	Western Mari	west2392	Uralic	Eurasia	56.22	46.569	34	24	10	0	0	0	0	2.4	j k l̺ m n̺ p r s sʲ tɕ t̪̺ ts̺ x z zʲ ð̺ ŋ ɣ ɲ ɸ ʂ ʎ ʐ β a e i o u y̞ æ œ ɪ ɪ̈
czec1258-2274	Czech	czec1258	Indo-European	Eurasia	49.873398	15.10437	40	27	13	0	3	0	5	2.076923076923077	b c dʒ d̺ f j k l m n p r r̝ s ts tʃ t̪ v x z ɟ g ɦ ɲ ʃ ʒ ʔ ä äu̯ äː iˑ o ou̯ oː u uː ɛ ɛu̯ ɛː ɪ
malt1254-2275	Maltese	malt1254	Afro-Asiatic	Eurasia	35.8884	14.4508	35	24	11	0	0	0	6	2.1818181818181817	b dz dʒ d̪ f h j k l m n p r s ts tʃ t̪ v w z g ʃ ʒ ʔ iː uː ɐ ɐː ɔ ɔː ɛ ɛː ɪ ɪː ʊ
nucl1305-2277	Kannada	nucl1305	Dravidian	Eurasia	13.5878	76.1198	44	34	10	0	0	0	5	3.4	b bʱ c cʰ d̪ d̪ʱ f h j k kʰ l̪ m n̪ p pʰ r̪ s̪ t̪ t̪ʰ w z̪ ɖ ɖʱ ɟ ɟʱ g gʱ ɭ ɳ ʂ ʃ ʈ ʈʰ a aː e eː i iː o oː u uː
mira1251-2278	Mirandese	mira1251	Indo-European	Eurasia	41.5375	-6.38371	49	22	27	0	16	0	0	0.8148148148148148	b d f j k l m n p r s s̺ t tɕ z z̺ ɕ g ɲ ɾ ʎ ʑ ä äi̯ äu̯ ei̯ eu̯ e̞ e̞u̯ ẽ̞ i iu̯ ĩ i̯a i̯e i̯ẽ oi̯ ou̯ õ o̞ o̞i̯ u ui̯ ũ u̯a u̯o u̯õ ɐ ɐ̃
khan1273-2279	Kazym-Berezover-Suryskarer Khanty	khan1273	Uralic	Eurasia	62.4308	66.1218	26	16	10	0	0	0	5	1.6	c̟ j k l m n p r s t w x ç̟ ŋ ɲ̟ ȴ ä äː ĕ e̞ː i o oː uː æ æː
tsha1245-2280	Tshangla	tsha1245	Sino-Tibetan	Eurasia	27.3694	91.7741	39	32	7	0	2	0	0	4.571428571428571	b d dz dʑ h j k kʰ l l̥ m n p pʰ s t ts tsʰ tɕ tɕʰ tʰ w z ŋ ɕ ɖ g ɲ ɾ ʈ ʈʰ ʑ a ai au e i o u
chal1275-2281	Chaldean Neo-Aramaic	chal1275	Afro-Asiatic	Eurasia	37.0972	43.5027	45	37	8	0	0	0	5	4.625	b bˤ d dˤ dʒ f h j k l lˤ m mˤ n p pˤ q r rˤ s sˤ t tˤ tʃ tʃˤ v w x z zˤ ħ g ɣ ʃ ʒ ʔ ʕ a aː eː iː oː uː ɨ ʉ
lith1251-2282	Lithuanian	lith1251	Indo-European	Eurasia	55.1429	23.9601	59	45	14	0	2	0	4	3.2142857142857144	b bʲ dzʲ dʲ dʒ dʒʲ d̪ dz̪ f fʲ j k kʲ lʲ m mʲ nʲ n̪ p pʲ r rʲ sʲ s̪ tsʲ tʲ tʃ tʃʲ t̪ ts̪ v vʲ x xʲ zʲ z̪ g gʲ ɣ ɣʲ lˠ ʃ ʃʲ ʒ ʒʲ äː e i iɛ iː o u uɔ uː æː ɐ ɛ ɪ̯ ʊ̯
osse1243-2283	Modern Ossetic	osse1243	Indo-European	Eurasia	42.98	44.61	39	32	7	0	0	0	0	4.571428571428571	b̥ d̺̥ f j k kʰ kʷ kʷʰ kʼʷ kʼ l m n̺ p pʰ pʼ q qʷ r̺ s̺ t̺ t̺ʰ t̺ʼ v w z̺ g̊ g̥ʷ ʁ ʁʷ χ χʷ e̞ i o̞ u ɐ̆ ɑ̝̹ ɨ̆
jude1256-2284	Judeo-Tat	jude1256	Indo-European	Eurasia	42.068306	48.264749	31	23	8	0	0	0	0	2.875	b d dʒ f h j kʰ l m n pʰ s tʰ tʃʰ v z ħ g ɢ ɾ ʃ ʕ χ a i u y æ ɔ ɛ ɨ
ladi1251-2285	Ladino	ladi1251	Indo-European	Eurasia	41.205	28.6632	25	20	5	0	0	0	0	4.0	b dʒ d̪ f h j k l m n p s tʃ t̪ v z ɣ ɲ ɾ ʃ ä e i o u
nort2745-2286	Northern Yukaghir	nort2745	Yukaghir	Eurasia	70.498	157.853	39	20	19	0	4	0	7	1.0526315789473684	b d dʒ j k l m n p q r s t tʃ w ŋ g ɲ ʁ ʎ ä äː i iɛ̠ iː u œ̠ œ̠ː ə əː ɛ̠ ɛ̠ː ɞ̠ ɞ̠ː ɨä ʉ ʉœ̠ ʉɞ̠ ʉː
kore1280-2287	Korean	kore1280	Koreanic	Eurasia	37.5	128.0	38	21	17	0	1	0	8	1.2352941176470589	b̥ d̥ dʑ̥ h j k kʰ m n p pʰ s sʰ t tɕ tɕʰ tʰ w ŋ g̊ ɾ eː e̞ iː oː o̞̜ uː ɐ ɑ̟ː ɘː ɛː ɛ̝ ɨi ɪ ɯː ɯ̽ ʊ̜ ʌ
even1260-2288	Even	even1260	Tungusic	Eurasia	70.6687	130.914	36	18	18	0	2	0	8	1.0	b d dʒ j k l m n p r s̠ t tʃ ħ ŋ g ɲ β̞ a aː e eː i ie iː iˤ iˤæ iˤː o oː oˤ oˤː u uː uˤ uˤː
munj1244-2289	Munji	munj1244	Indo-European	Eurasia	35.9321	70.9404	44	35	9	0	0	0	5	3.888888888888889	b c d dz dʒ f h k l m n p q r s t ts tʃ v w x z ç ɖʐ ɟ g ɲ ɽ ʂ ʃ ʈʂ ʐ ʒ ʝ χ a eː iː uː ɐ ɑː ɔ̜ː ə ʊ
brah1256-2290	Brahui	brah1256	Dravidian	Eurasia	29.04	66.56	43	26	17	0	0	0	10	1.5294117647058822	b dʒ d̪ f j k l̪ m n̪ p r̪ s̪ tʃ t̪ w x z̪ ɖ g ɣ ɬ̪ ɽ ʃ ʈ ʒ ʔ a aː ã ãː i iː ĩ ĩː u uː ũ ũː ɔː ɔ̃ː ɛ ɛː ɛ̃ː
nauk1242-2291	Naukan Yupik	nauk1242	Eskimo-Aleut	Eurasia	65.5184	-171.755	22	18	4	0	0	0	0	4.5	j k l l̥ m n p q r s t v w x ŋ ɣ ʁ χ ä i u ɨ
even1259-2292	Evenki	even1259	Tungusic	Eurasia	61.972	94.689	25	17	8	0	0	0	0	2.125	b d dʒ j k l m n p r s t tʃ w x ŋ g e̞ i o u ɑ ɔ ə ʊ
kuvi1243-2293	Kuvi	kuvi1243	Dravidian	Eurasia	18.8832	83.7552	37	22	15	0	0	0	5	1.4666666666666666	b cç d̪̺ h j k l m n̪ p r s t̪̺ ŋ ɖ ɟʝ g ɳ ɽ ʈ ʔ β̞ a aː ã e̞ e̞ː ẽ̞ i iː ĩ o̞ o̞ː õ̞ u uː ũ
thak1245-2294	Thakali	thak1245	Sino-Tibetan	Eurasia	28.7014	83.6466	29	19	10	0	4	0	0	1.9	j k kʰ l m n p pʰ r r̥ s t ts tsʰ tɕ tʰ ŋ ɬ ʈ a ai̯ e ei̯ i o oi̯ u ui̯ ɒ
mund1320-2295	Mundari	mund1320	Austroasiatic	Eurasia	23.03	85.85	28	23	5	0	0	0	0	4.6	b c d h j k l m n p r s t w ŋ ɖ ɟ g ɲ ɳ ɽ ʈ ʔ a e i o u
nort2697-2296	North Azerbaijani	nort2697	Turkic	Eurasia	40.9777	46.4737	39	24	15	0	0	0	6	1.6	b̥ c dʒ d̪ f h j k l m n̪ pʰ s̪ tʃ t̪ v z̪ ɟ g̊ ɾ ʁ ʃ ʒ χ e̞ e̞ː i iː o̞ u uː y æ æː œ̞ œ̞ː ɑ ɑː ɯ
itel1242-2297	West Itelmen	itel1242	Chukotko-Kamchatkan	Eurasia	56.046173	156.30704	32	27	5	0	0	0	0	5.4	j k kʼ l lʲ l̥ʲ m n nʲ p pʼ q q̺ r s̺ t̺ tɕ̺ tɕ̺ʼ t̺ʼ x z̺ ŋ ɣ ɸ ʔ β χ a i o̞̜ u̜ ɛ
puxi1242-2298	Puxi	puxi1242	Sino-Tibetan	Eurasia	32.225	102.63	66	36	30	0	18	0	0	1.2	b dʑ d̪ dz̪ f k kʰ l m m̩ n̪ n̪̩ p pʰ q qʰ s tɕ tɕʰ t̪ ts̪ ts̪ʰ t̪ʰ z ŋ ŋ̍ ɕ ɖʐ g ɲ ʁ ʂ ʈʂ ʈʂʰ ʐ χ a ai e ei e˞ i ie io iu o ou u ua ue ui uɑ uɑ˞ uə u˞ y ya ye yi ɑ ɑu ɑ˞ ə əi əu ə˞
bujh1238-2299	Bujhyal	bujh1238	Sino-Tibetan	Eurasia	28.0084	84.5068	47	31	16	0	6	0	0	1.9375	b bʱ dʒ d̪ d̪ʱ h j j̊ k kʰ l l̥ m m̥ n n̥ p pʰ r r̥ s tʃ tʃʰ t̪ t̪ʰ w ŋ ŋ̊ g gʱ ʍ a ai au ã e ẽ i ĩ o oi u ui ũ ə əi əu
lazz1240-2300	Laz	lazz1240	Kartvelian	Eurasia	41.5004	41.9096	34	29	5	0	0	0	0	5.8	b dz dʒ d̪ f h j kʰ kʼ l m n̪ pʰ pʼ s ts tsʼ tʃ tʃʼ t̪ʰ t̪ʼ v z g ɾ ʁ ʃ ʒ χ a i u ɔ ɛ
kang1281-2301	Kangjia	kang1281	Mongolic-Khitan	Eurasia	35.043	101.254	36	27	9	0	0	0	0	3.0	f h j k kʰ l m n p pʰ q qʰ r s t ts tsʰ tʰ tʃ tʃʰ v z ŋ ɣ ʁ ʃ χ a e i o u ɔ ə ɨ ʉ
mait1250-2302	Maithili	mait1250	Indo-European	Eurasia	26.3817	86.2211	51	26	25	0	9	0	0	1.04	b bʱ dʒ dʒʱ d̪ d̪ʱ h k kʰ m n p pʰ r s tʃ tʃʰ t̪ t̪ʰ ŋ ɖ ɖʱ g gʱ ʈ ʈʰ a ai au ã e eu ẽ i iu ĩ o oi ou õ u ui ũ æ æ̃ ɔ ɔ̃ ə əi əu ə̃
roma1326-2304	Romansh	roma1326	Indo-European	Eurasia	46.5538	9.92812	46	27	19	0	0	0	9	1.4210526315789473	b c d dz dʒ f h j k l m n p r s t ts tʃ v w z ɟ g ɲ ʃ ʎ ʒ ä äː e eː i iː o oː u uː y yː ø øː ɔ ɔː ə ɛ ɛː
bond1245-2305	Bondo	bond1245	Austroasiatic	Eurasia	19.1512	83.8141	42	21	21	0	12	0	0	1.0	b d j k l m n p r s t w z ŋ ɖ ɟ g ɲ ɳ ʈ ʔ a ai̯ au̯ ã ãi̯ ãõ ãu̯ e ea ei̯ ẽi̯ i ĩ o oi̯ õ õi̯ u ua ui̯ ũ
balt1258-2306	Balti	balt1258	Sino-Tibetan	Eurasia	34.4491	77.2859	40	35	5	0	0	0	0	7.0	b d dʒ h j k kʰ l l̥ m n p pʰ q s t ts tsʰ tʰ tʃ tʃʰ w x z ŋ ɖ ɖʐ g ɣ ʃ ʈ ʈʂ ʈʂʰ ʈʰ ʒ a i u ɔ ɛ
sher1255-2307	Solu-Khumbu Sherpa	sher1255	Sino-Tibetan	Eurasia	27.674	86.9994	50	34	16	0	0	0	0	2.125	c cʰ d dz dʒ d̪ h j k kʰ l l̥ m n p pʰ r r̥ s ts tsʰ tʃ tʃʰ t̪ t̪ʰ w ŋ ɖ ɟ g ɲ ʃ ʈ ʈʰ a ã e ẽ i ĩ o õ u ũ ɔ ɔ̃ ɛ ɛ̃ ʌ ʌ̃
stan1288-2308	Spanish	stan1288	Indo-European	Eurasia	40.4414	-1.11788	25	18	7	0	0	0	0	2.5714285714285716	b d̻ f k l m n p s̠̺ tʃ t̻ ɟʝ g ɲ ɾ ʃ θ χ ä e̞ i i̯ o̞ u u̯
yuec1235-2309	Yue Chinese	yuec1235	Sino-Tibetan	Eurasia	23.0	113.0	41	19	22	0	11	0	0	0.8636363636363636	f h j k kʰ kʷ kʷʰ l m n p pʰ s t ts tsʰ tʰ w ŋ a ai au ei i iu ou u ui y œ ɐ ɐi ɐu ɔ ɔi ɛ ɛu ɪ ɵ ɵy ʊ
kaba1278-2310	Kabardian	kaba1278	Abkhaz-Adyge	Eurasia	43.5082	43.3918	55	47	8	0	0	0	5	5.875	b d dz dʒ f fʼ j kʷ kʼʷ m n p pʼ q qʷ qʼʷ qʼ r s t ts tsʼ tʼ tʃ tʃʼ v w x xʷ z ħ gʷ ɣ ɬ ɬʼ ɮ ʁ ʁʷ ʃ ʃʲ ʃʼʲ ʒ ʒʲ ʔ ʔʷ χ χʷ ä e̞ː iː o̞ o̞ː uː ɑː ə
lezg1247-2311	Lezgian	lezg1247	Nakh-Daghestanian	Eurasia	41.5157	47.8951	47	38	9	0	0	0	0	4.222222222222222	b d dʒ f h j k kʰ kʼ l m n p pʰ pʼ q qʰ qʼ r s t ts tsʰ tsʼ tʰ tʼ tʃ tʃʰ tʃʼ v x z g ɣ ʃ ʒ ʕ χ i u y æ œ ɑ ɔ ɛ ɯ
daur1238-2312	Dagur	daur1238	Mongolic-Khitan	Eurasia	48.0	124.0	57	45	12	0	0	0	5	3.75	f j k kʰ kʲ kʲʰ kʷ kʷʰ l lʲ m mʲ mʷ n nʲ p pʰ pʲ pʲʰ r rʲ s sʷ t ts tsʰ tʰ tʲ tʲʰ tʷ tʷʰ tʃ tʃʰ tʃʷ tʃʷʰ w x xʲ xʷ ŋ ʃ ʃʷ ʈʂ ʈʂʰ ʐ i iː i̯ u uː u̯ ɑ ɑː ɔ ɔː ə əː
huml1238-2313	Humla	huml1238	Sino-Tibetan	Eurasia	30.1451	81.5659	69	41	28	0	0	0	14	1.4642857142857142	b c cʰ d dz dʒ h j k kʰ l m ⁿb n ⁿd ⁿdz ⁿdʒ p pʰ r r̥ s t ts tsʰ tʰ tʃ tʃʰ w z ŋ ⁿg ɖ ɟ g ɲ ⁿɖ ʃ ʈ ʈʰ ʒ a aː ã ãː e eː ẽ ẽː i iː ĩ ĩː o oː õ õː u uː ũ ũː y yː ỹ ỹː ø øː ø̃ ø̃ː
nort2741-2314	Northeastern Thai	nort2741	Tai-Kadai	Eurasia	16.03	103.67	32	20	12	0	3	0	0	1.6666666666666667	b c d f h j k kʰ l m n p pʰ s t tʰ w ŋ ɲ ʔ a e i ia o u ua ɔ ɛ ɤ ɯ ɯɑ
dhiv1236-2315	Dhivehi	dhiv1236	Indo-European	Eurasia	1.928498	73.54433	39	27	12	0	1	0	6	2.25	b cʰ d̪ f h j kʰ l m ⁿb n ⁿd̪ pʰ s t̪ʰ v z̪ ⁿg ɖ ɟ g ɭ ɲ ⁿɖ ɾ ʂ ʈʰ ä äu̯ äː e eː i iː o oː u uː æː
lith1251-2316	Lithuanian	lith1251	Indo-European	Eurasia	55.1429	23.9601	40	26	14	0	2	0	6	1.8571428571428572	b dʒ d̪ dz̪ f j k kʲ lʲ m n̪ p r s̪ tʃ t̪ ts̪ v x z̪ g gʲ ɣ lˠ ʃ ʒ äː e eː iɛ iː o oː uɔ uː æː ɐ ɛ ɪ̯ ʊ̯
russ1264-2317	Russia Buriat	russ1264	Mongolic-Khitan	Eurasia	50.8533	105.564	45	27	18	0	3	0	9	1.5	b bʲ dʲ d̺ j l lʲ m mʲ n nʲ pʰ pʲʰ r̺ r̺ʲ s̺ tʲʰ t̺ʰ xʲ z̺ ħ gʲ ɢ ɴ ʃ ʒ χ i iː u ui uː œ̞ɛ̞ ɑ ɑː ɔ ɔː ɛː ɤː ɤ̟ ɨː ɵː ʊ ʊi ʊː
kara1467-2318	Kara-Kalpak	kara1467	Turkic	Eurasia	39.98	63.3223	38	25	13	0	2	0	2	1.9230769230769231	b d f h j k l m n p q r s t ts tɕ v w z ŋ g ʁ ʃ ʒ χ i i̯ː i̘ o̞̙ u̯ː u̙ y yu̯ æ ø̞ ɑ̙ ɯ̙ ɯ̙i̯
lahu1253-2319	Lahu	lahu1253	Sino-Tibetan	Eurasia	21.2701	100.214	46	24	22	0	12	0	1	1.0909090909090908	b d dʒ f j k kʰ l m n p pʰ q qʰ t tʰ tʃ tʃʰ v x ŋ g ɣ ʃ a ai̯ au̯ e i i̯ː o u ue u̯a u̯e u̯i u̯ɛ ɔ ɔu̯ ə əi̯ əu̯ ɛ ɨ ɨi̯ ɨɛ
laoo1244-2320	Lao	laoo1244	Tai-Kadai	Eurasia	19.0	102.46	33	21	12	0	3	0	0	1.75	b c d f h j k kʰ l m n p pʰ s t tʰ v w ŋ ɲ ʔ a e i ia o u ua ɔ ɛ ɤ ɯ ɯɑ
nort2646-2321	Northern Pashto	nort2646	Indo-European	Eurasia	34.0	71.33	33	22	11	0	0	0	6	2.0	b dʒ d̪ h j kʰ m n pʰ s tʃʰ t̪ʰ w x z ɖ g ɣ ɽ ɽ̃ ʃ ʈʰ a aː eː iː oː uː ɑː ə ɛ ɪ ʊ
cent1973-2322	Central Pashto	cent1973	Indo-European	Eurasia	31.9153	69.4529	31	25	6	0	0	0	3	4.166666666666667	b dz d̪ j kʰ m n pʰ s tsʰ tʃʰ t̪ʰ w x z ɖ g ɣ ɽ ɽ̃ ʂ ʃ ʈʰ ʐ ʒ a eː œː ɔː ə ɪ
osse1243-2324	Modern Ossetic	osse1243	Indo-European	Eurasia	42.98	44.61	47	40	7	0	0	0	0	5.714285714285714	b̥ dʒ̊ d̺̥ dz̺̥ f j k kʰ kʷ kʷʰ kʼʷ kʼ l m n̺ p pʰ pʼ q qʷ r̺ tʃ tʃʰ tʃʼ t̺ ts̺ ts̺ʰ ts̺ʼ t̺ʰ t̺ʼ v w ɕ g̊ g̥ʷ ʁ ʁʷ ʑ χ χʷ e̞ i o̞ u ɞ̞̆ ɑ ɨ̆
ligu1248-2325	Ligurian	ligu1248	Indo-European	Eurasia	44.0816	7.90522	45	24	21	0	1	0	11	1.1428571428571428	b dʑ d̪ dz̪ f k l m n p r s tɕ t̪ ts̪ v z ŋ ɕ g ɲ ɾ ʎ ʑ aː e eː i iː i̯ o oː u uː u̯ y yː æ æi̯ ø øː œː ɑː ɔː ɛː
voti1245-2326	Votic	voti1245	Uralic	Eurasia	59.3802	28.6235	55	35	20	0	0	0	10	1.75	b dʒ d̪ d̪ʲ f fʲ h hʲ j k l lʲ m mʲ n̪ n̪ʲ p pʲ r rʲ s sʲ ts tʃ t̪ t̪ʲ v vʲ z zʲ ɕ g lˠ ʃ ʒ e eː i iː o oː u uː y yː æ æː ø øː ɑ ɑː ɘ ɘː ɨ ɨː
kham1282-2327	Khams Tibetan	kham1282	Sino-Tibetan	Eurasia	31.9313	91.7062	62	44	18	0	9	0	0	2.4444444444444446	b d dz dʑ h j k kʰ l m ⁿb m̥ n ⁿd ⁿdz ⁿdʑ n̥ p pʰ r s t ts tsʰ tɕ tɕʰ tʰ w z ŋ ⁿg ɕ ɖʐ g ɬ ɲ ɲ̊ ⁿɖʐ ʂ ʈʂ ʈʂʰ ʐ ʑ ʔ a e ei i ia iu iə o u ua ui uə y ya yə ə ɛ ɯ
kham1282-2328	Khams Tibetan	kham1282	Sino-Tibetan	Eurasia	31.9313	91.7062	61	40	21	0	0	0	14	1.9047619047619047	b c cʰ d dz dʑ h j k kʰ l l̥ m n ⁿd ⁿdz ⁿtsʰ p pʰ r s t ts tsʰ tɕ tɕʰ tʰ w z ŋ ⁿg ɕ ɖ ɟ g ɳ ⁿɖ ʈ ʈʰ ʑ a aː ãː eː iː oː uː y yː øː œ œ̃ː ɔ ɔː ɔ̜̃ː ɛ ɛː ɛ̃ː ɪ ʊ ʊ̃ː
dido1241-2329	Tsez	dido1241	Nakh-Daghestanian	Eurasia	42.2646	45.8096	42	36	6	0	0	0	1	6.0	b d̪ h j k kʼ l m n̪ p pʼ q qʼ qˤ qʼˤ r̪ s ts tsʼ tʃ tʃʼ t̪ tɬ̪ tɬ̪ʼ t̪ʼ w z g ɬ ʁ ʁˤ ʃ ʒ ʜ ʡ χ a aː e i o u
wymy1235-2330	Wymysorys	wymy1235	Indo-European	Eurasia	49.91617	19.15195	35	20	15	0	6	0	0	1.3333333333333333	b d f h j k l m n p r s t v w z ŋ g ʃ ʒ a aɪ e eɪ i u yø ø øə ɑ ɔ ɔʏ ɨ ɪə ʏ
gaga1249-2331	Gagauz	gaga1249	Turkic	Eurasia	44.5988	28.0277	46	28	18	0	3	0	6	1.5555555555555556	b bʲ d dʑ dʲ f h j k l lʲ m n nʲ p r s sʲ t ts tʃ v x z ɕ g gʲ ʑ ä äː e̞ e̞ː i iː i̯e̞ o̞ o̞ː uː y yː æ ø̞ ɯi̯ ɯ̯ɤ̞ ɯ̽ ʊ
nort2647-2332	Northwestern Pakhto	nort2647	Indo-European	Eurasia	34.0	71.33	36	25	11	0	0	0	6	2.272727272727273	b dʒ d̪ h j kʰ m n pʰ s tʃʰ t̪ʰ w x z ç ɖ g ɣ ɽ ɽ̃ ʃ ʈʰ ʒ ʝ a aː eː iː oː uː ɑː ə ɛ ɪ ʊ
sout2746-2333	Southern Thai	sout2746	Tai-Kadai	Eurasia	6.85668	99.7031	35	21	14	0	3	0	2	1.5	b c cʰ d f h j k kʰ l m n p pʰ r s t tʰ w ŋ ʔ a e i ia o u ua ɔ ɛ ɛˑ ɤ ɤˑ ɯ ɯa
friu1240-2334	Friulian	friu1240	Indo-European	Eurasia	46.1473	13.0493	39	25	14	0	0	0	7	1.7857142857142858	b c dz̪ dʒ d̪ f j k l m n p s ts̪ tʃ t̪ v w z ɟ g ɲ ɾ ʃ ʒ a aː e eː i iː o oː u uː ɔ ɔː ɛ ɛː
lakk1252-2335	Lak	lakk1252	Nakh-Daghestanian	Eurasia	42.1328	47.0809	68	58	10	0	0	16	3	5.8	b d̪ h j k kʷ kʼʷ kʷː kʼ kː l̪ m n̪ p pʼ pː q qʷ qʼʷ qʷː qʼ qː r̪ s̪ s̪ː tʃ tʃʷ tʃʼʷ tʃʷː tʃʼ tʃː t̪ ts̪ ts̪ʼ ts̪ː t̪ʼ t̪ː w x xʷ xʷː xː z̪ ɣ ɣʷ ʁ ʃ ʃʷ ʃʷː ʃː ʒ ʒʷ ʔ ʜ χ χʷ χʷː χː ä ḛ i iː u uː æ̰ ɑ̝ ɑ̝ː ɞ̰
kuni1268-2336	Kunigami	kuni1268	Japonic	Eurasia	26.5911	128.068	25	20	5	0	0	0	0	4.0	b cʰ cʼ d̺ h j kʰ kʼ m n̺ pʰ pʼ r̺ s t̺ʰ t̺ʼ w z g ʔ ä e̞ i o̞ u
luxe1241-2337	Moselle Franconian	luxe1241	Indo-European	Eurasia	49.6839	6.14931	48	26	22	0	8	0	6	1.1818181818181819	f h j k kʰ l m n p pʰ s t ts tʰ tʃ v w z ŋ ɕ ʀ ʁ ʃ ʑ ʒ χ aː e eː i iə iː o oː u uə uː æ æːi æːʊ ɐ ɑ ɑi ɑʊ ə əʊ ɛː ɜi
nucl1310-2338	Burmese	nucl1310	Sino-Tibetan	Eurasia	20.7926	93.9665	54	33	21	0	8	0	0	1.5714285714285714	b d dʒ h j k kʰ l m m̥ n n̥ p pʰ s sʰ t tʰ tʃ tʃʰ w z ð ŋ ŋ̊ g ɬ ɲ ɲ̊ ʃ ʍ ʔ θ a aɪ aɪ̃ aʊ aʊ̃ ã e eɪ eɪ̃ i o oʊ oʊ̃ u ɔ ə ɛ ɪ ɪ̃ ʊ ʊ̃
saur1249-2339	Sauria Paharia	saur1249	Dravidian	Eurasia	24.8124	87.6432	34	24	10	0	0	0	5	2.4	b c d̪ h j k l m n̪ p q r s t̪ w ŋ ɖ ɟ g ɣ ɲ ɽ ʈ θ a aː e eː i iː o oː u uː
basq1248-2340	Basque	basq1248		Eurasia	43.2787	-1.31622	30	23	7	0	0	0	0	3.2857142857142856	b c d f k l̺ m n̺ p r̺ s̺ s̻ t ts̺ ts̻ tʃ x ɟ g ɲ ɾ̺ ʃ ʎ ä e̞ i i̯ o̞ u u̯
lazz1240-2341	Laz	lazz1240	Kartvelian	Eurasia	41.5004	41.9096	38	33	5	0	0	0	0	6.6	b cʰ cʼ dz dʒ d̪ f h j kʰ kʼ l m n̪ pʰ pʼ qχʼ s ts tsʼ tʃ tʃʼ t̪ʰ t̪ʼ v z ɟ g ɾ ʁ ʃ ʒ χ a i u ɔ ɛ
nepa1254-2342	Nepali	nepa1254	Indo-European	Eurasia	28.0	85.0	44	29	15	0	4	0	0	1.9333333333333333	b bʱ c cʰ d̪ d̪ʱ h j k kʰ l m n̪ p pʰ r s t̪ t̪ʰ w ŋ ɖ ɖʱ ɟ ɟʱ g gʱ ʈ ʈʰ a ã e ẽ i ĩ o u ũ ə əi əĩ əu əũ ə̃
rusy1239-2343	Rusyn	rusy1239	Indo-European	Eurasia	48.7171	22.9579	44	37	7	0	0	0	0	5.285714285714286	b bʲ dʑ d̪ dz̪ d̪ʲ f j k lʲ l̪ m mʲ n̪ p pʲ r rʲ s̪ tɕ t̪ ts̪ t̪ʲ v vʲ w x z̪ ɕ ɖʐ g ɦ ɲ ʂ ʈʂ ʐ ʑ a e̞ i o̞ u ɪ ɯ̽
guru1261-2344	Gurung	guru1261	Sino-Tibetan	Eurasia	27.41687	86.28988	49	29	20	0	0	0	6	1.45	b dz dʒ d̪ h j k kʰ l l̥ m n̪ p pʰ s ts tsʰ tʃ tʃʰ t̪ t̪ʰ w ŋ ɖ g ɾ ʃ ʈ ʈʰ i ĩ i̤ u ũ ṳ ɔ ɔː ɔ̃ ɔ̤ ɔ̤ː ɛ ɛː ɛ̃ ɛ̤ ɛ̤ː ʌ ʌː ʌ̤ ʌ̤ː
west2368-2345	Western Balochi	west2368	Indo-European	Eurasia	37.83	62.17	44	24	20	0	8	0	6	1.2	b d dʒ h j k l m n p s t tʃ x z ɖ g ɣ ɽ ɾ ʃ ʈ ʋ ʒ ä iɛː iː ĩɛ̃ː ĩː oː uɔː ũɔ̃ː æɪ̯ æ̃ɪ̯̃ øː ø̃ ɒː ɒ̃ː ɔʊ̯ ɔ̃ʊ̯̃ ɪ ɪ̃ ʊ ʊ̃
baim1244-2346	Baima	baim1244	Sino-Tibetan	Eurasia	33.1001	103.952	66	40	26	0	11	0	0	1.5384615384615385	b d dz dʑ dʒ k kʰ l m ⁿb n ⁿd ⁿdz ⁿdʑ ⁿdʒ p pʰ r s sʰ t ts tsʰ tɕ tɕʰ tʰ tʃ tʃʰ z ŋ ⁿg ɕ ɕʰ g ɦ ɲ ʃ ʃʰ ʑ ʒ a e i io iø iɑ iɔ iɛ o õ u ue uɑ uɑ̃ uɔ uɛ y yɛ ø ɐ ɑ ɑ̃ ɔ ə ɛ ɛ̃
besi1244-2347	Besisi	besi1244	Austroasiatic	Eurasia	2.717	101.676	58	30	28	0	0	0	0	1.0714285714285714	b d dʑ h j k kʰ l l̥ m m̥ n n̥ p pʰ s t tɕ tɕʰ tʰ w ŋ ŋ̊ g ɰ ɲ ɲ̊ ɾ ʍ ʔ a ã a̤ e ẽ e̤ i ĩ i̤ o õ o̤ u ũ ṳ ɔ ɔ̃ ɔ̤ ə ə̃ ə̤ ɛ ɛ̃ ɛ̤ ɨ̞ ɯ ɯ̃ ɯ̤
west2368-2348	Western Balochi	west2368	Indo-European	Eurasia	37.83	62.17	34	24	10	0	2	0	5	2.4	b d dʒ h j k l m n p s t tʃ x z ɖ g ɣ ɽ ɾ ʃ ʈ ʋ ʒ ä äː eː iː oː uː æɛ ɔʊ̯ ɪ ʊ
adyg1241-2349	Adyghe	adyg1241	Abkhaz-Adyge	Eurasia	44.0	39.33	58	55	3	0	0	0	0	18.333333333333332	b d dz dʑ dʑʷ f h j k kʷ kʼʷ kʼ m n p pʼʷ pʼ q qʷ r s t ts tsʼ tɕ tɕʼ tʼʷ tʼ tʃ tʃʼ tʃʲʷ w x xʷ z ɕ gʷ ɣ ɬ ɬʼ ɮ ʁ ʁʷ ʃ ʃʲ ʃʲʷ ʃʼʲʷ ʃʼʲ ʑ ʒ ʒʲ ʔʼʷ ʔʼ χ χʷ a e ə
dakp1242-2350	Dakpakha	dakp1242	Sino-Tibetan	Eurasia	27.3762	91.8245	53	34	19	0	11	0	0	1.7894736842105263	b d dz dʑ j k kʰ l l̥ m n p pʰ r s t ts tsʰ tɕ tɕʰ tʰ w x z ŋ ɕ ɖʐ g ɣ ɲ ʂ ʈʂ ʈʂʰ ʑ e eu i io iu iɑ o u ui uɑ y yu ø øu ɑ ɑi ɑu ə əu
osse1243-2351	Modern Ossetic	osse1243	Indo-European	Eurasia	42.98	44.61	44	37	7	0	0	1	0	5.285714285714286	b̥ dʒ̊ d̺̥ f j k kʰ kʷ kʷʰ kʼʷ kʼ l m n̺ p pʰ pʼ q qʷ r̺ s̺ tʃ tʃʰ t̺ ts̺ʼ ts̺ː t̺ʰ t̺ʼ v w z̺ g̊ g̥ʷ ʁ ʁʷ χ χʷ e̞ i o̞ u ɐ̆ ɑ̝̹ ɨ̆
lizu1234-2352	Lizu	lizu1234	Sino-Tibetan	Eurasia	28.333425	101.350309	58	50	8	1	0	0	0	6.25	b d dz dʑ dʒ h j k kʰ l m ⁿb ⁿpʰ n ⁿd ⁿdz ⁿdʑ ⁿtsʰ ntɕʰ ⁿtʰ ⁿdʒ ⁿtʃʰ p pʰ q qʰ s t ts tsʰ tɕ tɕʰ tʰ tʃ tʃʰ w x z ŋ ŋ̍ ɕ g ɣ ɬ ɲ ɹ ʃ ʑ ʒ ʔ e i o u y æ ɐ ə
bett1235-2354	Betta Kurumba	bett1235	Dravidian	Eurasia	11.6385	76.6064	37	22	15	0	3	0	6	1.4666666666666666	b d dʒ d̪ f j k l m n p s̠̻ t t̪ ŋ ɖ g ɭ ɳ ɾ ʈ ʋ iː ɐi ɑ ɑː ɔ ɔː ə əi əː ɛ ɛː ɪ ʊː ʊ̈i ʊ̞
kumy1244-2355	Kumyk	kumy1244	Turkic	Eurasia	43.0	47.0	31	23	8	0	0	0	0	2.875	b d f h j l m n p q r s t ts tʃ w z ŋ g ʁ ʃ ʒ ʕ a i u y œ ɔ ɛ ɨ
chan1310-2356	Chantyal	chan1310	Sino-Tibetan	Eurasia	28.684	83.4488	48	21	27	0	9	0	0	0.7777777777777778	b d dz j k kʰ l m n p pʰ r s t ts tsʰ tʰ w ŋ g ɲ e ei̯ ẽ e̤ i iu ĩ i̤ o oi̯ õ o̤ u ue ui̯ ũ ṳ ɑ ɑy ɑɯ ɑ̃ ɑ̤ ʌ ʌy ʌɯ ʌ̃ ʌ̤
bhoj1244-2357	Bhojpuri	bhoj1244	Indo-European	Eurasia	26.458455	84.817115	51	35	16	0	4	0	0	2.1875	b bʱ c cʰ d̪ d̪ʱ j k kʰ l lʰ m mʰ n nʰ p pʰ r rʰ s t̪ t̪ʰ w ŋ ŋʰ ɖ ɖʱ ɟ ɟʱ g gʱ ɽ ɽʰ ʈ ʈʰ a ai au ã ãĩ ãũ e ẽ i ĩ o õ u ũ ʌ ʌ̃
gheg1238-2358	Gheg Albanian	gheg1238	Indo-European	Eurasia	42.317	21.3837	43	27	16	0	0	0	5	1.6875	b dz dʒ d̪ f h j k l m n p r s ts tʃ t̪ v z ð ŋ g l̪ˠ ɾ ʃ ʒ θ ä̃ ä äː e eː ẽ i iː ĩ o oː u uː ũ y ỹ
hooo1248-2359	Ho	hooo1248	Austroasiatic	Eurasia	23.9596	87.1188	35	22	13	0	3	0	0	1.6923076923076923	b c d h j k l m n p r s t w ŋ ɖ ɟ g ɲ ɽ ʈ ʔ a ai au ã e ẽ i ĩ o oe õ u ũ
rawa1265-2360	Rawang	rawa1265	Sino-Tibetan	Eurasia	27.1027	97.0738	34	20	14	0	0	0	7	1.4285714285714286	b d dʒ j kʰ l m n pʰ s tʰ tʃʰ w x z ŋ g ɻ ʃ ʔ a aː e eː i iː o oː u uː ə əː ɵ ɵː
saek1240-2361	Saek	saek1240	Tai-Kadai	Eurasia	17.4558	104.787	44	23	21	0	3	0	9	1.0952380952380953	b c cʰ d f h j k kʰ l m n p pʰ r s t tʰ v w ŋ ɲ ʔ a aː e eː i ia iː o oː u ua uː ɔ ɔː ɛ ɛː ɤ ɤː ɯ ɯa ɯː
chuk1273-2362	Chukchi	chuk1273	Chukotko-Kamchatkan	Eurasia	68.6436	170.045	20	14	6	0	0	0	0	2.3333333333333335	j kx m n̪̺ p qχ r̺ tɕ t̪̺ w ŋ ɣ ɬ̪̺ ʔ ä e̞ i o̞ u ə̆
mace1250-2363	Macedonian	mace1250	Indo-European	Eurasia	41.5957	21.7932	32	26	6	0	0	0	0	4.333333333333333	b c dʒ d̪ dz̪ f j k l m n̪ p r s̪ tʃ t̪ ts̪ v x z̪ ɟ g l̪ˠ ɲ ʃ ʒ ä e i o u ə
pare1266-2364	Gorum-Parenga	pare1266	Austroasiatic	Eurasia	19.075	83.9723	26	16	10	0	0	0	0	1.6	j k l m n p r s t z ŋ ɖ g ɲ ɽ ʔ a ã e ẽ i ĩ u ũ ɔ ɔ̃
taus1251-2365	Tausug	taus1251	Austronesian	Papunesia	5.12236	118.88	23	20	3	0	0	0	0	6.666666666666667	b d dʒ h j k l m n p s tʃ t̪ w z ŋ g ɲ ɾ ʔ ä i u
lada1244-2366	Leh Ladakhi	lada1244	Sino-Tibetan	Eurasia	33.468	80.6013	38	33	5	0	0	0	0	6.6	b dz dʒ d̪ h j k kʰ l l̥ m n p pʰ r s ts tsʰ tʃ tʃʰ t̪ t̪ʰ w z ŋ ɖ g ɲ ʂ ʃ ʈ ʈʰ ʒ e i o u ə
shan1277-2367	Shan	shan1277	Tai-Kadai	Eurasia	21.5995	98.0342	34	24	10	0	0	0	1	2.4	b c d f h j k kʰ l m n p pʰ s sʰ t tʰ v w x ŋ ɰ ʑ ʔ a aː e i o u ɔ ɛ ɤ ɯ
bulg1262-2368	Bulgarian	bulg1262	Indo-European	Eurasia	43.3646	25.047	43	37	6	0	0	0	0	6.166666666666667	b bʲ c dʲ dʒ d̪ dz̪ f fʲ j k m mʲ n p pʲ r rʲ sʲ s̪ tsʲ tʲ tʃ t̪ ts̪ v vʲ x zʲ z̪ ɟ g l̪ˠ ɲ ʃ ʎ ʒ ä i u ɔ ɛ ɤ̟
spit1240-2369	Spiti Bhoti	spit1240	Sino-Tibetan	Eurasia	32.526	77.833	40	33	7	0	0	0	0	4.714285714285714	b d dz dʑ h j k kʰ l m n p pʰ r s t ts tsʰ tɕ tɕʰ tʰ w z ŋ ɖ g ɲ ɽ ʂ ʃ ʈ ʈʰ ʒ a e i o u ɔ ɛ
gily1242-2370	Amur Nivkh	gily1242	Nivkh	Eurasia	52.59	140.681	34	28	6	0	0	0	0	4.666666666666667	cç cçʰ h j k kʰ l m n p pʰ q qʰ r r̥ s t tʰ w x z ŋ ɣ ɲ ɸ ʁ β χ ä e̞ i o̞ u ɨ
lazz1240-2371	Laz	lazz1240	Kartvelian	Eurasia	41.5004	41.9096	38	33	5	0	0	0	0	6.6	b cʰ cʼ dz dʒ d̪ f h j kʰ kʼ l m n̪ pʰ pʼ qχʼ s ts tsʼ tʃ tʃʼ t̪ʰ t̪ʼ v z ɟ g ɾ ʁ ʃ ʒ χ a i u ɔ ɛ
nort2686-2372	Northern Altai	nort2686	Turkic	Eurasia	50.8998	88.0672	34	18	16	0	0	4	8	1.125	c cçː l̺ m n p pː q qː r̺ s̺ t tː ŋ ɕ ɣ ɲ ʔ ɑ ɑː ɒ ɒː ɛ ɛː ɞ ɞː ɪ ɪː ɯ̽ ɯ̽ː ɵ ɵː ɶ ɶː
atay1247-2373	Atayal	atay1247	Austronesian	Papunesia	24.5209	121.388	24	18	6	0	0	0	0	3.0	j k l m n p q r s t ts w x ħ ɣ ʒ ʔ β ä i u y ɔ ɛ
luuu1242-2374	Lü	luuu1242	Tai-Kadai	Eurasia	21.0321	101.282	39	21	18	0	0	0	9	1.1666666666666667	b c d f h j k l m n p pʰ r s t tʰ v w x ŋ ʔ a aː e eː i iː o oː u uː ɔ ɔː ɛ ɛː ɤ ɤː ɯ ɯː
arag1245-2375	Aragonese	arag1245	Indo-European	Eurasia	42.4669	-0.00919	27	20	7	0	0	0	0	2.857142857142857	b d̪ f k l m n p r s̺ tʃ t̪ x ɟʝ̞ g ɲ ɾ̞ ʃ ʎ θ ä e i i̯ o u u̯
khan1273-2376	Kazym-Berezover-Suryskarer Khanty	khan1273	Uralic	Eurasia	62.4308	66.1218	36	26	10	0	0	1	4	2.6	b d f j k l m n p r s t ts tʃ w x̠ z ç ŋ ɕː g ɬ ɬʲ ɲ ʃ ʒ eˑ i o̟ˑ u̞ˑ ɑ̟ˑ ɑ̝̟ ə̆ ɛ ɞ ʊ̈
brah1256-2377	Brahui	brah1256	Dravidian	Eurasia	29.04	66.56	43	26	17	0	0	0	10	1.5294117647058822	b dʒ d̪ f h j k l̪ m n̪ p r̪ s̪ tʃ t̪ w x z̪ ɖ g ɣ ɬ̪ ɽ ʃ ʈ ʒ a aː ã ãː i iː ĩ ĩː u uː ũ ũː ɔː ɔ̃ː ɛ ɛː ɛ̃ː
faro1244-2378	Faroese	faro1244	Indo-European	Eurasia	62.0732	-6.88497	36	16	20	0	8	0	5	0.8	f h j k kʰ l m n p pʰ r s t tʰ v ʃ a aɪ eː iː oː uː øː œ ɔ ɔa ɔu ɔɪ ɛ ɛa ɛɪ ɪ ʉu ʊ ʊɪ ʏ
dzal1238-2379	Dzalakha	dzal1238	Sino-Tibetan	Eurasia	27.7855	91.374	59	37	22	0	4	0	9	1.6818181818181819	b c cʰ d dz dʑ h j k kʰ l l̥ m n p pʰ r s t ts tsʰ tɕ tɕʰ tʰ w z ŋ ɕ ɖʐ ɟ g ɲ ʂ ʈʂ ʈʂʰ ʑ ʔ a ai au aː e eu eː i iu iː o oː u uː y yː ø øː ɔ ɔː ɛ ɛː
tibe1272-2380	Tibetan	tibe1272	Sino-Tibetan	Eurasia	28.3681	90.1872	50	27	23	0	0	0	14	1.173913043478261	h j k kʰ kʲ kʲʰ l l̥ m n p pʰ s t ts tsʰ tɕ tɕʰ tʰ w ŋ ɲ ɹ ɹ̥ ʂ ʈ ʈʰ a aː ãː e eː ẽː i iː ĩː o oː õː u uː ũː y ỹː ø ø̃ː ɔ ɔː ɛ ɛ̃ː
kirg1245-2382	Kirghiz	kirg1245	Turkic	Eurasia	42.0	74.0	37	21	16	0	0	0	8	1.3125	b dʒ d̪ f j m n p q r s̪ tʃ t̪ ts̪ v z̪ ɢ lˠ ɴ ʃ χ e̞ e̞ː i iː o̞ o̞ː u uː y yː ø̞ ø̞ː ɑ ɑː ɯ ɯː
darm1243-2383	Darma	darm1243	Sino-Tibetan	Eurasia	29.8629	80.5439	34	26	8	0	0	0	0	3.25	b c d̪ h j k kʰ l m n̪ p pʰ s t tʰ t̪ t̪ʰ w ŋ ɖ ɟ g ɾ ʈ ʈʰ χ a ã e i o õ u ɛ
laoo1244-2385	Lao	laoo1244	Tai-Kadai	Eurasia	19.0	102.46	33	21	12	0	3	0	0	1.75	b c d f h j k kʰ l m n p pʰ s t tʰ v w ŋ ɲ ʔ a e i ia o u ua ɔ ɛ ɤ ɯ ɯɑ
puoc1238-2386	Ksingmul	puoc1238	Austroasiatic	Eurasia	20.8862	103.931	38	20	18	0	3	0	8	1.1111111111111112	b c d h k kʰ l m n p pʰ s t tʰ w zʲ ŋ g ɲ ʔ ä äː i iə iː o oː u uə uː ɔː ə əː ɛ ɛː ɨ ɨə ɨː
telu1262-2387	Telugu	telu1262	Dravidian	Eurasia	16.4529	78.7024	44	33	11	0	0	0	6	3.0	b bʱ c cʰ d̪ d̪ʱ f h j k kʰ l̪ m n̪ p pʰ r̪ s̪ t̪ t̪ʰ w ɖ ɖʱ ɟ ɟʱ g gʱ ɭ ɳ ʂ ʃ ʈ ʈʰ a aː e eː i iː o oː u uː æː
east2773-2388	Eastern Newari	east2773	Sino-Tibetan	Eurasia	27.576985	86.033964	36	24	12	0	0	0	0	2.0	b d dʑ h j k kʰ l m n p pʰ s t tɕ tɕʰ tʰ w ŋ ɖ g ɾ ʈ ʈʰ a ã e ẽ i ĩ o õ u ũ ɑ ɑ̃
osse1243-2389	Modern Ossetic	osse1243	Indo-European	Eurasia	42.98	44.61	47	40	7	0	0	0	0	5.714285714285714	b̥ dʒ̊ d̺̥ dz̺̥ f j k kʰ kʷ kʷʰ kʼʷ kʼ l m n̺ p pʰ pʼ q qʷ r̺ tʃ tʃʰ tʃʼ t̺ ts̺ ts̺ʰ ts̺ʼ t̺ʰ t̺ʼ v w ɕ g̊ g̥ʷ ʁ ʁʷ ʑ χ χʷ e̞ i o̞ u ɐ̆ ɑ̝̹ ɨ̆
bats1242-2390	Bats	bats1242	Nakh-Daghestanian	Eurasia	42.1806	45.344	51	33	18	0	1	0	4	1.8333333333333333	b dz dʒ d̪ f h kʰ kʼ m n pʰ pʼ qʰ qχʼ s tsʰ tsʼ tʃʰ tʃʼ t̪ʰ t̪ʼ z ħ g lˠ ɬ ɾ ʁ ʃ ʒ ʜ ʡ χ e ẽ i ie iː ĩ i̯ ĩ̯ o̞ o̞ː õ̞ u ũ u̯ ɑ ɑː ɑ̃ ɛː
hela1238-2391	Lamjung-Melamchi Yolmo	hela1238	Sino-Tibetan	Eurasia	27.9212	85.6289	46	36	10	0	0	0	5	3.6	b c cʰ d dz dʑ h j k kʰ l l̥ m n p pʰ s t ts tsʰ tɕ tɕʰ tʰ w z ŋ ɕ ɖ ɟ g ɲ ɹ ɹ̥ ʈ ʈʰ ʑ a aː e eː i iː u uː ɔ ɔː
svan1243-2392	Svan	svan1243	Kartvelian	Eurasia	42.9134	42.5915	47	30	17	0	0	0	8	1.7647058823529411	b dz dʒ d̪ h j kʰ kʼ l m n̪ pʰ pʼ qʰ qʼ r s ts tsʼ tʃ tʃʼ t̪ʰ t̪ʼ w z g ʁ ʃ ʒ χ ä äː i iː u uː y yː æ æː œ œː ɔ ɔː ɛ ɛː ɯ
kyer1238-2393	Kyerung	kyer1238	Sino-Tibetan	Eurasia	28.2922	85.4257	63	40	23	0	0	0	14	1.7391304347826086	b c cʰ d dz dʑ h j k kʰ l l̥ m ⁿb n ⁿd ⁿdz ⁿdʑ p pʰ r s t ts tsʰ tɕ tɕʰ tʰ w z ŋ ɕ ɖ ɟ g ɦ ɲ ʈ ʈʰ ʑ a aː ãː e eː ẽ i iː o oː õː u uː ũː y yː ỹː ø øː ø̃ː ɛ ɛː ɛ̃ː
dzon1239-2394	Dzongkha	dzon1239	Sino-Tibetan	Eurasia	27.410786	89.581604	58	32	26	0	8	0	13	1.2307692307692308	b d dz dʑ h j k kʰ l l̥ m n p pʰ r s t ts tsʰ tɕ tɕʰ tʰ w z ŋ ɕ ɖ g ɲ ʈ ʈʰ ʑ ai au aːu e eu eː ẽː i iu iː ĩː o ou oː õː u uː ũː øu øː ɑ ɑː ɑ̃ː ɛu ɛː ʏː
kett1243-2395	Ket	kett1243	Yeniseian	Eurasia	63.7551	87.5466	25	14	11	0	0	0	0	1.2727272727272727	b d h j k m n̺ p qχ s̺ t ŋ ɮ̺ ɾ ä e i o u æ ɔ ə ɛ ɯ ʌ
wayu1241-2396	Wayu	wayu1241	Sino-Tibetan	Eurasia	27.3047	86.1227	54	26	28	0	0	0	14	0.9285714285714286	b dz dʑ d̪ h j k kʰ l l̥ m n̪ p pʰ s ts tsʰ tɕ t̪ t̪ʰ w x ŋ g ɾ ʍ a aː ã ãː e eː ẽ ẽː i iː ĩ ĩː o oː õ õː u uː ũ ũː ɪ ɪː ɪ̃ ɪ̃ː ʊ ʊː ʊ̃ ʊ̃ː
paiw1248-2397	Paiwan	paiw1248	Austronesian	Papunesia	22.3271	120.806	25	21	4	0	0	0	0	5.25	b c d j k m n p q r t ts v w ŋ ɖ ɟ g ɺ ʎ ʔ ä i u ə
stan1295-2398	German	stan1295	Indo-European	Eurasia	48.649	12.4676	40	24	16	0	0	0	8	1.5	b dʒ d̺ f h j kʰ l m n pf pʰ s ts tʃ t̺ʰ v z ç ŋ g ʀ ʃ ʒ a aː eː iː oː uː yː øː œ ɔ ə ɛ ɛː ɪ ʊ ʏ
east2295-2399	Eastern Yiddish	east2295	Indo-European	Eurasia	51.75	19.42	37	24	13	0	4	0	3	1.8461538461538463	b d dz dʒ f h k l lʲ m n nʲ p s̺ t ts tʃ v x z̺ g ʀ ʃ ʒ a ai aː e ei i iː o oi ou u uː ə
kaba1278-2401	Kabardian	kaba1278	Abkhaz-Adyge	Eurasia	43.5082	43.3918	63	55	8	0	0	0	5	6.875	b d dz dʑ f fʼ j kʷ kʼʷ kʼ l m n p pʼ q qʷ qʼʷ qʼ r s t ts tsʼʷ tsʼ tɕ tɕʼ tʼʷ tʼ tʃ tʃʼ v w x xʷ z zʷ ħ ɕ gʷ ɣ ɬ ɬʼ ʁ ʁʷ ʃ ʃʲ ʃʼʲ ʑ ʒ ʒʲ ʔ ʔʷ χ χʷ ä e̞ː iː o̞ o̞ː uː ɑː ə
nene1249-2402	Tundra Nenets	nene1249	Uralic	Eurasia	66.1775	71.0234	35	27	8	0	0	0	5	3.375	b bʲ dʲ j k l m mʲ n p pʲ r rʲ s sʲ t ts tsʲ tʲ w wʲ x ð ŋ ɲ ʎ ʔ oː u uː ɑː ə ɤː ɨ ɨː
kara1464-2403	Karaim	kara1464	Turkic	Eurasia	54.5534	25.1054	37	29	8	0	0	0	0	3.625	b bʲ d dʲ j kʰ kʲʰ l m mʲ n nʲ pʰ s sʲ tʰ tʲʰ tʃ tʃʲ w z zʲ g gʲ lˠ ɾ ɾʲ ʃ ʃʲ e i o̞ u y ø ɑ ɯ
varl1238-2404	Varli	varl1238	Indo-European	Eurasia	20.5635	73.2975	46	28	18	0	0	0	6	1.5555555555555556	b bʱ dʒ dʒʱ d̪ d̪ʱ h j k kʰ l m n p pʰ s tʃ t̪ t̪ʰ ɖ ɖʱ g gʱ ɭ ɾ ʈ ʈʰ ʋ ä̃ ä ẽ i iː ĩ ĩː o oː õ õː u uː ũ ũː ə ə̃ ɛ
dutc1256-2405	Dutch	dutc1256	Indo-European	Eurasia	52.0	5.0	43	18	25	0	3	0	10	0.72	b d f j k l m n p s t v z ŋ ɦ ɾ ʋ χ aː ã eː i iː oː u uː y yː øː œy œː ɑ ɔ ɔː ɔ̃ ə ɛ ɛi ɛː ɛ̃ ɪ ʌu ʏ
wels1247-2406	Welsh	wels1247	Indo-European	Eurasia	52.0	-4.0	48	29	19	0	8	0	5	1.5263157894736843	dʒ f h j k kʰ l m m̥ n n̥ p pʰ r r̥ s t tʰ tʃ v w z ð ŋ ŋ̊ ɬ ʃ θ χ a ai au eː iː oː uː ɑː ɔ ɔi ə əi əu ɛ ɛu ɪ ɪu ʊ ʊi
japh1234-2407	Japhug	japh1234	Sino-Tibetan	Eurasia	32.1	102.36	58	50	8	0	0	0	0	6.25	b c cʰ d dz dʑ j k kʰ l l̥ m ⁿb n ⁿd ⁿdz ⁿdʑ p pʰ q qʰ r s t ts tsʰ tɕ tɕʰ tʰ w x z ŋ ⁿg ɕ ɖʐ ɟ g ɣ ɲ ⁿɟ ⁿɖʐ ⁿɢ ʁ ʂ ʈʂ ʈʂʰ ʑ ʔ χ a e i o u y ɤ ɯ
osse1243-2408	Modern Ossetic	osse1243	Indo-European	Eurasia	42.98	44.61	47	40	7	0	0	0	0	5.714285714285714	b̥ dʒ̊ d̺̥ dz̺̥ f j k kʰ kʷ kʷʰ kʼʷ kʼ l m n̺ p pʰ pʼ q qʷ r̺ s̺ tʃ tʃʰ tʃʼ t̺ ts̺ ts̺ʰ ts̺ʼ t̺ʰ t̺ʼ v w z̺ g̊ g̥ʷ ʁ ʁʷ χ χʷ e̞ i o̞ u ɐ̆ ɑ̝̹ ɨ̆
ming1252-2409	Mingrelian	ming1252	Kartvelian	Eurasia	42.5129	41.8719	36	31	5	0	0	0	0	6.2	b dz dʒ d̪ h j kʰ kʼ lʲ m n̪ pʰ pʼ qχʼ r s ts tsʼ tʃ tʃʼ t̪ʰ t̪ʼ v w z g ʁ ʃ ʒ ʔ χ i u ɑ ɔ ɛ
lazz1240-2410	Laz	lazz1240	Kartvelian	Eurasia	41.5004	41.9096	36	29	7	0	0	0	0	4.142857142857143	b dz dʒ d̪ f h j kʰ kʼ l m n̪ pʰ pʼ s ts tsʼ tʃ tʃʼ t̪ʰ t̪ʼ v z g ɾ ʁ ʃ ʒ χ a i u y œ ɔ ɛ
tibe1272-2411	Tibetan	tibe1272	Sino-Tibetan	Eurasia	28.3681	90.1872	42	29	13	0	0	0	8	2.230769230769231	c cʰ h j k kʰ l l̥ m m̥ n̪ p pʰ r r̥ s ts tsʰ tɕ tɕʰ t̪ t̪ʰ w ŋ ɕ ɲ ʈ ʈʰ ʔ a aː eː iː oː uː yː øː ɔ ə ɛː ɪ ʊ
alut1245-2412	Alutor	alut1245	Chukotko-Kamchatkan	Eurasia	60.3844	165.653	27	18	9	0	0	0	5	2.0	j k l̪ l̪ʲ m n̪ n̪ʲ p qˤ r t̪ v w ŋ ɕ ɣ ʔ ʡˤ ä äː e̞ː i iː o̞̜ː u uː ə̞̆
east2328-2413	Eastern Mari	east2328	Uralic	Eurasia	55.8307	48.405	31	22	9	0	0	0	0	2.4444444444444446	j k l̺ m n̺ p r s sʲ tɕ t̪̺ z zʲ ð̺ ŋ ɣ ɲ ʂ ʈʂ ʎ ʐ β a e i o u y̞ æ œ ɪ̈
nort2741-2414	Northeastern Thai	nort2741	Tai-Kadai	Eurasia	16.03	103.67	32	20	12	0	3	0	0	1.6666666666666667	b c d f h j k kʰ l m n p pʰ s t tʰ w ŋ ɲ ʔ a e i ia o u ua ɔ ɛ ɤ ɯ ɯɑ
sikk1242-2415	Sikkimese	sikk1242	Sino-Tibetan	Eurasia	27.85795	88.59153	65	37	28	0	4	0	16	1.3214285714285714	h j k kʰ l l̥ m ⁿb n ⁿd ⁿdz ⁿdʑ n̥ p pʰ r r̥ s t ts tsʰ tɕ tɕʰ tʰ w z ŋ ⁿg ŋ̊ ɕ ɲ ɲ̊ ⁿɖ ʈ ʈʰ ʑ ʔ a aː ãː e eː ẽː i iu iː ĩː o ou oː õː u uː ũː y yː ỹː ø øː ø̃ː ɐi ɐu ɛ ɛː ɛ̃ː
ming1252-2417	Mingrelian	ming1252	Kartvelian	Eurasia	42.5129	41.8719	37	31	6	0	0	0	0	5.166666666666667	b dz dʒ d̪ h j kʰ kʼ lʲ m n̪ pʰ pʼ qχʼ r s ts tsʼ tʃ tʃʼ t̪ʰ t̪ʼ v w z g ʁ ʃ ʒ ʔ χ i u ɑ ɔ ə ɛ
yagn1238-2418	Yagnobi	yagn1238	Indo-European	Eurasia	39.1486	69.2422	36	27	9	0	0	0	6	3.0	b d dʒ f h j k l m n p q r s t tʃ v z ħ g ʁ ʃʲ ʒʲ ʕ β̞ χ χʷ a eː iː o̞ː uː yː ɑː ɪ ʊ
basq1248-2419	Basque	basq1248		Eurasia	43.2787	-1.31622	36	24	12	0	0	0	5	2.0	b c d dʒ f k l̺ m n̺ p r̺ s̺ s̻ t ts̺ ts̻ tʃ x ɟ g ɲ ɾ̺ ʃ ʎ ä äː e̞ e̞ː i iː i̯ o̞ o̞ː u uː u̯
zhon1235-2420	Zhongu	zhon1235	Sino-Tibetan	Eurasia	32.43582	103.44179	68	59	9	0	0	0	0	6.555555555555555	b d dz dʒ k kʰ l l̥ m ⁿb ⁿpʰ m̥ n ⁿd ⁿdz ⁿtsʰ ⁿtʰ ⁿdʒ ⁿtʃʰ n̥ p pʰ q qʰ r r̥ s t ts tsʰ tʰ tʃ tʃʰ w z ŋ ⁿkʰ ⁿg ŋ̊ ɖʐ g ɣ ɲ ɲ̊ ⁿɖʐ ⁿʈʂʰ ʁ ʂ ʃ ʈʂ ʈʂʰ ʐ ʒ ʰk ʰp ʰt ʰts ʰtʃ χ a e i o u ɑ ɔ ə ɛ
tibe1272-2421	Tibetan	tibe1272	Sino-Tibetan	Eurasia	28.3681	90.1872	41	27	14	0	0	0	8	1.9285714285714286	c cʰ h j k kʰ l l̥ m m̥ n p pʰ r s ts tsʰ tɕ tɕʰ t̪ t̪ʰ w ŋ ɕ ɲ ʈ ʈʰ a aː eː iː oː uː yː æ øː ɔ ə ɛː ɪ ʊ
nort2741-2422	Northeastern Thai	nort2741	Tai-Kadai	Eurasia	16.03	103.67	32	20	12	0	3	0	0	1.6666666666666667	b c d f h j k kʰ l m n p pʰ s t tʰ w ŋ ɲ ʔ a e i ia o u ua ɔ ɛ ɤ ɯ ɯa
shan1277-2423	Shan	shan1277	Tai-Kadai	Eurasia	21.5995	98.0342	32	22	10	0	0	0	1	2.2	c cʰ d h j k kʰ l m n p pʰ s sʰ t tʰ v w ŋ ɰ ɲ ʔ a aː e i o u ɔ ɛ ɤ ɯ
osse1243-2424	Modern Ossetic	osse1243	Indo-European	Eurasia	42.98	44.61	47	40	7	0	0	0	0	5.714285714285714	b̥ dʒ̊ d̺̥ dz̺̥ f j k kʰ kʷ kʷʰ kʼʷ kʼ l m n̺ p pʰ pʼ q qʷ r̺ s̺ tʃ tʃʰ tʃʼ t̺ ts̺ ts̺ʰ ts̺ʼ t̺ʰ t̺ʼ v w z̺ g̊ g̥ʷ ʁ ʁʷ χ χʷ e̞ i o̞ u ɐ̆ ɑ ɨ̆
stan1289-2425	Catalan	stan1289	Indo-European	Eurasia	41.453	1.569	34	25	9	0	0	0	0	2.7777777777777777	b dz̺ dʒ d̪ f j k l̺ m n̺ p r̺ s̺ ts̺ tʃ t̪ v w z̺ ŋ g ɲ̟ ɾ̺ ʃ ȴ a e i i̯ o u u̯ ɔ̞ ɛ̞
nyaw1245-2426	Nyaw	nyaw1245	Tai-Kadai	Eurasia	17.1213	104.151	31	20	11	0	2	0	0	1.8181818181818181	b c d f h j k kʰ l m n p pʰ s t tʰ w ŋ ɲ ʔ a e i ia o u ua ɔ ɛ ɤ ɯ
ital1282-2427	Italian	ital1282	Indo-European	Eurasia	43.0464	12.6489	30	23	7	0	0	0	0	3.2857142857142856	b dz dʒ d̪ f j k l m n p s ts tʃ t̪ v w z g ɲ ɾ ʃ ʎ a e i o u ɔ ɛ
nucl1302-2428	Georgian	nucl1302	Kartvelian	Eurasia	41.850397	43.78613	33	28	5	0	0	0	0	5.6	b dz dʒ d̪ h kʰ kʼ m n̪ pʰ pʼ qχʼ s ts tsʼ tʃ tʃʼ t̪ʰ t̪ʼ z g lˠ ɾ ʁ ʃ ʋ ʒ χ i u ɑ ɔ ɛ
cebu1242-2430	Cebuano	cebu1242	Austronesian	Papunesia	8.38799	124.367	19	16	3	0	0	0	0	5.333333333333333	b d̪ h j k l m n p r s t̪ w ŋ g ʔ ɪ ʊ ʌ
cent1973-2431	Central Pashto	cent1973	Indo-European	Eurasia	31.9153	69.4529	30	24	6	0	0	0	3	4.0	b dz d̪ h j kʰ m n pʰ s tsʰ tʃʰ t̪ʰ w x z ɖ g ɣ ɽ ɽ̃ ʃ ʈʰ ʒ a eː œː ɒː ə ɪ
osse1243-2432	Modern Ossetic	osse1243	Indo-European	Eurasia	42.98	44.61	40	33	7	0	0	0	0	4.714285714285714	b̥ dʒ̊ d̺̥ dz̺̥ f j k kʰ kʼ l m n̺ p pʰ pʼ q r̺ tʃ tʃʰ tʃʼ t̺ ts̺ ts̺ʰ ts̺ʼ t̺ʰ t̺ʼ v w g̊ ʁ ʃ ʒ χ e̞ i o̞ u ɞ̞̆ ɑ ɨ̆
khak1248-2433	Khakas	khak1248	Turkic	Eurasia	50.7393	107.169	39	23	16	0	0	0	8	1.4375	b d dʒ f j k l m n p r s t ts tʃ v z ŋ g ʁ ʃ ʒ χ iː u uː y yː œ œː ɑ ɑː ɔ ɔː ɛ ɛː ɪ̞ ɯ ɯː
vach1239-2434	Vach Khanty	vach1239	Uralic	Eurasia	60.10378	79.873651	30	18	12	0	0	0	8	1.5	c j l m n p q r s t v ŋ ɭ ɲ ɳ ʁ ʈʂ ʎ eˑ iˑ oˑ yˑ æˑ øˑ ɑˑ ɪ ɯˑ ɯ̽ ʊ ʏ
gata1239-2435	Gata'	gata1239	Austroasiatic	Eurasia	18.6076	82.984	40	23	17	0	6	0	0	1.3529411764705883	b c h k l m ⁿb n ⁿd p r s t ŋ ⁿg ɖ ɟ g ⁿɟ ⁿɖ ɽ ʈ ʔ a ã e ẽ i ia ĩ o oi õ u ui ũ u̯a u̯e u̯i œ
ming1252-2436	Mingrelian	ming1252	Kartvelian	Eurasia	42.5129	41.8719	35	30	5	0	0	0	0	6.0	b dz dʒ d̪ h j kʰ kʼ m n̪ pʰ pʼ qχʼ r s ts tsʼ tʃ tʃʼ t̪ʰ t̪ʼ v w z g ʁ ʃ ʒ ʔ χ i u ɑ ɔ ɛ
sind1272-2437	Sindhi	sind1272	Indo-European	Eurasia	26.0	69.0	56	46	10	0	0	0	0	4.6	b bʱ d̪ d̪ʱ dʑ̻ dʑ̻ʱ f h j k kʰ l̪ l̪ʱ m mʱ n nʱ p pʰ r s t̪ t̪ʰ tɕ̻ tɕ̻ʰ x z ŋ ɓ ɖ ɖʱ ɗ ɠ g gʱ ɣ ɲ ɳ ɳʱ ɽ ɽʱ ʂ ʄ ʈ ʈʰ ʋ e i o u æ ɐ̆ ɑ ɔ ɪ̆ ʊ̆
arbe1236-2438	Arbëreshë Albanian	arbe1236	Indo-European	Eurasia	38.911	16.7164	36	30	6	0	0	0	0	5.0	b d dz dʒ f j k kʲ m n p r s t ts tʃ v z ç ð g gʲ ɣ lˠ ɲ ɾ ʃ ʎ ʒ θ a i u œ ɔ ɛ
kurt1248-2439	Kurtokha	kurt1248	Sino-Tibetan	Eurasia	27.5365	90.9822	45	31	14	0	4	0	5	2.2142857142857144	b c cʰ d̪ h j k kʰ l m n p pʰ r s t̪ ts̪ ts̪ʰ t̪ʰ w z ç ŋ ɖ ɟ g ɬ ɲ ʈ ʈʰ ʔ e eː i iu iː o oi oː u ui uː ɑ ɑu ɑː
kara1474-2440	Karata	kara1474	Nakh-Daghestanian	Eurasia	42.6501	46.3151	53	45	8	0	0	14	0	5.625	b d dʒ h j kxʼː kʰ kʼ l m n pʰ qχʰː r s sʼː sː tsʰ tsʰː tsʼ tɬʰː tɬʼː tʰ tʼ tʃʰ tʃʰː tʃʼ w x xː z çː g ɣ ɬ ɬː ʃ ʃʼː ʃː ʒ ʔ ʜ ʝ ʢ χʼː ä̃ ä e̞ i ĩ̞ o̞ u ũ
norw1258-2441	Norwegian	norw1258	Indo-European	Eurasia	59.92	10.71	40	24	16	0	0	0	8	1.5	b d f h j kʰ l m n pʰ s tʰ w ç ŋ ɖ g ɭ ɳ ɽ ɾ ʂ ʈ ʋ eː i iː oː u uː y yː øː œ ɑ ɑː ɔ ɛ ʉ ʉː
sout2679-2442	South Estonian	sout2679	Uralic	Eurasia	57.85	27.0	44	26	18	0	0	0	8	1.4444444444444444	f fʲ h hʲ j k kʲ l lʲ m mʲ n nʲ p pʲ r rʲ sʲ s̪ tsʲ tʲ t̪ ts̪ ʋ ʋʲ ʔ e̞ i iː o̞ u uː y yː æ æː ø̞ ɑ ɑː ɤ̞ ɪː ɯ ʊː ʏː
roma1327-2443	Romanian	roma1327	Indo-European	Eurasia	46.3913	24.2256	51	40	11	0	2	0	0	3.6363636363636362	b bʲ dʲ dʒ dʒʲ d̪ f fʲ h k kʲ l lʲ m mʲ nʲ n̪ p pʲ sʲ s̪ tsʲ tʲ tʃ tʃʲ t̪ ts̪ v vʲ zʲ z̪ ç g gʲ ɾʲ ɾ̪ ʃ ʃʲ ʒ ʒʲ ä e̞ e̯ä i i̯ o̞ o̯ä u u̯ ə ɨ
yaku1245-2444	Sakha	yaku1245	Turkic	Eurasia	61.6974	133.98	40	20	20	0	4	0	8	1.0	b cç d̺ j j̃ k m n̺ p q r s̻ t̺ ħ ŋ ɟʝ g l̺ˠ ɲ ʁ a ie iː uɔ uː yø yː œ œː ɑː ɔ ɔː ɛ ɛː ɨɛ ɨː ɪ ɪ̈ ʊ ʏ
nort2699-2445	Northwestern Kolami	nort2699	Dravidian	Eurasia	20.1022	78.4934	26	16	10	0	0	0	5	1.6	b dz d̪ j k l m n̪ p r t̪ v ŋ ɖ g ʈ a aː e eː i iː o oː u uː
kare1335-2446	Karelian	kare1335	Uralic	Eurasia	65.1691	30.8655	30	16	14	0	6	0	0	1.1428571428571428	h j k lʲ l̪ m nʲ n̪ p r sʲ s̪ tʲ tʃ t̪ v e̞ i ie̞ iæ o̞ u uo̞ uɑ y yæ yø̞ æ ø̞ ɑ
slov1269-2447	Slovak	slov1269	Indo-European	Eurasia	48.545705	18.78479	45	30	15	0	4	2	5	2.0	b c d dz dʒ̺ f j k lʲ m n p r rː s t ts tʃ̺ x z ɟ g ɦ lˠ lˠː ɲ ʃ̺ ʋ ʎ ʒ̺ ä äː i̞ i̞ː u̞ u̞ː æ ɔ ɔː ɛ ɛː ɪ̯ä ɪ̯u̞ ɪ̯ɔ ʊ̯ɔ
livv1244-2448	Liv	livv1244	Uralic	Eurasia	57.566	22.0262	31	23	8	0	0	0	0	2.875	b c d̺ f h j k l̺ m n̺ p r rʲ s̺ t̺ v z̺ ɟ g ɲ ʃ ʎ ʒ i o u æ ɑ ɛ ɨ ʊ̜
hebr1245-2449	Modern Hebrew	hebr1245	Afro-Asiatic	Eurasia	31.1056	35.0179	25	20	5	0	0	0	0	4.0	b d f h j k l m n p s t ts v x z g ʁ ʃ ʔ a i o u ɛ
fore1274-2450	Forest Nenets	fore1274	Uralic	Eurasia	63.72	71.97	38	25	13	0	0	0	6	1.9230769230769231	j k kʲ l lʲ m mʲ n nʲ p pʲ r s t tɕ w wʲ x xʲ ŋ ŋʲ ɕ ɬ ɬʲ ʔ e̞ e̞ː i iː o̞ o̞ː u uː æ æː ɑ ɑː ə̆
guja1252-2452	Gujarati	guja1252	Indo-European	Eurasia	22.687	71.0962	58	31	27	0	0	0	12	1.1481481481481481	b bʱ dʒ dʒʱ d̪ d̪ʱ f j k kʰ l m n p s tʃ tʃʰ t̪ t̪ʰ ɖ ɖʱ g gʱ ɦ ɳ ɺ ɾ ʃ ʈ ʈʰ ʋ ä̃ː ä ä̤̃ː ä̤ e i ĩː i̤ ĩ̤ː o u ũː ṳ ṳ̃ː æ ɔ ɔ̃ː ɔ̤ ɔ̤̃ː ə ə̃ː ə̤ ə̤̃ː ɛ ɛ̃ː ɛ̤ ɛ̤̃ː
miya1259-2453	Miyako	miya1259	Japonic	Eurasia	24.7564	125.363	19	14	5	0	0	0	0	2.8	f f̩ kʰ m m̩ n n̩ pʰ s s̩ tʰ ɾ ʋ ʋ̩ ä e̞ i̞ ɯ̞ ʊ
maga1260-2454	Magahi	maga1260	Indo-European	Eurasia	25.0915	85.3335	50	34	16	0	4	0	0	2.125	b bʱ c cʰ d̪ d̪ʱ h j k kʰ l lʰ m mʰ n nʰ p pʰ r rʰ s t̪ t̪ʰ w ɖ ɖʱ ɟ ɟʱ g gʱ ɽ ɽʰ ʈ ʈʰ a ã e ẽ i ĩ o õ u ũ əi əu ə̃ĩ ə̃ũ ʌ ʌ̃
slov1268-2455	Slovenian	slov1268	Indo-European	Eurasia	46.2543	14.7766	35	22	13	0	0	0	7	1.6923076923076923	b dʒ d̪ f j k l m n p r s̪ tʃ t̪ ts̪ w x z̪ g ʃ ʋ ʒ a aː eː i iː oː u uː ɔ ɔː ə ɛ ɛː
puri1258-2456	Purik-Sham-Nubra	puri1258	Sino-Tibetan	Eurasia	34.3386	76.0127	37	31	6	0	0	0	0	5.166666666666667	b dʒ d̪ h j k kʰ l m n p pʰ q r s ts tsʰ tʃ tʃʰ t̪ t̪ʰ w x z ŋ g ɢ ɲ ʃ ʒ χ a e i o u ə
mode1248-2458	Modern Greek	mode1248	Indo-European	Eurasia	38.36	23.13	29	24	5	0	0	0	0	4.8	b c d̪ f k l m n p s̠ t̪ v x z̠ ç ð ɟ g ɣ ɲ̟ ɾ̠ ʎ ʝ θ e̞ i o̞ u ɐ
kama1351-2459	Kamas-Koibal	kama1351	Uralic	Eurasia	55.07	94.83	37	26	11	0	0	0	0	2.3636363636363638	b dʑ d̪ j kʰ lʲ l̪ m nʲ n̪ pʰ r̪ sʲ s̪ tɕʰ t̪ʰ w x zʲ z̪ ŋ ɕ g ɣ ʑ ʔ e̞ i o̞ u y ø̞ ɒ ə ə̆ ə̟̆ ɨ
ngan1291-2461	Nganasan	ngan1291	Uralic	Eurasia	73.1354	86.2106	30	20	10	0	1	0	0	2.0	b d j k l m n p r s̺ t tɕ x ð ŋ ɟ g ɲ ʎ ʔ a e i u̟ u̯ɑ y ɐ ɔ̜̟ ə ɨ
viet1252-2462	Vietnamese	viet1252	Austroasiatic	Eurasia	20.681188	105.774071	37	21	16	0	3	0	4	1.3125	f h k l m n p s t tɕ tʰ v w x z ŋ ɓ ɗ ɣ ɲ ʔ a aː e i iə o u uə ɔ ɔː ɛ ɛː ɤ ɤː ɯ ɯə
dhim1246-2463	Dhimal	dhim1246	Sino-Tibetan	Eurasia	26.6283	88.3798	53	31	22	0	6	0	5	1.4090909090909092	b bʱ d dʑ dʑʰ dʱ j j̊ k kʰ l l̥ m m̥ n n̥ p pʰ s t tɕ tʰ w ŋ g gʱ ɦ ɾ ɾ̥ ʍ ʔ a ai au aː ã e eu eː ẽ i iu iː ĩ o oi oː õ u ui uː ũ ə
mong1331-2464	Mongolian	mong1331	Mongolic-Khitan	Eurasia			46	32	14	0	0	0	6	2.2857142857142856	b bʲ dʒ d̥ʲ dz̪ d̪̥ j kʰ m mʲ nʲ n̪ pʰ pʲʰ r rʲ s̪ tʲʰ tʃʰ ts̪ʰ t̪ʰ w̩ w̩ʲ ŋ g gʲ ɢ ɮ ɮʲ ʃ χ χʲ ä äː e eː i oː u uː ɔ ɔː ɯ ɵ ʊ ʊː
andi1255-2465	Andi	andi1255	Nakh-Daghestanian	Eurasia	42.8078	46.2919	68	63	5	0	0	26	0	12.6	b bː d dː dʒ dʒː h h̃ j k kʷ kʼʷ kʼʷː kʷː kʼ kʼː kː l m n p qʼʷː qʷː qʼː qː r s sː t ts tsʼ tsʼː tsː tɬʼː tɬː tʼ tʃ tʃʼ tʃʼː tʃː w xʷː xː z g gʷ gʷː gː ɢ ɢʷ ɬ ɬː ʁ ʁʷ ʃ ʃː ʒ ʔ ʔ̃ χ χʷ χʷː χː a e i o u
urdu1245-2466	Urdu	urdu1245	Indo-European	Eurasia	25.0	67.0	58	37	21	0	0	0	14	1.7619047619047619	b bʱ dʒ dʒʱ d̻ d̻ʱ f j k kʰ l̻ m n̻ p pʰ q r s tʃ tʃʰ t̻ t̻ʰ x z ɖ ɖʱ g gʱ ɣ ɦ ɽ ɽʱ ʂ ʃ ʈ ʈʰ ʋ ä̃ː äː eː ẽː iː ĩː oː õː uː ũː æ ɔː ɔ̃ː ə ə̃ ɛː ɛ̃ː ɪ ɪ̃ ʊ ʊ̃
avar1256-2467	Avar	avar1256	Nakh-Daghestanian	Eurasia	41.7047	46.558	64	59	5	0	0	0	0	11.8	b d h hʷ j kʰ kʷʰ kʼʷ kʼ l m n pʰ pʼ qʰ qʷʰ qʼʷ qʼ r s sʷ tsʰ tsʷʰ tsʼʷ tsʼ tɬʰ tɬʷʰ tɬʼʷ tɬʼ tʰ tʷʰ tʼʷ tʼ tʃʰ tʃʷʰ tʃʼʷ tʃʼ w x xʷ z zʷ g gʷ ɬ ɬʷ ʁ ʁʷ ʃ ʃʷ ʒ ʒʷ ʔ ʜ ʜʷ ʢ ʢʷ χ χʷ a e i o u
abkh1244-2468	Abkhaz	abkh1244	Abkhaz-Adyge	Eurasia	43.056218	41.159115	62	59	3	0	0	0	1	19.666666666666668	b d dz dʷ dʒ dʑʷ f fʼ j kʰ kʲʰ kʼʲ kʷʰ kʼʷ kʼ l m n pʰ pʼ qʼʲ qʼʷ qʼ r s tsʰ tsʼ tʰ tʷʰ tʼʷ tʼ tʃʰ tʃʼ tʃʲʷʰ tʃʼʲʷ v w z ħ ħʷ ɖʐ g gʲ gʷ ɥˤ ʁ ʁʲ ʁʷ ʂ ʃ ʃʷ ʈʂʰ ʈʂʼ ʐ ʒ ʒʷ χ χʲ χʷ ä äː ɨ
fore1265-2469	Forest Enets	fore1265	Uralic	Eurasia	69.9829	88.2121	33	25	8	0	0	0	0	3.125	b d dʲ j k l m n nʲ p r s sʲ t tɕ tʲ tʃ w x ð ŋ ɕ g ʃ ʔ e i o u ɑ ɔ ɤ ɨ
west2354-2470	Western Frisian	west2354	Indo-European	Eurasia	53.143	5.86091	51	19	32	0	13	0	9	0.59375	b d f h j kʰ l m n pʰ r s tʰ v w x z ŋ g a ai au aː eː i iə iː o ou oə oː u ui uə uː y yə yː øː œi ɔ ɔu ɔː ə ɛ ɛi ɛː ɪ ɪə ɵ ɵə
taid1249-2471	Tai Daeng	taid1249	Tai-Kadai	Eurasia	20.4559	104.625	35	20	15	0	3	0	7	1.3333333333333333	b c d f h j k kʰ l m n p s t tʰ v w ŋ ɲ ʔ a aː e i ia iː o u ua uː ɔː əː ɛː ɨa ɨː
sout2746-2472	Southern Thai	sout2746	Tai-Kadai	Eurasia	6.85668	99.7031	35	22	13	0	3	0	1	1.6923076923076923	b c cʰ d f h j k kʰ l m n p pʰ r s t tʰ w ŋ ʔ ʷr a e i ia iː o u ua ɔ ɛ ɤ ɯ ɯa
chen1255-2474	Chenchu	chen1255	Dravidian	Eurasia	15.8787	79.2534	70	46	24	0	0	0	12	1.9166666666666667	b d dz dʑ h j k kʰ l l̥ m ⁿb n ⁿd ⁿdz ⁿdʑ p pʰ r s sʰ t ts tsʰ tɕ tɕʰ tʰ w x xʰ z ŋ ⁿg ɕ ɕʰ ɖʐ g ɣ ɲ ⁿɖʐ ʁ ʂ ʂʰ ʈʂ ʈʂʰ ʑ ã ãː e eː ẽː i iː ĩː o oː õː u uː ũː æ ɑ ɑː ɔ ə ɛ ɪ ɪː ʉ ʉː
mans1258-2475	Northern Mansi	mans1258	Uralic	Eurasia	64.4118	61.344	31	20	11	0	2	0	3	1.8181818181818181	j k kʷ l̪ m n̪ p r s̪ t̪ t̪ʲ x xʷ ŋ ŋʷ ɕ ɣ ɲ̟ ȴ β e eɛ i iː o oɔ u uː ɐ ɑː ə
osse1243-2476	Modern Ossetic	osse1243	Indo-European	Eurasia	42.98	44.61	44	37	7	0	0	0	0	5.285714285714286	b̥ d̺̥ dz̺̥ f j k kʰ kʷ kʷʰ kʼʷ kʼ l m n̺ p pʰ pʼ q qʷ r̺ s̺ t̺ ts̺ ts̺ʰ ts̺ʼ t̺ʰ t̺ʼ v w z̺ g̊ g̥ʷ ʁ ʁʷ ʃ χ χʷ e̞ i o̞ u ɐ̆ ɑ̝̹ ɨ̆
dong1285-2477	Dongxiang	dong1285	Mongolic-Khitan	Eurasia	35.5808	103.558	34	28	6	0	0	0	0	4.666666666666667	h j k kʰ l m n p pʰ q qʰ r s t ts tsʰ tʰ tʃ tʃʰ w x ŋ ʁ ʂ ʃ ʈʂ ʈʂʰ ʐ a e i o u ɨ
panj1256-2479	Eastern Panjabi	panj1256	Indo-European	Eurasia	30.0368	75.6702	44	27	17	0	0	0	0	1.588235294117647	b c cʰ d̪ j k kʰ l m n̪ p pʰ r s t̪ t̪ʰ w ɖ ɟ g ɦ ɭ ɳ ɽ ʃ ʈ ʈʰ a ã e ẽ i ĩ o õ u ũ ɔ ɔ̃ ə ɛ ɛ̃ ɪ ʊ
czec1258-2480	Czech	czec1258	Indo-European	Eurasia	49.873398	15.10437	40	27	13	0	3	0	5	2.076923076923077	b c dʒ d̺ f j k l m n p r r̝ s ts tʃ t̪ v x z ɟ g ɦ ɲ ʃ ʒ ʔ ä äu̯ äː i iː o ou̯ oː u uː ɛ ɛu̯ ɛː
kond1303-2481	Yaben (Konda)	kond1303	Konda-Yahadian	Papunesia	-1.82635	132.06	33	23	10	0	0	0	5	2.3	b d̪ h j k l m n p r r̥ s t̪ w z ŋ ɖ g ɳ ɽ ɾ ʈ ʔ a aː e eː i iː o oː u uː
nene1249-2482	Tundra Nenets	nene1249	Uralic	Eurasia	66.1775	71.0234	35	26	9	0	0	0	6	2.888888888888889	b bʲ dʲ j k l m mʲ n p pʲ r rʲ s sʲ t ts tsʲ tʲ w x ð ŋ ɲ ʎ ʔ oː u uː æː ɑː ə ɤː ɨ ɨː
sich1238-2483	Sichuan Yi	sich1238	Sino-Tibetan	Eurasia	28.1947	102.121	74	58	16	0	5	0	0	3.625	b d dz dʑ dʒ f h k kʰ l l̩ m ⁿb m̥ m̩ n ⁿd ⁿdz ⁿdʑ ⁿdʒ n̥ p pʰ s t ts tsʰ tɕ tɕʰ tʰ tʃ tʃʰ v v̩ x z ŋ ⁿg ɕ ɖʐ g ɣ ɬ ɲ ɲ̊ ⁿɖʐ ɹ̪̩ ɹ̪ˠ ɹ̪ ɻ̩ ɹ̪̰̩ ʂ ʃ ʈʂ ʈʂʰ ʐ ʒ ʒ̍ a e i ia ie io iɔ iɛ o u y ø ɔ ɛ ɯ ʉ
nort2641-2484	Northern Kurdish	nort2641	Indo-European	Eurasia	37.0	43.0	38	30	8	0	0	0	0	3.75	b d dʒ f h j kʰ kˤ l m n pʰ q r s tʰ tˤ tʃʰ tʃˤ v w z ħ g ɾ ʁ ʃ ʒ ʢ χ e i o u æ ɑ ɪ ʊ
selk1253-2485	Selkup	selk1253	Uralic	Eurasia	59.9409	82.3004	41	16	25	0	0	0	13	0.64	j k l lʲ m n nʲ p q r s t tɕ w ŋ ɕ ä äː e eː i iː o oː u uː y yː æ æː ø øː ɔː ɘ ɘː ɛ ɛː ɨ ɨː ɪ ɪː
nort2722-2486	Northern Qiang	nort2722	Sino-Tibetan	Eurasia	32.2766	103.192	63	39	24	0	0	0	10	1.625	b dz dʑ d̪ h j k kʰ l m n̪ p pʰ q qʰ s ts tsʰ tɕ tɕʰ t̪ t̪ʰ w x z ŋ ɕ ɖʐ g ɦ ɬ ɲ ʁ ʂ ʈʂ ʈʂʰ ʐ ʑ χ a aː a˞ a˞ː a˞ˤ aˤ aˤː i i˞ˤ i˞ˤː iˤ iˤː u uː u˞ u˞ˤ u˞ˤː uˤ uˤː ə əː ə˞ ə˞ː əˤ
arbe1236-2487	Arbëreshë Albanian	arbe1236	Indo-European	Eurasia	38.911	16.7164	37	30	7	0	0	0	0	4.285714285714286	b c d dz dʒ f k l m n p r s t ts tʃ v x z ç ð ɟ g ɣ ɲ ɾ ʃ ʎ ʒ θ a i u œ ɔ ə ɛ
lith1251-2488	Lithuanian	lith1251	Indo-European	Eurasia	55.1429	23.9601	57	45	12	0	2	0	4	3.75	b bʲ dzʲ dʲ dʒ dʒʲ d̪ dz̪ f fʲ j k kʲ lʲ m mʲ nʲ n̪ p pʲ r rʲ sʲ s̪ tsʲ tʲ tʃ tʃʲ t̪ ts̪ v vʲ x xʲ zʲ z̪ g gʲ ɣ ɣʲ lˠ ʃ ʃʲ ʒ ʒʲ äː e iɛ iː o uɔ uː æː ɐ ɛ ɪ̯ ʊ̯
kham1282-2489	Khams Tibetan	kham1282	Sino-Tibetan	Eurasia	31.9313	91.7062	96	60	36	1	2	0	15	1.6666666666666667	b d dz dʒ h j k kʰ l l̥ m ⁿb ⁿpʰ m̥ n ⁿd ⁿdz ⁿtsʰ ⁿtʰ ⁿdʒ ⁿtʃʰ n̥ p pʰ r r̥ s t ts tsʰ tʰ tʃ tʃʰ w z ŋ ⁿkʰ ⁿg ŋ̊ ɖ g ɲ ⁿɖ ɳʈʰ ɸ ʃ ʈ ʈʰ ʒ ʔ ˀj ˀl ˀm ˀn ˀs ˀw ˀŋ ˀɲ ˀʃ β a aː ãː a̤ a̤ː e eː ẽː e̤ e̤ː i iː ĩː i̤ː o oː õː o̤ o̤ː u ũː ṳ y y̤ ø ø̤ ɔ ɔː ɔ̤ ɔ̤ː ɛ ɛi ɛ̤ ɛ̤i̤ ɨ ɨ̤
veps1250-2490	Veps	veps1250	Uralic	Eurasia	60.3353	34.7865	44	34	10	0	0	0	0	3.4	b c d dʲ dʒ f h hʲ j k lʲ m mʲ n nʲ p pʲ r rʲ s sʲ t ts tʲ tʃ v vʲ z zʲ ɟ g lˠ ʃ ʒ e̞ i o̞ u y æ ø̞ ɑ ɤ̞ ɨ
merg1238-2491	Myeik	merg1238	Sino-Tibetan	Eurasia	14.1078	98.194	48	27	21	0	8	0	0	1.2857142857142858	b d dʑ h j k kʰ l m n p pʰ s sʰ t tɕ tɕʰ tʰ t̪ w z ŋ ɕ g ɦ ɲ ʔ aɪ̃ aɯ̃ a̰ɪ̰ a̰ɯ̰ e eɪ̃ ḛɪ̰ i o u æ̃ æ̰ ɑ ɔ əɯ̃ ə̰ɯ̰ ɛ ɪ̃ ɪ̰ ʊ̃ ʊ̰
nort2741-2492	Northeastern Thai	nort2741	Tai-Kadai	Eurasia	16.03	103.67	32	19	13	0	3	0	0	1.4615384615384615	b c d h k kʰ l m n p pʰ s t tʰ v w ŋ ɲ ʔ a e i ia o u ua y ɔ ɛ ɤ ɯ ɯa
stan1325-2493	Standard Latvian	stan1325	Indo-European	Eurasia	57.0	24.0	42	26	16	0	2	0	6	1.625	b c d dz dʒ f j k l m n p r s t ts tʃ v x z ɟ g ɲ ʃ ʎ ʒ ä äː i iə iː i̯ uʌ uː æ æː ɔ ɔː ɛ ɛː ʊ ʊ̯
oriy1255-2495	Odia	oriy1255	Indo-European	Eurasia	21.0	85.0	42	31	11	0	0	0	0	2.8181818181818183	b bʱ c cʰ d̪ d̪ʱ h j k kʰ l̪ m n̪ p pʰ r s̪ t̪ t̪ʰ w ŋ ɖ ɖʱ ɟ ɟʱ g gʱ ɭ ɳ ʈ ʈʰ a ã e ẽ i ĩ o u ũ ɔ ɔ̃
nort2741-2496	Northeastern Thai	nort2741	Tai-Kadai	Eurasia	16.03	103.67	33	21	12	0	3	0	0	1.75	b c d f h j k kʰ l m n p pʰ s t tʰ v w ŋ ɲ ʔ a e i ia o u ua ɔ ɛ ɤ ɯ ɯa
pite1240-2497	Pite Saami	pite1240	Uralic	Eurasia	66.4011	17.4261	54	45	9	0	2	22	1	5.0	f fː h j jː k kː l lː m mː n nː p pː r rː s sː t ts tsː tː tʃ tʃː v vː ð ðː ŋ ŋː ɲ ɲː ʃ ʃː ʰk ʰkː ʰp ʰpː ʰt ʰts ʰtsː ʰtː ʰtʃ ʰtʃː a aː ie o ɔ ɛ ɪ ʊ ʊa
east2304-2498	Eastern Balochi	east2304	Indo-European	Eurasia	28.0	62.0	54	35	19	0	4	0	10	1.8421052631578947	b bʱ d dʱ dʒ dʒʱ f h j kʰ l m n pʰ s tʰ tʃʰ wʰ x z ð ɖ ɖʱ g gʱ ɣ ɳ ɽ ɾ ʃ ʈʰ ʋ ʒ β θ ä̃ː ä äː eː ẽː iː ĩː oː õː uː ũː æɪ̯ æ̃ɪ̯̃ ɔʊ̯ ɔ̃ʊ̯̃ ɪ ɪ̃ ʊ ʊ̃
serb1264-2499	Serbian Standard	serb1264	Indo-European	Eurasia	44.3238	21.9192	34	24	10	0	0	0	5	2.4	b d̪̻ dʒ̺ʷ dʒ̻ f k l m n p r s̪̻ t̪̻ ts̪̻ tʃ̺ʷ tʃ̻ x z̪̻ g ɲ ʃ̺ ʋ ʎ ʒ̺ ä äː e̞ e̞ː i iː o̞ o̞ː u uː
bash1264-2500	Bashkir	bash1264	Turkic	Eurasia	53.5967	56.5594	39	28	11	0	0	1	0	2.5454545454545454	b c d f h j m n p q r s t ts tʃ v w x z ð ŋ ɕː ɟ lˠ ʁ ʂ ʐ θ e̞ i o̞ u æ ɒ ɨ ɪ̞ ɪ̞̈ ʉ̞ ʊ̞̈
tuuu1240-2501	Tu	tuuu1240	Mongolic-Khitan	Eurasia	36.8177	102.117	35	25	10	0	0	0	5	2.5	f j k kʰ l m n p pʰ q r s t ts tsʰ tʰ tʃ tʃʰ w x ŋ ʂ ʃ ʈʂ ʈʂʰ a aː e eː o oː u uː ə əː
shum1243-2502	Shumcho	shum1243	Sino-Tibetan	Eurasia	31.6862	78.3865	50	44	6	0	0	0	0	7.333333333333333	b d dz dʑ h j k kʰ l l̥ m ⁿb n ⁿd ⁿdz ⁿdʑ p pʰ r s sʰ t ts tsʰ tɕ tɕʰ tʰ w x xʰ z ŋ ⁿg ɕ ɕʰ ɖʐ g ɣ ɲ ⁿɖʐ ʂ ʈʂ ʈʂʰ ʑ a e i o u ə
ukra1253-2503	Ukrainian	ukra1253	Indo-European	Eurasia	49.796	29.945	41	35	6	0	0	3	0	5.833333333333333	b dʒ d̪ dz̪ dz̪ʲ d̪ʲ f j k lʲ m n̪ n̪ʲ p r rʲ sʲ s̪ tʲ tʃ tʃʲː t̪ ts̪ ts̪ʲ x z̪ z̪ʲ g ɦ lˠ ʃ ʃʲː ʋ ʒ ʒʲː i u ɑ ɔ ɛ ɪ
lowa1242-2504	Lowa	lowa1242	Sino-Tibetan	Eurasia	29.0324	83.8959	42	35	7	0	0	0	0	5.0	b c cʰ d dz dʒ h j k kʰ l l̥ m m̥ n p pʰ r r̥ s t ts tsʰ tʰ tʃ tʃʰ w ŋ ɖ ɟ g ɲ ʃ ʈ ʈʰ a y œ ɔ ɛ ɪ ʊ
scot1243-2505	Scots	scot1243	Indo-European	Eurasia	55.886945	-3.710133	37	24	13	0	4	0	0	1.8461538461538463	b d f h j kʰ m n pʰ s tʰ tʃ v w x z ŋ g lˠ ɾ ʃ ʍ ʒ θ a ae e i o u ɔ ɔe əi əu ɛ ɪ ʌ
east2328-2506	Eastern Mari	east2328	Uralic	Eurasia	55.8307	48.405	31	21	10	0	0	0	0	2.1	j k l̺ m n̺ p r s tʲ t̪̺ ts̺ z ð̺ ŋ ɣ ɲ ʂ ʈʂ ʎ ʐ β a e i o u y̞ œ ɪ̈ ʊ̜ ʊ̜̈
shan1277-2507	Shan	shan1277	Tai-Kadai	Eurasia	21.5995	98.0342	33	23	10	0	0	0	1	2.3	c d f h j k kʰ l m n p pʰ s sʰ t tʰ v w x ŋ ɰ ɲ ʔ a aː e i o u ɔ ɛ ɤ ɯ
sind1272-2508	Sindhi	sind1272	Indo-European	Eurasia	26.0	69.0	64	47	17	0	0	0	0	2.764705882352941	b bʱ dʒ dʒʱ d̪ d̪ʱ f h j k kʰ l lʱ m n nʱ p pʰ r rʱ s tʃ tʃʰ t̪ t̪ʰ v x z ŋ ɓ ɖ ɖʱ ɠ g gʱ ɣ ɲ ɳ ɳʱ ɽ ɽʱ ʃ ʄ ʈ ʈʰ ʔ ᶑ e ẽ i ĩ o õ u ũ æ æ̃ ɐ̆ ɑ ɑ̃ ɔ ɔ̃ ɪ̆ ʊ̆
osse1243-2509	Modern Ossetic	osse1243	Indo-European	Eurasia	42.98	44.61	43	36	7	0	0	1	0	5.142857142857143	b̥ d̺̥ f j k kʰ kʷ kʷʰ kʼʷ kʼ l m n̺ p pʰ pʼ q qʷ r̺ s̺ t̺ ts̺ʼ ts̺ː t̺ʰ t̺ʼ v w z̺ g̊ g̥ʷ ʁ ʁʷ ʃ ʒ χ χʷ e̞ i o̞ u ɐ̆ ɑ̝̹ ɨ̆
mehr1241-2510	Mehri	mehr1241	Afro-Asiatic	Eurasia	16.793	52.473	45	31	14	0	4	0	7	2.2142857142857144	b d f h j kʰ kʼ l m n r s sʼ tʰ tʼ w x z ð ħ ɕ ɕʼ g ɣ ɬ ɬʼ ʑ ʔ ʕ θ θʼ a ai̯ au̯ aː eː iː oː õː uː ə əi̯ əu̯ ɛ ɛː
khar1287-2511	Kharia	khar1287	Austroasiatic	Eurasia	22.3571	84.3922	39	34	5	0	0	0	0	6.8	b bʱ c cʰ d̪ d̪ʱ f h j k kʰ l̪ m n̪ p s̪ t̪ t̪ʰ w ŋ ɖ ɖʱ ɟ ɟʱ g gʱ ɲ ɳ ɽ ɽʱ ɾ̪ ʈ ʈʰ ʔ ɑ ɔ ɛ ɪ ʊ
taga1270-2513	Tagalog	taga1270	Austronesian	Papunesia	14.06	121.747	26	21	5	0	0	0	0	4.2	b dʒ d̪ f j kx l m n̪ p s ts tʃ t̪ v w ŋ g ɲ ɾ ʃ ä i o u ɛ
wakh1245-2514	Wakhi	wakh1245	Indo-European	Eurasia	37.1768	73.9777	50	38	12	0	0	0	6	3.1666666666666665	b d dz dʒ f j k l̥ m n p q r s t ts tʃ v w x z ç ð ɖ ɖʐ g ɣ ɭ̊ ɽ̥ ʁ ʂ ʃ ʈ ʈʂ ʐ ʒ θ χ ä äː iː o u̞ u̞ː ɔː ɜ̹ ɜ̹ː ɨ̹ ɨ̹ː ɪ
stan1293-2515	English	stan1293	Indo-European	Eurasia	53.0	-1.0	40	24	16	0	6	0	4	1.5	b d dʒ f h j k l m n p r s t tʃ v w z ð ŋ g ʃ ʒ θ a aɪ aʊ eɪ eː iɛ iː ɑː ɒ ɔɪ ə ɛ ɛʉ ɪ ʉː ʊ
astu1245-2516	Asturian-Leonese-Cantabrian	astu1245	Indo-European	Eurasia	42.4181	-6.02227	26	19	7	0	0	0	0	2.7142857142857144	b d̪ f j k l m n p r s tʃ t̪ g ɲ ɾ ʃ ʈʂ θ ä e̞ i i̯ o̞ u u̯
phut1244-2517	Phu Thai	phut1244	Tai-Kadai	Eurasia	17.7544966667	104.684233333	30	21	9	0	0	0	0	2.3333333333333335	b c d f h j k kʰ l m n p pʰ s t tʰ v w ŋ ɲ ʔ a e i o u ɔ ɛ ɤ ɯ
nort2740-2518	Northern Thai	nort2740	Tai-Kadai	Eurasia	18.857495	100.20739	33	21	12	0	3	0	0	1.75	b c d f h j k l m n p pʰ s t tʰ v w x ŋ ɲ ʔ a e i ia o u ua ɔ ɛ ɤ ɯ ɯɑ
west2369-2520	Western Farsi	west2369	Indo-European	Eurasia	32.9	53.3	29	23	6	0	0	0	3	3.8333333333333335	b d dʒ f h j kʰ l̪ m n pʰ r̪ s tʰ tʃʰ v z g ɢʁ ʃ ʒ ʔ χ e̞ iː o̞ uː æ ɒː
iris1253-2521	Irish	iris1253	Indo-European	Eurasia	53.2186	-7.61509	52	34	18	0	6	0	5	1.8888888888888888	bʲ bˠ cʰ dʒ d̪ʲ d̪ˠ fʲ fˠ h kʰ l̪ʲ l̪ˠ mʲ mˠ n̪ʲ n̪ˠ pʲʰ pˠʰ sˠ t̪ʲʰ t̪ˠʰ vʲ vˠ x ç ŋ ŋ̟ ɟ g ɣ ɾ̪ʲ ɾ̪ˠ ʃ ʝ a eː ia iː iːə i̞ oː uː uːe uːə ɐɪ ɑː ɔʊ ɔ̝ ə ɛ̝ ɪ ʊ
sher1255-2522	Solu-Khumbu Sherpa	sher1255	Sino-Tibetan	Eurasia	27.674	86.9994	47	34	13	0	0	0	0	2.6153846153846154	b c cʰ d dʒ h j k kʰ l l̥ m n p pʰ r r̥ s t ts tsʰ tʰ tʃ tʃʰ w z ŋ ɖ ɟ g ɲ ʃ ʈ ʈʰ a a̤ e e̤ i ĩ i̤ o o̤ u ṳ ɑ ɑ̤
sala1264-2523	Salar	sala1264	Turkic	Eurasia	35.5457	102.819	43	31	12	0	0	0	4	2.5833333333333335	b̥ d̥ dz̥ dʑ̥ dʒ̊ f h l m n r v x z̥ ŋ ɕ ɖʐ̥ g̊ ɢ̥ lˠ ʂ ʰkʰ ʰpʰ ʰqʰ ʰsʰ ʰtsʰ ʰtɕʰ ʰtʰ ʰtʃʰ ʰʈʂʰ χ e̞ː i iː o̞ o̞ː u y æ ø̞ ɑ ɑː ɯ
lezg1247-2524	Lezgian	lezg1247	Nakh-Daghestanian	Eurasia	41.5157	47.8951	96	88	8	0	0	0	2	11.0	b d̪ f fʲ h j k kʰ kʲ kʲʰ kʼʲ kʷ kʷʰ kʲʷ kʲʷʰ kʼʲʷ kʼʷ kʼ l̪ m n̪ p pʰ pʲ pʲʰ pʼʲ pʼ q qʰ qʲ qʲʰ qʼʲ qʷ qʷʰ qʲʷ qʲʷʰ qʼʲʷ qʼʷ qʼ r̪ s̪ s̪ʲ s̪ʷ s̪ʲʷ tʃ tʃʰ tʃʼ t̪ ts̪ ts̪ʰ ts̪ʲ ts̪ʲʰ ts̪ʼʲ ts̪ʷ ts̪ʷʰ ts̪ʲʷ ts̪ʲʷʰ ts̪ʼʲʷ ts̪ʼʷ ts̪ʼ t̪ʰ t̪ʲ t̪ʲʰ t̪ʼʲ t̪ʷ t̪ʷʰ t̪ʲʷ t̪ʲʷʰ t̪ʼʲʷ t̪ʼʷ t̪ʼ w x xʲ z̪ z̪ʷ g gʷ ɢ ʁ ʁʷ ʃ ʒ ʔ χ χʲ χʷ χʲʷ i u y æ æː ɑː ɛ ʌ
kham1282-2525	Khams Tibetan	kham1282	Sino-Tibetan	Eurasia	31.9313	91.7062	77	56	21	0	6	0	0	2.6666666666666665	b d dz dʑ dʒ h j j̊ k kʰ l l̥ m ⁿb m̥ n ⁿd ⁿdz ⁿdʑ ⁿdʒ n̥ p pʰ s sʰ t ts tsʰ tɕ tɕʰ tʰ tʃ tʃʰ w x z ŋ ⁿg ŋ̊ ɕ ɕʰ ɖʐ g ɣ ɦ ɲ ɲ̊ ⁿɖʐ ɹ ɹ̥ ʃ ʃʰ ʈʂ ʈʂʰ ʑ ʒ a e ei ẽ i ĩ ou u ua ue uẽ ui ũ ɑ̃ ɔ ɔ̃ ə ɛ ɤ ɯ ɯ̃
sora1254-2526	Sora	sora1254	Austroasiatic	Eurasia	19.1213	84.19	26	18	8	0	0	0	0	2.25	b c d j k l m n p r s t ŋ ɟ g ɲ ɽ ʔ a e i o u ə ɨ ʊ
walu1241-2527	Walungge	walu1241	Sino-Tibetan	Eurasia	27.695	87.2374	46	32	14	0	0	0	7	2.2857142857142856	b c cʰ d h j k kʰ l l̥ m n p pʰ r r̥ s t ts tsʰ tɕ tɕʰ tʰ w ŋ ɕ ɖ ɟ g ɲ ʈ ʈʰ a aː e eː i iː o oː u uː y yː ø øː
kork1243-2528	Korku	kork1243	Austroasiatic	Eurasia	21.8358	77.5541	41	31	10	0	0	0	0	3.1	b bʱ c d dʱ h j k kʰ l m mʰ n p pʰ r s t tʰ ŋ ɖ ɖʱ ɟ ɟʱ g gʱ ɲ ɽ ʈ ʈʰ ʔ a ã e ẽ i ĩ o õ u ũ
pamp1243-2529	Pampanga	pamp1243	Austronesian	Papunesia	14.9603	120.502	22	17	5	0	0	0	0	3.4	b d dʒ k l m n p s t tʃ w ŋ g ɾ ʎ ʔ a i o u ɛ
doma1258-2530	Domari	doma1258	Indo-European	Eurasia	32.0	35.0	45	33	12	0	0	0	5	2.75	b dʒ d̪ d̪ˤ f h j k l̪ m n̪ p q r̪ s̪ s̪ˤ tʃ t̪ t̪ˤ v w x z̪ z̪ˤ ħ g ɣ lˠ ʃ ʒ ʔ ʕ χ a aː e eː i iː o oː u uː ɔ ʌ
phut1244-2531	Phu Thai	phut1244	Tai-Kadai	Eurasia	17.7544966667	104.684233333	29	20	9	0	0	0	0	2.2222222222222223	b c d f h j k kʰ l m n p pʰ s t tʰ w ŋ ɲ ʔ a e i o u ɔ ɛ ɤ ɯ
east2328-2532	Eastern Mari	east2328	Uralic	Eurasia	55.8307	48.405	30	21	9	0	0	0	0	2.3333333333333335	j k l̺ m n̺ p r s tɕ tʲ t̪̺ z ð̺ ŋ ɣ ɲ ʂ ʈʂ ʎ ʐ β a e i o u y̞ œ ɪ̈ ʊ̜
amdo1237-2534	Amdo Tibetan	amdo1237	Sino-Tibetan	Eurasia	34.5177	100.485	59	53	6	0	0	0	0	8.833333333333334	b c cʰ d dʒ f j k kʰ l l̥ m ⁿb ⁿpʰ m̥ n ⁿd ⁿdz ⁿtsʰ ⁿtʰ ⁿdʒ ⁿtʃʰ n̥ p pʰ q qʰ r s t ts tsʰ tʰ tʃ tʃʰ x ŋ ⁿkʰ ⁿg ŋ̊ ɖʐ ɟ g ɲ ⁿcʰ ⁿɟ ɲ̊ ⁿɖʐ ʂ ʃ ʈʂ ʈʂʰ χ a e i o u ə
finn1318-2535	Finnish	finn1318	Uralic	Eurasia	64.7628	25.5577	23	15	8	0	0	1	0	1.875	d̺ f h j k l̺ m n̺ p r̺ s t̪ ŋ ʋ ʔː e̞ i o̞ u y æ ø̞ ɑ
khal1271-2537	Khalkhal	khal1271	Indo-European	Eurasia	36.065077	49.688542	37	23	14	0	5	0	4	1.6428571428571428	b d dʒ f h j kʰ l̪ m n pʰ r̪ s tʰ tʃʰ v z g ɢʁ ɣ ʃ ʒ χ a ai̯ aː aːi̯ e ei̯ iː o oi̯ ou̯ uː yː ø ə
west2408-2538	Western Muria	west2408	Dravidian	Eurasia	20.2384	80.7006	26	21	5	0	0	0	0	4.2	b c d h j k l m n p r r̥ s t w ŋ ɖ ɟ g ɽ ʈ a e i o u
shix1238-2539	Shixing	shix1238	Sino-Tibetan	Eurasia	28.3895	100.4	88	51	37	0	15	0	0	1.3783783783783783	b dʑ d̪ dz̪ h j k kʰ l̪ m ⁿb m̥ ⁿdʑ n̪ ⁿd̪ ⁿdz̪ n̪̥ p pʰ q qʰ r̪ s̪ tɕ tɕʰ t̪ ts̪ ts̪ʰ t̪ʰ w x z̩ z̪ ŋ ⁿg ɕ ɖʐ g ɦ ɬ̪ ɲ ⁿɖʐ ⁿɢ ʁ ʂ ʈʂ ʈʂʰ ʐ ʑ ʔ χ a ã e i iæ iæ̃ iɛ̃ iɜ ĩ o õ u ua uã ui uæ uɑ̃ uɛ̃ uɜ ũ y yi yĩ yæ yɜ ỹ æ æ̃ ɑ ɑ̃ ɔ̃ ɘ ɘ̃ ə˞ ɛ̃ ɜ ɵ
kara1462-2540	Taiga Sayan Turkic	kara1462	Turkic	Eurasia	53.7145	98.3792	67	28	39	0	3	7	18	0.717948717948718	b̥ cçː d̥ j j̃ kː l m n pʰː qː r sː tː v z̥ ħ ħ̃ʲ ŋ ɟʝ̥ g̊ ɢ̥ ɣ ɲ ʀ ʃː ʒ̊ ʔ a aː ãɛ̃ ãː a̰ i iː ĩː ḭ u uː ũː ṵ æː œ̃ɛ̃ ɔ̜̟ ɔ̜̟ː ɔ̜̟̃ː ɔ̜̰̟ ɛ ɛ̃ː ɛ̃ːi̯ ɛ̰ ɞ̜ ɞ̜ː ɞ̜̃ː ɞ̜̰ ɨ̞ ɨ̞ː ɨ̞̃ː ɨ̞̰ ɪ ɪː ɪ̃ː ɪ̰ ʉ ʉː ʉ̃ː ʉ̰
uppe1395-2541	Upper Sorbian	uppe1395	Indo-European	Eurasia	51.2403	14.4098	42	33	9	0	2	0	0	3.6666666666666665	b bʲ dʒ d̪ f h j k kʰ l lʲ m mʲ n nʲ p pʲ r rʲ s̪ tʃ t̪ ts̪ ts̪ʲ v w wʲ x z̪ z̪ʲ g ʃ ʒ ä i i̯ i̯e u uo æ ɔ ɨ̞
hind1269-2542	Hindi	hind1269	Indo-European	Eurasia	25.0	77.0	55	34	21	0	0	0	14	1.619047619047619	b bʱ dʒ dʒʱ d̻ d̻ʱ f j k kʰ l̻ m n̻ p pʰ r s tʃ tʃʰ t̻ t̻ʰ z ɖ ɖʱ g gʱ ɦ ɽ ɽʱ ʂ ʃ ʈ ʈʰ ʋ ä̃ː äː eː ẽː iː ĩː oː õː uː ũː æ ɔː ɔ̃ː ə ə̃ ɛː ɛ̃ː ɪ ɪ̃ ʊ ʊ̃
pott1240-2543	Pottangi Ollar Gadaba	pott1240	Dravidian	Eurasia	18.5968	82.7586	39	19	20	0	0	0	10	0.95	b c d̪ j k l̪ m n̪ p r̪ s̪ t̪ w ŋ ɖ ɟ g ɳ ʈ a aː ã ãː e eː ẽ ẽː i iː ĩ ĩː o oː õ õː u uː ũ ũː
east2347-2544	Eastern Tamang	east2347	Sino-Tibetan	Eurasia	27.3239	87.0832	53	37	16	0	6	0	5	2.3125	b bʱ dz dzʰ dʱ d̪ h j j̊ k kʰ l l̥ m m̥ n n̥ p pʰ r r̥ s sʰ ts tsʰ t̪ t̪ʰ w ŋ ŋ̊ ɖ ɖʱ g gʱ ʈ ʈʰ ʍ a ai au aː e ei eu eː i iː o oi oː u ui uː
sout2642-2545	Southern Balochi	sout2642	Indo-European	Eurasia	26.0	64.0	32	24	8	0	0	0	5	3.0	b d dʒ h j k l m n p s t tʃ x z ɖ g ɣ ɽ ɾ ʃ ʈ ʋ ʒ ä äː eː iː oː uː ɪ ʊ
camp1261-2546	Campidanese Sardinian	camp1261	Indo-European	Eurasia	39.0566	9.03935	58	44	14	0	0	19	0	3.142857142857143	b bː d dz dzː dː dʒ dʒː f fː j k kː l lː m mː n nː p pː r rː s sː t ts tsː tː tʃ tʃː v vː z ð ɖː g gː ɣ ʁ ʃ ʃː ʒ β ä̃ ä e ẽ i ĩ o õ u ũ ɔ ɔ̃ ɛ ɛ̃
tulu1258-2547	Tulu	tulu1258	Dravidian	Eurasia	12.8114	75.2651	35	21	14	0	0	0	7	1.5	b c d̪ j k l̪ m n̪ p r̪ s̪ t̪ w ŋ ɖ ɟ g ɲ ɳ ʃ ʈ a aː e eː i iː o oː u uː ɛ ɛː ɯ ɯː
sant1410-2550	Santali	sant1410	Austroasiatic	Eurasia	25.0317	87.8185	57	26	31	0	17	0	0	0.8387096774193549	b bʱ c d dʱ h j k l m n p r s t tʰ w ŋ ɖ ɖʱ ɟ ɟʱ g ɲ ɽ ʈ a ae ao ã e ea ei eo i io iu iə ĩ o oa oe oi u ui uə ũ ɔ ɔe ɔ̃ ə əi əu ə̃ ɛ ɛo ɛ̃
shan1277-2551	Shan	shan1277	Tai-Kadai	Eurasia	21.5995	98.0342	31	21	10	0	0	0	1	2.1	c d f h j k kʰ l m n p pʰ s sʰ t tʰ v w ŋ ɰ ʔ a aː e i o u ɔ ɛ ɤ ɯ
abkh1244-2552	Abkhaz	abkh1244	Abkhaz-Adyge	Eurasia	43.056218	41.159115	69	66	3	0	0	0	1	22.0	b d dz dʷ dʒ dʑ dʑʷ f j kʰ kʲʰ kʼʲ kʷʰ kʼʷ kʼ l m n pʰ pʼ qʼʲ qʼʷ qʼ r s tsʰ tsʼ tʰ tʷʰ tʼʷ tʼ tʃʰ tʃʼ tʃʲ tʃʲʰ tʃʲʷʰ tʃʼʲʷ v w z ħ ħʷ ɖʐ g gʲ gʷ ɥˤ ʁ ʁʲ ʁʷ ʂ ʃ ʃʷ ʃʲ ʃʲʷ ʈʂʰ ʈʂʼ ʐ ʒ ʒʷ ʒʲ χ χʲ χʷ χʷˤ χˤ ä äː ɨ
amdo1237-2553	Amdo Tibetan	amdo1237	Sino-Tibetan	Eurasia	34.5177	100.485	58	48	10	0	2	0	0	4.8	b c cʰ d dʒ h j k kʰ l l̥ m ⁿb n ⁿd ⁿdz ⁿdʒ p pʰ q qʰ r s t ts tsʰ tʰ tʃ tʃʰ v x z ŋ ⁿg ɖʐ ɟ g ɣ ɲ ⁿɟ ⁿɖʐ ʁ ʂ ʃ ʈʂ ʈʂʰ ʒ χ a e i o u ɔ ə ɛ ɯa ɯo
swed1254-2554	Swedish	swed1254	Indo-European	Eurasia	59.800634	17.389526	35	18	17	0	0	0	9	1.0588235294117647	b d̪ f h kʰ l̪ m n̪ pʰ s̪ t̪ʰ v ŋ ɕ g ɧ ɹ ʝ a eː iː oː uː yː øː œ ɑː ɔ ɛ ɛː ɪ ɵ ʉ̟ː ʊ ʏ
stan1289-2555	Catalan	stan1289	Indo-European	Eurasia	41.453	1.569	35	25	10	0	0	0	0	2.5	b dz̺ dʒ d̪ f j k m n̺ p r̺ s̺ ts̺ tʃ t̪ w z̺ ŋ g l̺ˠ ɲ̟ ɾ̺ ʃ ȴ ʒ a e i i̯ o u u̯ ɔ ə ɛ
tuuu1240-2556	Tu	tuuu1240	Mongolic-Khitan	Eurasia	36.8177	102.117	31	25	6	0	0	0	0	4.166666666666667	f j k kʰ l m n p pʰ q r s t ts tsʰ tʰ tʃ tʃʰ w x ŋ ʂ ʃ ʈʂ ʈʂʰ a e i o u ə
hung1274-2557	Hungarian	hung1274	Uralic	Eurasia	46.9068585714	19.6555271429	39	25	14	0	0	0	7	1.7857142857142858	b c d dz dʒ f h j k l m n p s t ts tʃ v z ɟ g ɲ ɾ ʃ ʒ ä äː eː i iː o oː u uː yː ø øː ɔ ɛ
tibe1272-2558	Tibetan	tibe1272	Sino-Tibetan	Eurasia	28.3681	90.1872	56	27	29	0	5	0	14	0.9310344827586207	c cʰ h j k kʰ l m n p pʰ s t ts tsʰ tɕ tɕʰ tʰ w ŋ ɕ ɬ ɲ ɹ ʂ ʈʂ ʈʂʰ a aː ã ãː e ea eː ẽ ẽː i ie iː ĩ ĩẽ ĩː oa õã yː ỹː œː œ̃ː ɔ ɔː ɔ̃ ɔ̃ː ʊ ʊː ʊ̃ ʊ̃ː
mala1464-2559	Malayalam	mala1464	Dravidian	Eurasia	9.59208	76.7651	53	38	15	0	4	0	5	2.533333333333333	b bʱ c cʰ d dʱ h j k kʰ l m n n̪ p pʰ r r̪ s t tʰ t̪ ŋ ɖ ɖʱ ɟ ɟʱ g gʱ ɭ ɲ ɳ ʂ ʃ ʈ ʈʰ ʋ ʐ a ai au aː e ei eː i iː o oi oː u uː ə
axiy1235-2560	Axi Yi	axiy1235	Sino-Tibetan	Eurasia	24.6009	103.713	52	38	14	0	0	0	0	2.7142857142857144	b d dz dʑ f k kʰ l m n p pʰ s t ts tsʰ tɕ tɕʰ tʰ v x z ŋ ɕ ɖ ɖʐ g ɣ ɬ ɹ̪̩ ɹ̪̰̩ ʂ ʈ ʈʂ ʈʂʰ ʈʰ ʐ ʑ a a̰ e ḛ i ḭ o o̰ u ṵ ɛ ɛ̰ ɯ ɯ̰
buru1296-2561	Burushaski	buru1296		Eurasia	36.2161	74.8236	48	38	10	0	0	0	5	3.8	b d dʑ f h j k kʰ l m n p pʰ q qʰ r s t ts tsʰ tɕ tɕʰ tʰ w x z ŋ ɕ ɖ ɖʐ g ɬ ʁ ʂ ʈ ʈʂ ʈʂʰ ʈʰ äː i iː o oː u uː ɛ ɛː ʌ
temi1246-2563	Temiar	temi1246	Austroasiatic	Eurasia	4.974	101.438	49	19	30	0	0	0	15	0.6333333333333333	b c d h j k l m n p s t w ŋ ɟ g ɲ ɾ ʔ a aː ã ãː e eː i iː ĩ ĩː o oː u uː ũ ũː ɔ ɔː ɔ̃ ɔ̃ː ə əː ɛ ɛː ɛ̃ ɛ̃ː ʉ ʉː ʉ̃ ʉ̃ː
uppe1400-2564	Central East Middle German	uppe1400	Indo-European	Eurasia	51.152	12.692	35	15	20	0	3	0	11	0.75	f h j k kʰ l̪ m n̪ p s̪ t̪ ŋ ʁ̞ ʃ ʋ ae̯ aɵ̯ aˤː eː iː oˤ oˤː ɔˤː ɛ ɛː ɞ ɞʏ̯ ɪ ɵ ɵː ʉː ʊˤː ʌ ʌː ʌˤː
ghod1238-2565	Godoberi	ghod1238	Nakh-Daghestanian	Eurasia	42.7428	46.2252	66	53	13	0	0	12	5	4.076923076923077	b cʰ cʰː cʼ d dʒ h j kʰ kʰː kʷʰ kʷʰː kʼʷ kʼ l m n p qʼʷ qʼ qχʰ r s sː tsʰ tsʰː tsʼ tɬʰː tɬʼ tʰ tʼ tʃʰ tʃʰː tʃʼ xː z ç ħ ɟ g ɬ ɬː ʁ ʁː ʃ ʃː ʒ ʔ ʔˤ β χ χʷ χː ä̃ ä äː e eː i iː ĩ o oː u uː ũ
skol1241-2566	Skolt Saami	skol1241	Uralic	Eurasia	68.8326	29.7204	75	51	24	0	11	0	1	2.125	b bʲ c d dz dzʲ dʲ dʒ dʒʲ f fʲ j k l lʲ m mʲ n nʲ p pʲ r rʲ s sʲ t ts tsʲ tʲ tʃ tʃʲ v vʲ w x z zʲ ç ð ðʲ ŋ ɟ g ɣ ɲ ʃ ʃʲ ʎ ʒ ʒʲ ʝ a̟ e ĕ i ie iː iɐ iə o u ua̟ ue ui uɐ uɔ uə ɐ ɑ ɑ̆ ɔ ə ɛ ɛa̟ ɛɐ
jahh1242-2567	Jah Hut	jahh1242	Austroasiatic	Eurasia	3.67619	102.291	52	22	30	0	12	0	0	0.7333333333333333	b c d h j k l l̩ m m̩ n p r r̩ s t w ŋ ɟ g ɲ ʔ a ã e ẽ i ĩ i̯ɛ i̯ɛ̃ o õ u ũ u̯a u̯ã u̯o u̯õ u̯ɔ u̯ɔ̃ u̯ə u̯ə̃ u̯ɛ u̯ɛ̃ ɔ ɔ̃ ə ə̃ ɛ ɛ̃ ʉ ʉ̃
icel1247-2568	Icelandic	icel1247	Indo-European	Eurasia	63.4837	-19.0212	45	30	15	0	7	0	0	2.0	c cʰ f h j k kʰ l m m̥ n̪ n̪̥ p pʰ r r̥ s̺ t̪ t̪ʰ x ç ɹ̪̺ ŋ ŋ̊ ɬ ɰ ɲ ɲ̊ ʋ θ̻ ä äi̯ äu̯ ei̯ i ou̯ u øɪ̯ œ ɔ ɔi̯ ɛ ɪ ʏ ʏi̯
vlax1238-2569	Vlax Romani	vlax1238	Indo-European	Eurasia	46.09	18.16	34	27	7	0	0	0	0	3.857142857142857	b d dʑ dʒ f h j k kʰ l m n p pʰ r s t ts tɕʰ tʰ tʃʰ v x z g ɾ ʎ e i o u ɑ ə ɨ
udih1248-2570	Udihe	udih1248	Tungusic	Eurasia	46.6309	135.678	40	19	21	0	1	0	8	0.9047619047619048	b dz d̪ f j k l̪ʲ m n̪ p s ts tʃ t̪ w x ŋ g ɲ ä äː a̰ e̞̰ i ie̞ iː o̞ o̞ː u uː y yː æ æː æ̰ øː ø̞ ɜ ɜː ɵ̞̰
astu1245-2571	Asturian-Leonese-Cantabrian	astu1245	Indo-European	Eurasia	42.4181	-6.02227	27	20	7	0	0	0	0	2.857142857142857	b d̪ f j k l m n p r s tʃ t̪ x g ɲ ɾ ʃ ʎ θ ä e̞ i i̯ o̞ u u̯
tain1252-2572	Tai Nüa	tain1252	Tai-Kadai	Eurasia	21.7837	99.722	29	19	10	0	0	0	1	1.9	c f h j k l m n p pʰ s t tʰ v w x ɰ ɲ ʔ a aː e i o u ɔ ɛ ɤ ɯ
sout2746-2573	Southern Thai	sout2746	Tai-Kadai	Eurasia	6.85668	99.7031	32	20	12	0	3	0	0	1.6666666666666667	b c d f h j k kʰ l m n p pʰ r s t tʰ w ŋ ʔ a e i ia o u ua ɔ ɛ ɤ ɯ ɯa
bodo1267-2576	Bodo Gadaba	bodo1267	Austroasiatic	Eurasia	18.3857	82.771	36	17	19	0	9	0	0	0.8947368421052632	b h k l m n p r s t z ŋ ɖ ɟ g ɲ ʔ a ai ao ã e ei ẽ i ia ie io ĩ ĩã ĩõ o oi õ u ũ
buru1296-2577	Burushaski	buru1296		Eurasia	36.2161	74.8236	59	38	21	0	0	0	10	1.8095238095238095	b d dʑ f h j k kʰ l m n p pʰ q qʰ r s t ts tsʰ tɕ tɕʰ tʰ w x z ŋ ɕ ɖ ɖʐ g ɢ ʂ ʈ ʈʂ ʈʂʰ ʈʰ ʐʲ ä̃ː äː i iː ĩ ĩː o oː õ õː u uː ũ ũː æ ɛ ɛː ɛ̃ ɛ̃ː ʌ ʌ̃
lisu1250-2578	Lisu	lisu1250	Sino-Tibetan	Eurasia	26.91	98.94	42	32	10	0	0	0	0	3.2	b d dz dʑ f h h̃ j k kʰ l m n p pʰ s t ts tsʰ tɕ tɕʰ tʰ w x z ŋ ɕ g ɣ ɲ ɻ̩ ʔ e i o u y ø ɑ ɛ ɤ ɯ
tuvi1240-2579	Tuvinian	tuvi1240	Turkic	Eurasia	51.7	94.36667	52	28	24	0	0	0	16	1.1666666666666667	b b̥ d̪ d̪̥ f h j l m n̪ p pʰ q s̪ tʃ t̪ ts̪ t̪ʰ v z̪ ŋ g ɣ ɾ ʃ ʒ β χ i iː ḭː u uː ṵː y yː y̰ː œ œː œ̰ː ɑ ɑː ɑ̰ː ɔ ɔː ɔ̰ː ɛ ɛː ɛ̰ː ɯ̰̽ː ɯ̽ ɯ̽ː
kara1474-2580	Karata	kara1474	Nakh-Daghestanian	Eurasia	42.6501	46.3151	56	46	10	0	0	15	0	4.6	b d dʒ h j kxʰː kxʼː kʰ kʼ l m n pʰ qχʰː qχʼː r s sː tsʰ tsʰː tsʼ tsʼː tɬʰː tɬʼ tɬʼː tʰ tʼ tʃʰ tʃʰː tʃʼ tʃʼː w x xː z çː g ɣ ɬ ɬː ʃ ʃː ʒ ʔ ʜ ʢ ä̃ ä e̞ ẽ̞ i ĩ̞ o̞ õ̞ u ũ
west2392-2581	Western Mari	west2392	Uralic	Eurasia	56.22	46.569	33	23	10	0	0	0	0	2.3	j k l̺ m n̺ p r s sʲ t̪̺ ts̺ x z zʲ ð̺ ŋ ɣ ɲ ɸ ʂ ʎ ʐ β a e i o u y̞ æ œ ɪ ɪ̈
taid1248-2582	Tai Do-Mene-Yo	taid1248	Tai-Kadai	Eurasia	19.1801	104.938	34	21	13	0	3	0	3	1.6153846153846154	b c d f h j k kʰ l m n p pʰ s t tʰ v w ŋ ɲ ʔ a aː e i ia o u ua ɔː ə ɛː ɨ ɨa
basq1248-2583	Basque	basq1248		Eurasia	43.2787	-1.31622	30	23	7	0	0	0	0	3.2857142857142856	b c d dz̻ f k l̺ m n̺ p r̺ s̺ t ts̻ tʃ x ɟ g ɲ ɾ̺ ʃ ʎ ʒ ä e̞ i i̯ o̞ u u̯
bret1244-2584	Breton	bret1244	Indo-European	Eurasia	48.2452	-3.78934	66	32	34	0	5	0	11	0.9411764705882353	b d dʒ f h j j̃ j̊ k l l̥ m m̥ n n̥ p r r̥ s t tʃ v w w̥ z ŋ ŋ̊ g ɥ ɥ̥ ʃ ʒ a au aː ãũ̯ e eː ẽ i iː ĩ o oː u uː y yː æ æː æ̃ ø øː œ̃ ɑ̃ ɒ ɒː ɔ ɔː ɔ̃ ə əu əy ɛ ɛɪ ɛː
sout2436-2586	Southwestern Pashto	sout2436	Indo-European	Eurasia	37.17	68.25	33	26	7	0	0	0	3	3.7142857142857144	b dz dʒ d̪ j kʰ m n pʰ s tsʰ tʃʰ t̪ʰ w x z ɖ g ɣ ɽ ɽ̃ ʂ ʃ ʈʰ ʐ ʒ a eː oː ɑː ə ɪ ʊ
kham1282-2587	Khams Tibetan	kham1282	Sino-Tibetan	Eurasia	31.9313	91.7062	64	49	15	0	0	0	0	3.2666666666666666	b cç cçʰ d dz dʑ h j k kʰ l l̥ m m̥ n n̥ p pʰ r r̥ s sʰ t ts tsʰ tɕ tɕʰ tʰ w x xʰ z ç çʰ ŋ ŋ̊ ɕ ɕʰ ɖ ɟʝ g ɣ ɦ ɰ ʂ ʈ ʈʰ ʔ ʝ a a̰ e i o u ɐ ɑ ɔ ə ɛ ɯ ɵ ʉ ʌ
bona1250-2588	Bonan	bona1250	Mongolic-Khitan	Eurasia	35.6972	102.995	36	25	11	0	0	0	5	2.272727272727273	f h j k kʰ l m n p pʰ q r s t ts tsʰ tʰ tʃ tʃʰ w ç ŋ ʂ ʒ χ a aː e eː i iː u uː ə ɵ ɵː
wane1241-2589	Waneci	wane1241	Indo-European	Eurasia	30.0501	67.8327	30	23	7	0	0	0	3	3.2857142857142856	b dz d̪ j kʰ m n pʰ s tsʰ tʃʰ t̪ʰ w x z ɖ g ɣ ɽ ɽ̃ ʃ ʈʰ ʒ a e iː o uː ɑː ə
digo1242-2590	Digor Ossetian	digo1242	Indo-European	Eurasia	43.158056	44.156944	42	36	6	0	0	0	0	6.0	b̥ d̺̥ dz̺̥ f j k kʰ kʷ kʷʰ kʼʷ kʼ l m n̺ p pʰ pʼ q qʷ r̺ s̺ t̺ ts̺ ts̺ʰ ts̺ʼ t̺ʰ t̺ʼ v w z̺ g̊ g̥ʷ ʁ ʁʷ χ χʷ e o ŭ ɐ̆ ɑ ɪ̆
kham1282-2591	Khams Tibetan	kham1282	Sino-Tibetan	Eurasia	31.9313	91.7062	78	49	29	0	6	0	8	1.6896551724137931	b d dz dʑ h j j̊ k kʰ l m ⁿb m̥ n ⁿd ⁿdz ⁿdʑ n̥ p pʰ s sʰ t ts tsʰ tɕ tɕʰ tʰ w z ŋ ⁿg ŋ̊ ɕ ɕʰ ɖʐ g ɮ ɲ ɲ̊ ⁿɖʐ ɾ ʂ ʂʰ ʈʂ ʈʂʰ ʐ ʑ ʔ a ao e eː i iː ĩ ĩː o õ õː u ua ue ui uæ uː ũ y æ æ̃ ɑ ɑː ɑ̃ ə əo əː ɯ ɯː
tosk1239-2592	Northern Tosk Albanian	tosk1239	Indo-European	Eurasia	41.0	20.0	38	29	9	0	0	0	0	3.2222222222222223	b c d dz dʒ f h j k l m n p r s t ts tʃ v z ð̠ˠ ɟ g lˠ ɲ ɾ ʃ ʒ θ ä e i i̯ o u u̯ y ə
east2282-2593	East Latvian	east2282	Indo-European	Eurasia	56.826108	24.309118	55	38	17	0	2	0	6	2.235294117647059	b bʲ d dz dzʲ dʲ dʒ f fʲ j k kʲ lʲ m mʲ n nʲ p pʲ r s sʲ t ts tsʲ tʲ tʃ v vʲ x xʲ z zʲ g gʲ lˠ ʃ ʒ ä äː i iɛ iː i̯ u uɔ uː u̯ æ æː ɔ ɔː ɛ ɛː ɨ
stan1289-2594	Catalan	stan1289	Indo-European	Eurasia	41.453	1.569	35	25	10	0	0	0	0	2.5	b c dz̺ dʒ d̪ f j m n̺ p r̺ s̺ ts̺ tʃ t̪ w z̺ ŋ ɟ l̺ˠ ɲ̟ ɾ̺ ʃ ȴ ʒ a̟ e i i̯ o u u̯ ɔ̞ ə̹ ɛ̞
turk1304-2595	Turkmen	turk1304	Turkic	Eurasia	37.0872	59.1757	37	21	16	0	0	0	8	1.3125	b dʒ d̪ h j k l̪ m n̪ pʰ tʃ t̪ʰ w x ð ŋ g ɾ ʃ ʒ θ i iː u uː y yː æː œ œː ɑ ɑː ɔ ɔː ɛ ɯ ɯː
jerr1238-2596	Jerriais	jerr1238	Indo-European	Eurasia	48.0	2.0	55	23	32	0	9	0	11	0.71875	b d dʒ f h j k l m n p r s t tʃ v z ð ŋ g ɲ ʃ ʒ aːu̯ ei̯ eːi̯ ẽ ẽː i iː o oːu̯ õ õː u uː u̯o u̯ɔː yː øy̯ øːy̯ œ œː œ̃ œ̃ː ɒ ɒː ɒːi̯ ɒ̃ ɒ̃ː ɛ ɛː ɛ̃ ɛ̃ː ʏ
cent1989-2597	Central Khmer	cent1989	Austroasiatic	Eurasia	12.0515	105.015	46	17	29	0	11	0	8	0.5862068965517241	f h j k l m n p r s t w ŋ ɓ ɗ ɲ ʔ a ao aə aɛ aː e ea eː i ie iː o oa ou oə oː u uə uː ɔ ɔː ə əɨ əː ɛ ɨ ɨə ɨː ɪ
assa1263-2598	Assamese	assa1263	Indo-European	Eurasia	26.0876	91.2932	36	22	14	0	0	0	0	1.5714285714285714	b bʱ d dʱ j k kʰ l m n p pʰ r s t tʰ w x z ŋ g gʱ a ã e ẽ i ĩ o õ u ũ ɒ ɔ ɛ ɛ̃
kalm1243-2599	Oirad-Kalmyk-Darkhat	kalm1243	Mongolic-Khitan	Eurasia	46.566667	45.316667	39	23	16	0	0	0	8	1.4375	b d̪ f j k l̪ m n̪ p r s̪ t̪ ts̪ v x z ŋ ɖʐ g ɣ ʂ ʈʂ ʐ a aː äː e̞ e̞ː iː o̞ o̞ː uː y yː ø̞̜ ø̞̜ː ɐ ɪ ʊ
kham1282-2600	Khams Tibetan	kham1282	Sino-Tibetan	Eurasia	31.9313	91.7062	51	44	7	0	0	0	0	6.285714285714286	b d dz dʒ h j k kʰ l l̥ m ⁿb m̥ n ⁿd ⁿdz n̥ p pʰ s t ts tsʰ tʰ tʃ tʃʰ w x z ŋ ⁿg ŋ̊ ɕ ɖ ɣ ɲ ⁿɟ ɲ̊ ⁿɖ ɻ ɻ̥ ʈ ʈʰ ʑ a e i o u ɒ ɨ
scot1245-2601	Scottish Gaelic	scot1245	Indo-European	Eurasia	56.7574	-5.24366	81	33	48	0	19	0	15	0.6875	f fʲ h j k kʰ kʲ kʲʰ l lʲ lˠ m n nʲ nˠ p pʰ pʲ pʲʰ s t tʰ tʲ tʲʰ v x ç ðʲ ɣ ɣʲ ɾ ɾˠ ʃ a ai au aː ã ãũ ãː e ei eː ẽɪ̃ i ia iː iə iɛ o oː u ua ui uə uɛ uː ũ ũã ũː u̠u ɔ ɔu ɔː ɔ̃ ɔ̃ː ɛ ɛi ɛː ɛ̃ ɛ̃ũ ɛ̃ː ɤ ɤi ɤː ɪ̃ ɪ̃ə̃ ɪ̃ː ɯ ɯː ɯ̃ː
lowe1385-2602	Lower Sorbian	lowe1385	Indo-European	Eurasia	51.6621	13.9407	42	35	7	0	1	0	0	5.0	b bʲ dʑ dʒ d̪ f fʲ h j k kʲ l m mʲ n̪ p pʲ r rʲ s ts tɕ tʃ t̪ vʲ w x z ɕ g gʲ ɲ̟ ʃ ʑ ʒ ä i iɪ̯ u ɔ ɛ ɨ
nene1249-2603	Tundra Nenets	nene1249	Uralic	Eurasia	66.1775	71.0234	33	24	9	0	0	0	6	2.6666666666666665	b bʲ dʲ j k l m mʲ n p pʲ r rʲ s t tɕ w x ð ŋ ɕ ɲ ʎ ʔ oː u uː æː ɑː ə ɤː ɨ ɨː
poli1260-2604	Polish	poli1260	Indo-European	Eurasia	51.8439	18.6255	35	27	8	0	0	0	0	3.375	b c dʑ d̪ dz̪ f j k m n̪ p s̪ tɕ t̪ ts̪ v w x z̪ ɕ ɖʐ̻ ɟ g ʂ̻ ʈʂ̻ ʐ̻ ʑ ä i ĩ̯ u ũ̯ ɔ ɘ̟ ɛ
suii1243-2605	Sui	suii1243	Tai-Kadai	Eurasia	24.0488	106.563	61	46	15	0	8	0	1	3.066666666666667	f h j k kʰ l m ⁿb m̥ n ⁿd n̥ p pʰ q qʰ s t ts tsʰ tɕ tɕʰ tʰ v x z ŋ ŋ̊ ɕ g ɢ ɣ ɲ ɲ̊ ʁ ʔ ˀb ˀd ˀj ˀm ˀn ˀw ˀŋ ˀg ˀɣ ˀɲ a ai au aː aːi aːu e eu i iu o oi u ui ə
ilok1237-2606	Iloko	ilok1237	Austronesian	Papunesia	15.9361	120.993	25	19	6	0	0	0	0	3.1666666666666665	b dʒ d̪ h j k l̪ m n̪ p r s tʃ t̪ w ŋ g ʃ ʔ ä i o u ɛ ɯ
najd1235-2607	Najdi Arabic	najd1235	Afro-Asiatic	Eurasia	30.3371	42.1773	33	25	8	0	0	0	5	3.125	b dʒ d̪ f h j k s sˤ tʃ t̪ t̪ˤ w z ð ðˤ ħ ɟ g ɢ ʁ ʃ ʕ θ χ a aː eː i iː oː u uː
akha1245-2608	Akha	akha1245	Sino-Tibetan	Eurasia	21.2309	100.964	57	34	23	0	0	0	0	1.4782608695652173	b bʲ d dz dʲ h j k kʰ m mʲ m̩ n p pʰ pʲ pʲʰ s sʰ sʲ sʲʰ t ts tsʰ tʰ tʲ tʲʰ x xʰ z ŋ g ɣ ɲ a̤ ã̤ a̰ e̤ ḛ i̤ ḭ o̤ o̰ ṳ ṵ y̤ y̰ ø̤ ø̰ ɔ̤ ɔ̰ ə̤ ə̰ ɛ̤ ɛ̰ ɯ̤ ɯ̰
tata1255-2609	Tatar	tata1255	Turkic	Eurasia	55.0	50.0	43	29	14	0	2	1	0	2.0714285714285716	b d̪ f h j k l m n̪ p q r s̪ ts tɕ t̪ v z̪ ŋ ɕ ɕː g ʁ ʃ ʑ ʒ ʔ β χ a ä iɪ̯ ŏ u ɒ ɔ ɘ̆ ɛ ɤ̞̆ ɨ ɯɪ̯ ɵ̆ ʉ
kaba1278-2610	Kabardian	kaba1278	Abkhaz-Adyge	Eurasia	43.5082	43.3918	51	44	7	0	0	0	5	6.285714285714286	b d dz f fʼ h j kʼʲ kʷʰ kʼʷ l m n pʰ pʼ qʰ qʷʰ qʼʷ qʼ s ts tsʼ tʰ tʼ w xʷ z ç ħ gʲ gʷ ɬ ɬʼ ɾ ʁ ʁʷ ʃ ʃʼ ʒ ʔ ʔʷ ʝ χ χʷ äː eː iː oː uː ɐ ə
tami1289-2611	Tamil	tami1289	Dravidian	Eurasia	10.520219	78.825989	36	24	12	0	2	0	5	2.0	b c d̪ h j k l̪ m n n̪ p r r̪ t̪ w ŋ ɖ ɟ g ɭ ɲ ɳ ʈ ʐ a ai au aː e eː i iː o oː u uː
uigh1240-2612	Uighur	uigh1240	Turkic	Eurasia	43.88	87.38	43	28	15	0	0	1	7	1.8666666666666667	b dʒ d̪ f h j k l m n̪ p q r s ts tʃ t̪ v w x z ŋ ɕː g ʁ ʃ ʒ ʔ e o æː ø œː ɑ ɑː ɔː ɛ ɪ ɪː ʊ ʊː ʏ ʏː
buru1296-2613	Burushaski	buru1296		Eurasia	36.2161	74.8236	48	38	10	0	0	0	5	3.8	b d dʑ f h j k kʰ l m n p pʰ q qʰ r s t ts tsʰ tɕ tɕʰ tʰ w x z ŋ ɕ ɖ ɖʐ g ɢ ʂ ʈ ʈʂ ʈʂʰ ʈʰ ʐʲ äː i iː o oː u uː ɛ ɛː ʌ
amdo1237-2614	Amdo Tibetan	amdo1237	Sino-Tibetan	Eurasia	34.5177	100.485	49	43	6	0	0	0	0	7.166666666666667	b d dz dʑ f h j k kʰ l m m̥ n n̥ p pʰ r s sʰ t ts tsʰ tɕ tɕʰ tʰ w z ç ŋ ŋ̊ ɕ ɖʐ g ɣ ɬ ɲ ɲ̊ ʁ ʂʰ ʈʂ ʈʂʰ ʑ χ a e i o u ə
basq1248-2615	Basque	basq1248		Eurasia	43.2787	-1.31622	28	21	7	0	0	0	0	3.0	b d dz̻ f k l̺ m n̺ p r̺ s̺ t ts̻ tʃ x ɟ g ɲ ɾ̺ ʃ ʎ ä e̞ i i̯ o̞ u u̯
erzy1239-2616	Erzya	erzy1239	Uralic	Eurasia	52.8548	45.3901	35	29	6	0	0	0	0	4.833333333333333	b dʲ d̪ f j k lʲ m nʲ n̪ p sʲ s̪ tsʲ tʲ t̪ ts̪ v x zʲ z̪ ŋ g lˠ ɾ ɾʲ ʂ ʈʂ ʐ ä e̞ i o̞ u ɨ
narp1239-2617	Nar Phu	narp1239	Sino-Tibetan	Eurasia	28.76714	84.22852	49	25	24	0	6	0	8	1.0416666666666667	j k kʰ l l̥ m n p pʰ r r̥ s t ts tsʰ tʰ tʃ tʃʰ w ŋ ɲ ʃ ʈ ʈʰ ʔ a ae ai̯ au̯ aː ã e eː i iː o ou̯ oː u ui̯ uː æ æː œ œi̯ œː ɛ ɛː ɛ̃
west2368-2618	Western Balochi	west2368	Indo-European	Eurasia	37.83	62.17	33	23	10	0	2	0	5	2.3	b d dʒ j k l m n p s t tʃ x z ɖ g ɣ ɽ ɾ ʃ ʈ ʋ ʒ aːɪ ä äː eː iː oː uː ɑʊ̯ ɪ ʊ
gali1258-2619	Galician	gali1258	Indo-European	Eurasia	42.2446	-7.5343	30	23	7	0	0	0	0	3.2857142857142856	b d̪ f j k l m n p r s̺ tʃ t̪ w ɹ̪ ħ ŋ ɟ ɲ ɾ ʃ β̞ θ ä e i o u ɔ ɛ
mana1288-2620	Manange	mana1288	Sino-Tibetan	Eurasia	28.6416	84.0515	41	30	11	0	0	0	0	2.727272727272727	h j k kʰ kʷ kʷʰ l m mʷ n p pʰ pʷ pʷʰ s ts tsʰ tʃ tʃʰ t̪ t̪ʰ ŋ ŋʷ ɲ ɾ ʂ ʃ ʈ ʈʰ ʔ e ẽ i ĩ o õ u ũ ɑ ɑ̃ ʌ
sheh1240-2621	Jibbali	sheh1240	Afro-Asiatic	Eurasia	17.29154	53.99526	38	30	8	0	0	0	0	3.75	b d dʼ f h j kʰ kʼ l m n r s sʼ tʰ w z ð ðʼ ħ gʲ ɬ ɮʼ ʁ ʃ ʃ̞ ʃ̞ʼ ʕ θ χ a e i o u ɔ ə ɛ
west2368-2622	Western Balochi	west2368	Indo-European	Eurasia	37.83	62.17	33	24	9	0	4	0	3	2.6666666666666665	b d dʒ h j k l m n p s t tʃ z ɖ g ɽ ɾ ʁ ʃ ʈ ʋ ʒ χ iː i̯ɛ u̯ɔ yː æɪ̯ ɑː ɔʊ̯ ɪ ʊ
beng1280-2624	Bengali	beng1280	Indo-European	Eurasia	24.0	90.0	47	30	17	0	3	0	0	1.7647058823529411	b bʱ c cʰ d dʱ d̪ d̪ʱ h j k kʰ l m n p pʰ r s t tʰ t̪ t̪ʰ w ŋ ɟ ɟʱ g gʱ ʃ e̞ ẽ̞ i ĩ o õ u ũ æ æi̯ æ̃ ɑ ɑi̯ ɑ̃ ɔ ɔi̯ ɔ̃
sout2750-2625	Southern Yukaghir	sout2750	Yukaghir	Eurasia	64.218	154.375	36	20	16	0	3	0	6	1.25	d dʑ j k l m n p q r t tɕ w ŋ g ɲ ʁ ʃ ʎ ʒ ä äː i iɛ iː u uœ uɔ uː œ œː ɔ ɔː ə ɛ ɛː
osse1243-2626	Modern Ossetic	osse1243	Indo-European	Eurasia	42.98	44.61	46	39	7	0	0	1	0	5.571428571428571	b̥ dʒ̊ d̺̥ f j k kʰ kʷ kʷʰ kʼʷ kʼ l m n̺ p pʰ pʼ q qʷ r̺ s̺ tʃ tʃʰ tʃʼ t̺ ts̺ː t̺ʰ t̺ʼ v w z̺ g̊ g̥ʷ ʁ ʁʷ ʃ ʒ χ χʷ e̞ i o̞ u ɞ̞̆ ɑ ɨ̆
pnar1238-2627	Pnar	pnar1238	Austroasiatic	Eurasia	24.8237	92.2628	39	24	15	0	8	0	0	1.6	b d dʒ h j k kʰ l l̩ m n n̩ p pʰ r r̩ s t tʰ tʃ w ŋ ɲ ʔ a ai e ei i ia ie io iɔ o oi u ui ɔ ɛ
nyaw1245-2628	Nyaw	nyaw1245	Tai-Kadai	Eurasia	17.1213	104.151	31	19	12	0	3	0	0	1.5833333333333333	b c d h j k kʰ l m n p pʰ s t tʰ w ŋ ɲ ʔ a e i ia o u ua ɔ ɛ ɤ ɯ ɯa
