ID	Name	Glottocode	Family	Macroarea	Latitude	Longitude	Sounds	Consonants	Vowels	Clusters	Diphthongs	Consonantal	Vocalic	Ratio	Phonemes
kabardianturkish	Kabardian (Turkish)	kaba1278	Abkhaz-Adyge [abkh1242]	Eurasia	43.5082	43.3918	47	44	3	0	0	44	3	14.666666666666666	pʰ b f pʼ fʼ ɬ tʼ tsʼ ɬʼ tʰ ts d dz s z ʃ ʒ ʃʼ ç ʝ kʼʲ gʲ kʼʷ kʷʰ xʷ gʷ qʰ qʼʷ qʷʰ qʼ χ χʷ ʁ ʁʷ ħ h ʔ ʔʷ w m n l ɾ j ə ɐ aː
italian	Italian	ital1282	Indo-European [indo1319]	Eurasia	43.0464	12.6489	30	23	7	0	0	23	7	3.2857142857142856	p b f v m w t̪ d̪ ts dz s z n l ɾ tʃ dʒ ʃ ɲ ʎ j k g i e ɛ a ɔ o u
danish	Danish	dani1285	Indo-European [indo1319]	Eurasia	54.8655	9.36284	26	15	11	0	0	15	11	1.3636363636363635	pʰ p ts t kʰ k m n f s ʋ h j ʁ l i e ɛ a y ø œ u o ɔ ə
faroese	Faroese	faro1244	Indo-European [indo1319]	Eurasia	62.0732	-6.88497	36	16	12	0	8	16	20	1.3333333333333333	pʰ p f v m tʰ t s n r l ʃ j kʰ k h iː ɪ eː ɛ ʏ øː œ a uː ʊ oː ɔ ʊɪ ɛɪ ɔɪ aɪ ʉu ɔu ɛa ɔa
swedishcentral	Swedish (Central)	swed1254	Indo-European [indo1319]	Eurasia	59.800634	17.389526	35	18	17	0	0	18	17	1.0588235294117647	pʰ b m f v t̪ʰ d̪ n̪ s̪ ɹ l̪ ʝ kʰ g ŋ h ɧ ɕ iː ɪ yː ʏ ʉ̟ː ɵ eː ɛː ɛ øː œ ɑː a oː ɔ uː ʊ
scottishgaeliclewis	Scottish Gaelic (Lewis)	scot1245	Indo-European [indo1319]	Eurasia	56.7574	-5.24366	81	33	29	0	19	33	48	1.1379310344827587	pʰ pʲʰ p pʲ tʰ tʲʰ t tʲ kʰ kʲʰ k kʲ m n nʲ nˠ f v s x ɣ fʲ ʃ ç ɣʲ ɾ ðʲ ɾˠ j h l lʲ lˠ i iː ɪ̃ ɪ̃ː e eː ɛ ɛː ɛ̃ ɛ̃ː a aː ã ãː u uː ũ ũː o oː ɔ ɔː ɔ̃ ɔ̃ː ɯ ɯː ɯ̃ː ɤ ɤː ai ɛi ei ui ɤi au ɔu iə ia iɛ uə ua uɛ u̠u ɛ̃ũ ẽɪ̃ ãũ ũã ɪ̃ə̃
welshllanwrtyd	Welsh (Llanwrtyd)	wels1247	Indo-European [indo1319]	Eurasia	52.0	-4.0	48	29	11	0	8	29	19	2.6363636363636362	p pʰ t tʰ k kʰ tʃ dʒ f v θ ð s z l ɬ ʃ χ h r r̥ m m̥ n n̥ ŋ ŋ̊ w j iː ɪ eː ɛ ɑː a oː ɔ uː ʊ ə ai ɔi ʊi əi ɪu ɛu au əu
bretonbothoa	Breton (Bothoa)	bret1244	Indo-European [indo1319]	Eurasia	48.2452	-3.78934	66	32	29	0	5	32	34	1.103448275862069	p b t d k g tʃ dʒ f v s z ʃ ʒ h m m̥ n n̥ j̃ ŋ ŋ̊ l l̥ r r̥ w w̥ ɥ ɥ̥ j j̊ i iː e eː ɛ ɛː æ æː y yː ø øː ə a aː u uː o oː ɔ ɔː ɒ ɒː ĩ ẽ œ̃ æ̃ ɑ̃ ɔ̃ ɛɪ əy əu au ãũ̯
germanstandard	German (Standard)	stan1295	Indo-European [indo1319]	Eurasia	48.649	12.4676	40	24	16	0	0	24	16	1.5	pʰ b m pf f v t̺ʰ d̺ ts s z n l tʃ dʒ ʃ ʒ ç j kʰ g ŋ ʀ h iː yː uː ɪ ʏ ʊ eː øː oː ə ɛ ɛː œ ɔ a aː
dutch	Dutch	dutc1256	Indo-European [indo1319]	Eurasia	52.0	5.0	43	18	22	0	3	18	25	0.8181818181818182	p b m f v ʋ t d n s z ɾ l j k ŋ χ ɦ ɪ ʏ ɛ ə ɑ ɔ i y eː øː aː oː u iː yː ɛː œː ɔː uː ɛ̃ ã ɔ̃ ɛi œy ʌu
french	French	stan1290	Indo-European [indo1319]	Eurasia	48.0	2.0	34	20	14	0	0	20	14	1.4285714285714286	p b m f v t d n s z l ʃ ʒ ɲ k g ʁ j ɥ w i e ɛ y ø œ ə a u o ɔ ɑ̃ ɔ̃ ɛ̃
friulian	Friulian	friu1240	Indo-European [indo1319]	Eurasia	46.1473	13.0493	39	25	14	0	0	25	14	1.7857142857142858	p b m f v t̪ d̪ ts̪ dz̪ n s z tʃ dʒ ʃ ʒ ɾ l ɲ c ɟ j k g w i e ɛ a ɔ o u iː eː ɛː aː ɔː oː uː
luxembourgish	Luxembourgish	luxe1241	Indo-European [indo1319]	Eurasia	49.6839	6.14931	48	26	14	0	8	26	22	1.8571428571428572	pʰ p m f v tʰ t n s z ts l ʃ ʒ tʃ ɕ ʑ j kʰ k ŋ w ʀ χ ʁ h i iː e eː ɛː ə æ aː ɐ ɑ u uː o oː iə ɜi æːi ɑi uə əʊ æːʊ ɑʊ
byangsi	Byangsi	byan1241	Sino-Tibetan [sino1245]	Eurasia	29.92002	80.63653	36	28	8	0	0	28	8	3.5	p t ʈ k pʰ tʰ ʈʰ kʰ b d ɖ g tʃ tʃʰ dʒ s ʂ h m n n̥ ŋ l l̥ r r̥ w j i iː u uː a aː e o
lhomitibetan	Lhomi Tibetan	lhom1239	Sino-Tibetan [sino1245]	Eurasia	27.5948	87.7161	45	23	22	0	0	23	22	1.0454545454545454	p t ʈ k pʰ tʰ ʈʰ kʰ ts tɕ tsʰ tɕʰ s ɕ h l l̥ r m n ŋ w j i iː y u uː e ø o oː a aː i̤ i̤ː y̤ ṳ ṳː e̤ ø̤ o̤ o̤ː a̤ a̤ː
kunmingchinesesouthwestmandarin	Kunming Chinese (Southwest Mandarin)	kunm1234	Sino-Tibetan [sino1245]	Eurasia	25.049711	102.72274	45	25	7	0	13	25	20	3.5714285714285716	p pʰ t tʰ k kʰ f s ʐ ɕ ʂ x tɕ tɕʰ ʈʂ ʈʂʰ ts tsʰ m n ŋ r l w j i ɛ ɘ˞ u o ɔ ɑ ie iu io iɘ ui ɘy iɛ iɔ əu uɑ iɑ ɘi uɛ
shaoxingchinese	Shaoxing Chinese	wuch1236	Sino-Tibetan [sino1245]	Eurasia	29.8621	119.682	48	35	11	0	2	35	13	3.1818181818181817	p pʰ t tʰ k kʰ ʔ b d g ts tsʰ dz tɕ tɕʰ dʑ f s ɕ h v z ʑ ɦ l m n ŋ l̩ m̩ n̩ ŋ̍ j ɥ w ɿ e a o ɤ i u y ɑɒ əɒ ɛ̃ ɵ̃ ẽ
khowar	Khowar	khow1242	Indo-European [indo1319]	Eurasia	36.0	72.0	44	39	5	0	0	39	5	7.8	p b pʰ t̪ d̪ t̪ʰ ʈ ɖ ʈʰ k g kʰ q m n̪ ts dz tsʰ ʈʂ ɖʐ ʈʂʰ tɕ dʑ tɕʰ f s z ʂ ʐ ɕ ʑ x ɣ h ɾ ʋ j lˠ l i u ɛ ɑ ɔ
palula	Palula	phal1254	Indo-European [indo1319]	Eurasia	35.5096	71.8421	52	42	10	0	0	42	10	4.2	p b t̪ d̪ ʈ ɖ k g m n̪ ɳ ts tɕ s z ʂ ɕ ʑ x ɣ h ɾ ɽ β̞ j l pʰ bʰ t̪ʰ d̪ʰ ʈʰ ɖʰ kʰ gʰ mʰ n̪ʰ ʈʂʰ tɕʰ zʰ ʑʰ jʰ lʰ iː i uː u eː e oː o a aː
ushojo	Ushojo	usho1238	Indo-European [indo1319]	Eurasia	35.1584	72.643	53	36	17	0	0	36	17	2.1176470588235294	pʰ tʰ ʈʰ kʰ p t ʈ k b d ɖ g s ɕ ʂ x h z ʑ ʐ ts tɕ ʈʂ dz dʑ ɖʐ m n ŋ ɳ l ɭ ɾ ɽ w j i iː ĩ e ẽ eː ʌ ʌ̃ ɑ ɑː ɑ̃ u uː ũ o oː õ
sanglechi	Sanglechi	sang1344	Indo-European [indo1319]	Eurasia	36.45	71.3	42	31	11	0	0	31	11	2.8181818181818183	p b m t d n ʈ ɖ ɳ k g ts tʃ dʒ w f v s z ð ʝ ç χ ʁ ʃ ʒ ʂ ʐ l ɭ r aː a ɔ o iː i uː u eː e ə
shughni	Shughni	shug1248	Indo-European [indo1319]	Eurasia	37.5018	71.7925	39	29	10	0	0	29	10	2.9	p b t d k g q ts dz tʃ dʒ l m n w f v s z θ ð j x ɣ χ ʁ ʃ ʒ r iː eː ɛ i a aː uː ʊ oː u
sarikoli	Sarikoli	sari1246	Indo-European [indo1319]	Eurasia	37.905	75.1449	38	29	7	0	2	29	9	4.142857142857143	p b t d k g q ts dz tʃ dʒ l m n s z ʃ ʒ f v θ ð x ɣ χ ʁ w j r i e a ə ɨ u o ɛi̯ ɛu̯
yazghulami	Yazghulami	yazg1240	Indo-European [indo1319]	Eurasia	38.2801	71.565	45	37	8	0	0	37	8	4.625	p b t d c ɟ k g kʷ gʷ q qʷ ts dz tʃ dʒ l m n w f v s z θ ð j x ɣ χ ʁ ʃ ʒ χʷ ʁʷ xʷ r i e ə a aː u ʊ o
southwestpashai	Southwest Pashai	sout2671	Indo-European [indo1319]	Eurasia	34.8478	69.8734	52	40	12	0	0	40	12	3.3333333333333335	p pʰ b bʰ t d tʰ dʰ ʈ ɖ ʈʰ ɖʰ k g kʰ gʰ m n ɳ ts tʃ dʒ tʃʰ dʒʰ ʈʂ ʈʂʰ w s z ʃ ʒ ʂ ʐ j χ ʁ h l r ɽ a aː e eː o oː i iː ø u uː ə
gawarbati	Gawarbati	gawa1247	Indo-European [indo1319]	Eurasia	35.1982	71.5428	41	35	6	0	0	35	6	5.833333333333333	p t ʈ k pʰ tʰ ʈʰ kʰ b d ɖ g ts ʈʂ tʃ tsʰ ʈʂʰ dʒ s ʂ ʃ x h z ʒ ɣ m n ɳ r ɽ ɬ l w j i e a o u aː
grangali	Grangali	gran1245	Indo-European [indo1319]	Eurasia	34.6485	70.7323	34	27	7	0	0	27	7	3.857142857142857	p t ʈ k b d ɖ g ts tʃ dz dʒ s ʃ x h z ʒ m n ɳ ŋ r ɽ ɬ l w i e a o u y ə
tirahi	Tirahi	tira1253	Indo-European [indo1319]	Eurasia	34.1792	69.5901	38	27	11	0	0	27	11	2.4545454545454546	p t ʈ k pʰ tʰ kʰ b d ɖ g ts tʃ tʃʰ dʒ s ʃ x h z ɣ m n r l w j a aː ə i iː e eː u uː o oː
torwali	Torwali	torw1241	Indo-European [indo1319]	Eurasia	35.3101	72.5316	58	45	13	0	0	45	13	3.4615384615384617	p t ʈ k pʰ tʰ ʈʰ kʰ b d ɖ g bʰ dʰ ɖʰ gʰ ʈʂ tʃ ʈʂʰ tʃʰ ɖʐ dʒ f s ʂ ʃ x h z ʐ ʒ ɣ m n ɳ ŋ m̥ n̥ ɳ̊ r ɽ l l̥ w j a aː u uː o ɔ i iː ɛ eː æ ə ɨ
wotapurikatarqalai	Wotapuri-Katarqalai	wota1240	Indo-European [indo1319]	Eurasia	34.7033	70.8565	54	34	20	0	0	34	20	1.7	p t ʈ k q pʰ tʰ ʈʰ kʰ b d ɖ g ts ʈʂ tsʰ ʈʂʰ dz dʒ f s ʂ x h z m n ɳ r ɽ ɭ l w j i e a o u iː eː aː oː uː ĩ ẽ ã õ ũ ĩː ẽː ãː õː ũː
induskohistanikanyawali	Indus Kohistani (Kanyawali)	indu1241	Indo-European [indo1319]	Eurasia	35.3389	73.0154	50	40	10	0	0	40	10	4.0	p t ʈ k pʰ tʰ kʰ b d ɖ g bʰ dʰ gʰ ts ʈʂ tʃ tsʰ tʃʰ dʒ f s ʂ ʃ x h v z ʐ ʒ ɣ m n ɳ r ɽ ɽʰ l w j i iː e eː a aː o oː u uː
adyghe	Adyghe	adyg1241	Abkhaz-Adyge [abkh1242]	Eurasia	44.0	39.33	57	54	3	0	0	54	3	18.0	m n r w j b p pʼ pʼʷ d t tʼ tʼʷ gʷ k kʷ kʼ kʼʷ q qʷ ʔʼ ʔʼʷ f z s dz ts tsʼ ʒ ʃ tʃ tʃʼ ʑ ɕ dʑ tɕ tɕʼ ʒʷ ʃʷ ʃʼ ʃʼʷ dʒʷ tʃʷ ɮ ɬ ɬʼ ɣ x xʷ ʁ ʁʷ χ χʷ h a e ə
easternyugur	Eastern Yugur	east2337	Mongolic-Khitan [mong1349]	Eurasia	37.9882	101.762	42	28	14	0	0	28	14	2.0	pʰ tʰ kʰ qʰ p t k q tsʰ tʃʰ ts tʃ s ʃ χ h β ɣ ʁ m n ŋ l r j l̥ n̥ j̊ a e ə ɔ y ɵ u aː eː əː ɔː yː ɵː uː
dongxiang	Dongxiang	dong1285	Mongolic-Khitan [mong1349]	Eurasia	35.5808	103.558	34	28	6	0	0	28	6	4.666666666666667	pʰ tʰ kʰ qʰ p t k q tsʰ tʃʰ ʈʂʰ ts tʃ ʈʂ s ʃ ʂ x h ʐ ʁ m n ŋ l r w j a e i ɨ o u
baoannantoq	Baoan (Ñantoq)	bona1250	Mongolic-Khitan [mong1349]	Eurasia	35.6972	102.995	36	25	11	0	0	25	11	2.272727272727273	pʰ tʰ kʰ p t k q tsʰ tʃʰ ts tʃ f s ʂ ç χ h ʒ m n ŋ l r w j a e i ɵ u ə aː eː iː ɵː uː
caodengrgyalrong	Caodeng rGyalrong	jiar1240	Sino-Tibetan [sino1245]	Eurasia	31.60295	102.22875	63	52	9	0	2	52	11	5.777777777777778	p t c k q pʰ tʰ cʰ kʰ qʰ b d ɟ g ⁿb ⁿd ⁿɟ ⁿg ⁿɢ ts ʈʂ tʃ tsʰ ʈʂʰ tʃʰ dz ɖʐ dʒ ⁿdz ⁿɖʐ ⁿdʒ m n ɲ ŋ f s ʂ ʃ x χ v z ʒ ɣ ʁ r l̥ l w j ʔ a i u e ɛ o ɔ ə ɐ ɐi̯ oi̯
glotibetan	gLo Tibetan	lowa1242	Sino-Tibetan [sino1245]	Eurasia	29.0324	83.8959	43	35	8	0	0	35	8	4.375	p pʰ b t tʰ d ʈ ʈʰ ɖ k kʰ g ʔ s z ʃ ç h ɦ tʃ tʃʰ dʒ ts tsʰ dz m n ɲ ŋ l l̥ r r̥ w j a i u e o æ ʉ ɵ
tshangla	Tshangla	tsha1245	Sino-Tibetan [sino1245]	Eurasia	27.3694	91.7741	39	32	5	0	2	32	7	6.4	p t ʈ k pʰ tʰ ʈʰ kʰ b d ɖ g ts tɕ tsʰ tɕʰ dz dʑ s ɕ z ʑ m n ɲ ŋ l l̥ ɾ w j h i e a o u ai au
zhongutibetan	Zhongu Tibetan	zhon1235	Sino-Tibetan [sino1245]	Eurasia	32.43582	103.44179	68	59	9	0	0	59	9	6.555555555555555	p ʰp pʰ ⁿpʰ b ⁿb m̥ m w t ʰt tʰ ⁿtʰ d ⁿd s z n̥ n l̥ l r̥ r ts ʰts tsʰ ⁿtsʰ dz ⁿdz ʈʂ ʈʂʰ ⁿʈʂʰ ɖʐ ⁿɖʐ ʂ ʐ tʃ ʰtʃ tʃʰ ⁿtʃʰ dʒ ⁿdʒ ʃ ʒ ɲ̊ ɲ k ʰk kʰ ⁿkʰ g ⁿg ŋ̊ ŋ ɣ q qʰ χ ʁ i e ɛ a ə ɔ u o ɑ
spititibetan	Spiti Tibetan	spit1240	Sino-Tibetan [sino1245]	Eurasia	32.526	77.833	40	33	7	0	0	33	7	4.714285714285714	p t ʈ k pʰ tʰ ʈʰ kʰ b d ɖ g m n ɲ ŋ s ʃ ʂ z ʒ h ts tɕ tsʰ tɕʰ dz dʑ l r ɽ w j i e ɛ a u o ɔ
hebrew	Hebrew	hebr1245	Afro-Asiatic [afro1255]	Eurasia	31.1056	35.0179	25	20	5	0	0	20	5	4.0	p b t d k g ʔ f v s z ʃ x h ts m n l ʁ j i ɛ a o u
kangjia	Kangjia	kang1281	Mongolic-Khitan [mong1349]	Eurasia	35.043	101.254	36	27	9	0	0	27	9	3.0	pʰ tʰ kʰ qʰ p t k q tsʰ tʃʰ ts tʃ f s ʃ χ h v z ɣ ʁ m n ŋ l r j a e ə i ɨ ɔ o u ʉ
humlabhotia	Humla Bhotia	huml1238	Sino-Tibetan [sino1245]	Eurasia	30.1451	81.5659	69	41	28	0	0	41	28	1.4642857142857142	p pʰ b ⁿb m w t tʰ d ⁿd ts tsʰ dz ⁿdz s z n l tʃ tʃʰ dʒ ⁿdʒ ʃ ʒ ʈ ʈʰ ɖ ⁿɖ r r̥ c cʰ ɟ ɲ j k kʰ g ⁿg ŋ h i iː ĩ ĩː e eː ẽ ẽː y yː ỹ ỹː ø øː ø̃ ø̃ː a aː ã ãː u uː ũ ũː o oː õ õː
denjongka	Denjongka	sikk1242	Sino-Tibetan [sino1245]	Eurasia	27.85795	88.59153	65	37	24	0	4	37	28	1.5416666666666667	p pʰ ⁿb m w t tʰ ⁿd ts tsʰ ⁿdz s z n n̥ l l̥ ʈ ʈʰ ⁿɖ r r̥ tɕ tɕʰ ⁿdʑ ɕ ʑ ɲ ɲ̊ j k kʰ ⁿg ŋ ŋ̊ ʔ h i iː ĩː e eː ẽː y yː ỹː ø øː ø̃ː ɛ ɛː ɛ̃ː a aː ãː u uː ũː o oː õː iu ɐu ou ɐi
dzongkha	Dzongkha	dzon1239	Sino-Tibetan [sino1245]	Eurasia	27.410786	89.581604	58	32	18	0	8	32	26	1.7777777777777777	p pʰ b m w t tʰ d r s z ts tsʰ dz n l l̥ ʈ ʈʰ ɖ ɕ ʑ tɕ tɕʰ dʑ ɲ j k kʰ g ŋ h i iː ĩː ʏː e eː ẽː øː ɛː ɑ ɑː ɑ̃ː o oː õː u uː ũː ai au aːu iu eu ɛu ou øu
nyinpacone	Nyinpa Cone	chen1255	Dravidian [drav1251]	Eurasia	15.8787	79.2534	70	46	24	0	0	46	24	1.9166666666666667	p pʰ b ⁿb m w t tʰ d ⁿd ts tsʰ dz ⁿdz n s sʰ z l l̥ tɕ tɕʰ dʑ ⁿdʑ ɲ ɕ ɕʰ ʑ j ʈʂ ʈʂʰ ɖʐ ⁿɖʐ ʂ ʂʰ r k kʰ g ⁿg ŋ x xʰ ɣ h ʁ i iː ʉ ʉː u uː ɪ ɪː e eː o oː ɛ ə ɔ æ ɑ ɑː ĩː ũː ẽː õː ã ãː
baima	Baima	baim1244	Sino-Tibetan [sino1245]	Eurasia	33.1001	103.952	66	40	15	0	11	40	26	2.6666666666666665	p pʰ b m t tʰ d n l ts tsʰ dz s sʰ z r tʃ tʃʰ dʒ ʃ ʃʰ ʒ tɕ tɕʰ dʑ ɕ ɕʰ ʑ ɲ k kʰ g ŋ ɦ ⁿb ⁿd ⁿdz ⁿdʒ ⁿdʑ ⁿg i y e ø ɛ ɛ̃ ə ɐ a u o õ ɔ ɑ ɑ̃ iø ue iɛ yɛ uɛ io iɔ uɔ iɑ uɑ uɑ̃
japhug	Japhug	japh1234	Sino-Tibetan [sino1245]	Eurasia	32.1	102.36	58	50	8	0	0	50	8	6.25	p t c k q pʰ tʰ cʰ kʰ qʰ b d ɟ g ⁿb ⁿd ⁿɟ ⁿg ⁿɢ ts tɕ ʈʂ tsʰ tɕʰ ʈʂʰ dz dʑ ɖʐ ⁿdz ⁿdʑ ⁿɖʐ m n ɲ ŋ s ɕ ʂ x χ z ʑ ɣ ʁ w l r j l̥ ʔ u ɯ i y o ɤ e a
avarchadakolob	Avar (Chadakolob)	avar1256	Nakh-Daghestanian [nakh1245]	Eurasia	41.7047	46.558	64	59	5	0	0	59	5	11.8	b d g pʰ tʰ tsʰ tʃʰ tɬʰ kʰ qʰ pʼ tʼ tsʼ tʃʼ tɬʼ kʼ qʼ ʔ z ʒ ʁ ʢ s ʃ ɬ x χ ʜ h gʷ tʷʰ tsʷʰ tʃʷʰ tɬʷʰ kʷʰ qʷʰ tʼʷ tsʼʷ tʃʼʷ tɬʼʷ kʼʷ qʼʷ zʷ ʒʷ ʁʷ ʢʷ sʷ ʃʷ ɬʷ xʷ χʷ ʜʷ hʷ m n w r l j i e a o u
hmongnjuagreenhmong	Hmong Njua (Green Hmong)	hmon1264	Hmong-Mien [hmon1336]	Eurasia	22.5638	101.95	61	48	9	0	4	48	13	5.333333333333333	p t c k q ʔ pʰ tʰ cʰ kʰ qʰ ⁿp ⁿt ⁿc ⁿk ⁿq ⁿpʰ ⁿtʰ ⁿcʰ ⁿkʰ ⁿqʰ ts tʃ ʈʂ tsʰ tʃʰ ʈʂʰ ⁿts ⁿtʃ ⁿʈʂ ⁿtsʰ ⁿtʃʰ ⁿʈʂʰ m n ɲ ŋ v ʒ j f s ʃ ç h sʰ l ɬ i ɨ u e ɔ a ĩ ũ ã ai̯ au̯ aɯ̯ ua
andi	Andi	andi1255	Nakh-Daghestanian [nakh1245]	Eurasia	42.8078	46.2919	68	63	5	0	0	63	5	12.6	b bː d dː dʒ dʒː g gː ɢ p t ts tsː tʃ tʃː tɬː k kː qː tʼ tsʼ tsʼː tʃʼ tʃʼː tɬʼː kʼ kʼː qʼː ʔ z ʒ ʁ s sː ʃ ʃː ɬ ɬː xː χ χː h m n w r l j gʷ kʷ kʼʷ gʷː kʷː kʼʷː xʷː ɢʷ ʁʷ χʷ qʷː qʼʷː χʷː ʔ̃ h̃ i e a o u
mahmeri	Mah Meri	besi1244	Austroasiatic [aust1305]	Eurasia	2.717	101.676	58	30	28	0	0	30	28	1.0714285714285714	p b t d k g ʔ pʰ tʰ kʰ m̥ m n̥ n ɲ̊ ɲ ŋ̊ ŋ ɾ s h tɕ dʑ tɕʰ w ʍ j ɰ l̥ l i ĩ ɯ ɯ̃ u ũ ɨ̞ e ẽ o õ ə ə̃ ɛ ɛ̃ ɔ ɔ̃ a ã i̤ ɯ̤ ṳ e̤ o̤ ə̤ ɛ̤ ɔ̤ a̤
shixing	Shixing	shix1238	Sino-Tibetan [sino1245]	Eurasia	28.3895	100.4	88	51	22	0	15	51	37	2.3181818181818183	p pʰ b ⁿb t̪ t̪ʰ d̪ ⁿd̪ k kʰ q qʰ ⁿɢ ʔ g ⁿg m m̥ n̪ n̪̺ ɲ ŋ ts̪ ts̪ʰ dz̪ ʈʂ ʈʂʰ ɖʐ tɕ tɕʰ ⁿdz̪ ⁿɖʐ dʑ ⁿdʑ s̪ z̪ ʂ ʐ ɕ ʑ x χ ʁ h ɦ ɬ̪ w r̪ j l̪ i z̩ y e æ a ɘ ɵ ɜ u o ɑ ə˞ ĩ ỹ æ̃ ã ɘ̃ ɛ̃ ũ õ ɑ̃ ɔ̃ iɜ iɛ̃ iæ yĩ iæ̃ yi yɜ yæ ui uɜ uæ ua uɛ̃ uã uɑ̃
akha	Akha	akha1245	Sino-Tibetan [sino1245]	Eurasia	21.2309	100.964	57	34	23	0	0	34	23	1.4782608695652173	p pʰ b m t tʰ d n ts tsʰ dz s sʰ z j k kʰ g ŋ x xʰ ɣ h pʲ pʲʰ bʲ mʲ tʲ tʲʰ dʲ ɲ sʲ sʲʰ i̤ y̤ ɯ̤ ṳ e̤ ø̤ ə̤ o̤ ɛ̤ ɔ̤ a̤ ã̤ ḭ y̰ ɯ̰ ṵ ḛ ø̰ ə̰ o̰ ɛ̰ ɔ̰ a̰ m̩
chantyal	Chantyal	chan1310	Sino-Tibetan [sino1245]	Eurasia	28.684	83.4488	48	21	18	0	9	21	27	1.1666666666666667	p t ts k pʰ tʰ tsʰ kʰ b d dz g m n ɲ ŋ l r s j w i e ʌ ɑ o u ĩ ẽ ʌ̃ ɑ̃ õ ũ i̤ e̤ ʌ̤ ɑ̤ o̤ ṳ iu̯ eu̯ ʌu̯ ɑu̯ ei̯ ʌi̯ ɑi̯ oi̯ ui̯
dolakhanewar	Dolakha Newar	east2773	Sino-Tibetan [sino1245]	Eurasia	27.576985	86.033964	36	24	12	0	0	24	12	2.0	p t ʈ tɕ k pʰ tʰ ʈʰ tɕʰ kʰ b d ɖ dʑ g m n ŋ s h l ɾ w j i ĩ u ũ e ẽ o õ a ã ɑ ɑ̃
sui	Sui	suii1243	Tai-Kadai [taik1256]	Eurasia	24.0488	106.563	61	46	7	0	8	46	15	6.571428571428571	p t ts tɕ k q ʔ pʰ tʰ tsʰ tɕʰ kʰ qʰ ⁿb ⁿd g ˀg ɢ ˀb ˀd m̥ n̥ ɲ̊ ŋ̊ ˀm ˀn ˀɲ ˀŋ m n ɲ ŋ f s ɕ x h v l z j ɣ ʁ ˀw ˀj ˀɣ a aː e o i u ə ai aːi oi ui au aːu eu iu
nuosublackyi	Nuosu (Black Yi)	sich1238	Sino-Tibetan [sino1245]	Eurasia	28.1947	102.121	74	53	16	0	5	53	21	3.3125	pʰ p ⁿb b m̥ m f v tsʰ ts dz ⁿdz s z tʰ t d ⁿd n̥ n ɬ l ʈʂʰ ʈʂ ɖʐ ⁿɖʐ ʂ ʐ tʃʰ tʃ dʒ ⁿdʒ ʃ ʒ tɕʰ tɕ dʑ ⁿdʑ ɕ ɲ̊ ɲ kʰ k g ⁿg x ɣ ŋ h m̩ v̩ l̩ ʒ̍ ɿ ɿ̹ ɿˠ ʅ ʅ̹ i y e ø ɛ ʉ a u ɯ o ɔ ie iɛ ia io iɔ
yuechinesehongkongcantonese	Yue Chinese (Hong Kong Cantonese)	xian1255	Sino-Tibetan [sino1245]	Eurasia	22.422645	114.098396	41	19	11	0	11	19	22	1.7272727272727273	p pʰ t tʰ k kʰ kʷ kʷʰ ts tsʰ m n ŋ f s h j w l i y ɛ œ a ɔ u ɪ ɵ ɐ ʊ ai ɐi au ɐu ei ɛu ɵy ɔi ui iu ou
najdiarabic	Najdi Arabic	najd1235	Afro-Asiatic [afro1255]	Eurasia	30.3371	42.1773	33	25	8	0	0	25	8	3.125	b w f ð θ d̪ t̪ z s dʒ tʃ ðˤ t̪ˤ sˤ j ɟ ʃ g k ʁ ɢ χ ʕ ħ h iː i eː u uː a aː oː
centralkhmer	Central Khmer	cent1989	Austroasiatic [aust1305]	Eurasia	12.0515	105.015	46	17	18	0	11	17	29	0.9444444444444444	p ɓ t ɗ k f s h m n ɲ ŋ l r w j ʔ i iː ɪ ɛ e eː a aː ɔ ɔː o oː u uː ɨ ɨː ə əː ɨə oa ou ea əɨ aə ao aɛ oə uə ie
pnar	Pnar	pnar1238	Austroasiatic [aust1305]	Eurasia	24.8237	92.2628	39	24	7	0	8	24	15	3.4285714285714284	n̩ l̩ r̩ p pʰ t tʰ tʃ k kʰ ʔ b d dʒ s h m n ɲ ŋ r l j w i u e o ɛ ɔ a ia ei ai ie ui oi iɔ io
jahhut	Jah-Hut	jahh1242	Austroasiatic [aust1305]	Eurasia	3.67619	102.291	52	22	18	0	12	22	30	1.2222222222222223	b d ɟ g p t c k ʔ m n ɲ ŋ w r l s j h m̩ r̩ l̩ i ʉ u e ə o ɛ a ɔ ĩ ʉ̃ ũ ẽ ə̃ õ ɛ̃ ã ɔ̃ i̯ɛ u̯o u̯ə u̯a u̯ɛ u̯ɔ i̯ɛ̃ u̯õ u̯ə̃ u̯ã u̯ɛ̃ u̯ɔ̃
temiar	Temiar	temi1246	Austroasiatic [aust1305]	Eurasia	4.974	101.438	49	19	30	0	0	19	30	0.6333333333333333	p t c k m n ɲ ŋ b d ɟ g w j l ɾ s ʔ h i ʉ u e ə o ɛ a ɔ iː ʉː uː eː əː oː ɛː aː ɔː ĩ ʉ̃ ũ ɛ̃ ã ɔ̃ ĩː ʉ̃ː ũː ɛ̃ː ãː ɔ̃ː
ahi	Ahi	axiy1235	Sino-Tibetan [sino1245]	Eurasia	24.6009	103.713	52	36	16	0	0	36	16	2.25	p t ts ʈ ʈʂ tɕ k pʰ tʰ tsʰ ʈʰ ʈʂʰ tɕʰ kʰ b d dz ɖ ɖʐ dʑ g f s ʂ ɕ x v z ʐ ʑ ɣ m n ŋ l ɬ ɿ ɿ̰ i ḭ ɯ ɯ̰ u ṵ e ḛ o o̰ ɛ ɛ̰ a a̰
vietnamesehanoi	Vietnamese (Hanoi)	viet1252	Austroasiatic [aust1305]	Eurasia	20.681188	105.774071	37	21	13	0	3	21	16	1.6153846153846154	ɓ t tʰ ɗ tɕ k ʔ m n ɲ ŋ f v s z x ɣ h w l p i e ɛ ɛː a aː ɯ ɤ ɤː u o ɔ ɔː iə ɯə uə
saek	Saek	saek1240	Tai-Kadai [taik1256]	Eurasia	17.4558	104.787	44	23	18	0	3	23	21	1.2777777777777777	p t c k ʔ pʰ tʰ cʰ kʰ b d f s h m n ɲ ŋ v l r j w i iː ɯ ɯː u uː e eː ɤ ɤː o oː ɛ ɛː a aː ɔ ɔː ia ɯa ua
santali	Santali	sant1410	Austroasiatic [aust1305]	Eurasia	25.0317	87.8185	57	26	14	0	17	26	31	1.8571428571428572	p t ʈ c k b d ɖ ɟ g m n ɲ ŋ s h r ɽ l w j bʰ tʰ dʰ ɟʰ ɖʰ i ĩ u ũ e ə ə̃ o ɛ ɛ̃ ɔ ɔ̃ a ã ae ao eo iu ui əi əu ei ɔe ɛo oe oi ea oa uə iə io
mundari	Mundari	mund1320	Austroasiatic [aust1305]	Eurasia	23.03	85.85	28	23	5	0	0	23	5	4.6	p t ʈ c k ʔ b d ɖ ɟ g s h m n ɳ ɲ ŋ r ɽ l w j i e u o a
korku	Korku	kork1243	Austroasiatic [aust1305]	Eurasia	21.8358	77.5541	41	31	10	0	0	31	10	3.1	b bʰ d dʰ ɖ ɖʰ ɟ ɟʰ g gʰ p pʰ t tʰ ʈ ʈʰ c k kʰ ʔ m mʰ n ɲ ŋ s h r l ɽ j i u e o a ĩ ũ ẽ õ ã
juang	Juang	juan1238	Austroasiatic [aust1305]	Eurasia	21.2606	85.5845	37	19	18	0	0	19	18	1.0555555555555556	p t ʈ c k b d ɖ ɟ g m n ɲ ŋ s l ɭ r j i e a u o ɔ iː eː aː uː oː ɔː ĩ ẽ ã ũ õ ɔ̃
malayalam	Malayalam	mala1464	Dravidian [drav1251]	Eurasia	9.59208	76.7651	53	38	11	0	4	38	15	3.4545454545454546	p t̪ t ʈ c k pʰ tʰ ʈʰ cʰ kʰ b d ɖ ɟ g bʰ dʰ ɖʰ ɟʰ gʰ s ʂ ʃ h m n̪ n ɳ ɲ ŋ r̪ r l ɭ ʐ ʋ j i iː u uː ə e eː o oː a aː ai ei oi au
magahi	Magahi	maga1260	Indo-European [indo1319]	Eurasia	25.0915	85.3335	50	34	12	0	4	34	16	2.8333333333333335	p pʰ t̪ t̪ʰ ʈ ʈʰ c cʰ k kʰ b bʰ d̪ d̪ʰ ɖ ɖʰ ɟ ɟʰ g gʰ m n mʰ nʰ s h r rʰ ɽ ɽʰ l lʰ w j i ĩ u ũ e ẽ ʌ ʌ̃ o õ a ã əi ə̃ĩ əu ə̃ũ
bhojpuri	Bhojpuri	bhoj1244	Indo-European [indo1319]	Eurasia	26.458455	84.817115	51	35	12	0	4	35	16	2.9166666666666665	p pʰ t̪ t̪ʰ ʈ ʈʰ c cʰ k kʰ b bʰ d̪ d̪ʰ ɖ ɖʰ ɟ ɟʰ g gʰ m mʰ n nʰ ŋ ŋʰ s r rʰ ɽ ɽʰ l lʰ w j i ĩ u ũ e ẽ ʌ ʌ̃ o õ a ã ãĩ ai au ãũ
nepali	Nepali	nepa1254	Indo-European [indo1319]	Eurasia	28.0	85.0	44	29	11	0	4	29	15	2.6363636363636362	k kʰ g gʰ ŋ c cʰ ɟ ɟʰ ʈ ʈʰ ɖ ɖʰ t̪ t̪ʰ d̪ d̪ʰ n̪ p pʰ b bʰ m j r l w s h i ĩ u ũ e ẽ a ã o ə ə̃ əi əĩ əu əũ
panjabieastern	Panjabi (Eastern)	panj1256	Indo-European [indo1319]	Eurasia	30.0368	75.6702	44	27	17	0	0	27	17	1.588235294117647	k c ʈ t̪ p kʰ cʰ ʈʰ t̪ʰ pʰ g ɟ ɖ d̪ b ɳ n̪ m ɽ r ɭ l ʃ s ɦ j w i ĩ u ũ ɪ ʊ e ẽ o õ ɛ ɛ̃ ə ɔ ɔ̃ a ã
tamil	Tamil	tami1289	Dravidian [drav1251]	Eurasia	10.520219	78.825989	36	24	10	0	2	24	12	2.4	p t̪ ʈ c k b d̪ ɖ ɟ g r̪ r m n̪ n ɳ ɲ ŋ l̪ ɭ ʐ w j h i iː u uː e eː o oː a aː ai au
kannadastandard	Kannada (Standard)	nucl1305	Dravidian [drav1251]	Eurasia	13.5878	76.1198	44	34	10	0	0	34	10	3.4	p t̪ ʈ c k pʰ t̪ʰ ʈʰ cʰ kʰ b d̪ ɖ ɟ g bʰ d̪ʰ ɖʰ ɟʰ gʰ f s̪ ʂ ʃ h z̪ m n̪ ɳ l̪ ɭ w j r̪ a aː i iː u uː e eː o oː
tulu	Tulu	tulu1258	Dravidian [drav1251]	Eurasia	12.8114	75.2651	35	21	14	0	0	21	14	1.5	p t̪ ʈ c k b d̪ ɖ ɟ g m n̪ ɳ ɲ ŋ w j l̪ r̪ s̪ ʃ i iː u ɯ uː ɯː e eː o oː ɛ ɛː a aː
baltikharkoo	Balti (Kharkoo)	balt1258	Sino-Tibetan [sino1245]	Eurasia	34.4491	77.2859	40	35	5	0	0	35	5	7.0	p pʰ b t tʰ d k kʰ g ts tsʰ tʃ tʃʰ dʒ ʈʂ ʈʂʰ ɖʐ ʈ ʈʰ ɖ q s z ʃ ʒ x ɣ h l̥ l m n ŋ w j a ɛ i ɔ u
ladakhileh	Ladakhi (Leh)	lada1244	Sino-Tibetan [sino1245]	Eurasia	33.468	80.6013	38	33	5	0	0	33	5	6.6	p t̪ ʈ k pʰ t̪ʰ ʈʰ kʰ b d̪ ɖ g ts tʃ tsʰ tʃʰ dz dʒ s ʂ ʃ h z ʒ r l l̥ m n ɲ ŋ w j i u ə e o
walungge	Walungge	walu1241	Sino-Tibetan [sino1245]	Eurasia	27.695	87.2374	46	32	14	0	0	32	14	2.2857142857142856	p b pʰ t d tʰ ʈ ɖ ʈʰ c ɟ cʰ k g kʰ ts tsʰ tɕ tɕʰ s ɕ h m n ɲ ŋ r r̥ l l̥ w j i iː y yː u uː e eː ø øː o oː a aː
manange	Manange	mana1288	Sino-Tibetan [sino1245]	Eurasia	28.6416	84.0515	41	30	11	0	0	30	11	2.727272727272727	pʰ t̪ʰ ʈʰ kʰ p t̪ ʈ k ʔ pʷʰ kʷʰ pʷ kʷ tsʰ tʃʰ ts tʃ m n ɲ ŋ mʷ ŋʷ ɾ s ʂ ʃ h l j i u e o ʌ ɑ ĩ ũ ẽ õ ɑ̃
gurungwestern	Gurung (Western)	west2414	Sino-Tibetan [sino1245]	Eurasia	27.4169	86.2899	49	29	20	0	0	29	20	1.45	p t̪ ʈ ts tʃ k pʰ t̪ʰ ʈʰ tsʰ tʃʰ kʰ b d̪ ɖ dz dʒ g s ʃ h m n̪ ŋ l l̥ ɾ w j i u ɛ ʌ ɔ ĩ ũ ɛ̃ ɔ̃ ɛː ʌː ɔː i̤ ṳ ɛ̤ ʌ̤ ɔ̤ ɛ̤ː ʌ̤ː ɔ̤ː
thakali	Thakali	thak1245	Sino-Tibetan [sino1245]	Eurasia	28.7014	83.6466	29	19	6	0	4	19	10	3.1666666666666665	p pʰ m t tʰ ts tsʰ n s ʈ r r̥ k kʰ ŋ tɕ j l ɬ i e a ɒ o u ai̯ ei̯ oi̯ ui̯
ersu	Ersu	ersu1241	Sino-Tibetan [sino1245]	Eurasia	29.2867	102.213	59	51	8	0	0	51	8	6.375	p pʰ b t tʰ d k kʰ g ts̪ ts̪ʰ dz̪ tθ̠ tθ̠ʰ dð̠ tɕ tɕʰ dʑ ʈʳ ʈʳʰ ɖʳ m n ŋ ɽ f v s̪ z̪ θ̠ ð̠ ɕ ʑ x w j l ɬ ⁿpʰ ⁿb ⁿtʰ ⁿd ⁿkʰ ⁿg ⁿts̪ʰ ⁿdz̪ ⁿdð̠ ⁿtɕʰ ⁿdʑ ⁿʈʳ ⁿɖʳ i ɛ a o ə˞ a˞ ɿ ɿ̹
lizu	Lizu	lizu1234	Sino-Tibetan [sino1245]	Eurasia	28.333425	101.350309	58	50	8	0	0	50	8	6.25	p pʰ b t tʰ d k kʰ g q qʰ ʔ ts tsʰ dz tʃ tʃʰ dʒ tɕ tɕʰ dʑ m n ɲ ŋ s z ʃ ʒ ɕ ʑ x ɣ h w ɹ j l ɬ ⁿpʰ ⁿb ⁿtʰ ⁿd ⁿtsʰ ⁿdz ⁿtʃʰ ⁿdʒ ⁿtɕʰ ⁿdʑ ŋ̍ i e æ ɐ o u y ə
dhimal	Dhimal	dhim1246	Sino-Tibetan [sino1245]	Eurasia	26.6283	88.3798	53	31	16	0	6	31	22	1.9375	b bʰ p pʰ d dʰ t tʰ g gʰ k kʰ ʔ dʑ dʑʰ tɕ s ɦ m m̥ n n̥ ŋ l l̥ ɾ ɾ̥ w ʍ j j̊ i iː ĩ u uː ũ e eː ẽ ə o oː õ a aː ã iu ui eu oi au ai
darma	Darma	darm1243	Sino-Tibetan [sino1245]	Eurasia	29.8629	80.5439	34	26	8	0	0	26	8	3.25	p b pʰ t̪ d̪ t̪ʰ t tʰ ʈ ɖ ʈʰ c ɟ k g kʰ m n̪ ŋ ɾ s χ h l w j i u e ɛ o a ã õ
russianstandard	Russian (Standard)	russ1263	Indo-European [indo1319]	Eurasia	59.0	50.0	42	36	6	0	0	36	6	6.0	p b t̪ d̪ k g pʲ bʲ t̪ˢʲ dz̪ʲ kʲ gʲ ts̪ tɕ m n̪ mʲ n̪ʲ r ɾʲ f v s z ʂ ʐ fʲ vʲ sʲ zʲ ɕː x xʲ j l lʲ i ɨ u e o a
dari	Dari	dari1249	Indo-European [indo1319]	Eurasia	31.0405	67.3593	35	23	8	0	4	23	12	2.875	p b t d k g q m n f s z ʃ ʒ x ɣ h tʃ dʒ ɾ w j l i e ɛ u o ʊ ʌ ɐ ui ʌi ɐi ɐu
khaling	Khaling	khal1275	Sino-Tibetan [sino1245]	Eurasia	27.3912	87.5053	45	27	17	0	1	27	18	1.588235294117647	p t ts k ʔ pʰ tʰ tsʰ kʰ b d dz g bʰ dʰ dzʰ gʰ m n ŋ s ç ɦ w l r j i iː ʉ ʉː u uː e eː ɵ ɵː o oː ɛ ɛː ʌ a aː oɔ
hinuq	Hinuq	hinu1240	Nakh-Daghestanian [nakh1245]	Eurasia	42.4502	45.8064	62	42	14	0	6	42	20	3.0	p pʼ b t̪ t̪ʼ d̪ k kʼ g q qʼ ʡ ʔ kʷ kʼʷ gʷ qʷ qʼʷ f s z ɬ ʃ ʒ χ ʁ ħ h χʷ ʁʷ ts tsʼ tɬ tɬʼ tʃ tʃʼ m n̪ r̪ l v j ɪ ʏ ʊ ɛ ɔ a ɪː ʏː ʊː ɛː ɔː aː ʊɪ aɪ ɔɪ ɛɪ aʊ ɔʊ aˤ ɛˤ
bengalibangladeshistandard	Bengali (Bangladeshi Standard)	beng1280	Indo-European [indo1319]	Eurasia	24.0	90.0	51	28	8	0	15	28	23	3.5	p b bʰ t̪ d̪ t̪ʰ d̪ʰ t̠ d̠ t̠ʰ d̠ʰ k g kʰ gʰ tɕ tɕʰ dʑ dʑʰ m n ŋ f s ʃ h ɹ l i e ɛ a ɔ o u iu ei eu ɛe ɛo ai ae au ao ɔe ɔo oi oe ou o̯ː ui
daaichin	Daai Chin	daai1236	Sino-Tibetan [sino1245]	Eurasia	20.7347	93.7853	54	24	14	0	16	24	30	1.7142857142857142	p t k ʔ pʰ tʰ kʰ ɓ ɗ m̥ n̥ ŋ̊ m n ŋ s x h sʰ ɣ ɬ w l j i ɯ u ɛ ə ɔ a iː ɯː uː ɛː əː ɔː aː ɯi ui ei əi ɔi ai ɯːi uːi eːi əːi ɔːi aːi əɯ aɯ aːɯ ɔu
easternarmenianstandard	Eastern Armenian (Standard)	nucl1235	Indo-European [indo1319]	Eurasia	40.0	45.0	37	31	6	0	0	31	6	5.166666666666667	b d g p t k pʰ tʰ kʰ v f z s ʒ ʃ ʁ χ h dz ts tsʰ dʒ tʃ tʃʰ m n r ɾ ʋ j l i u ə ɛ ɔ ɑ
bakhtiari	Bakhtiari	bakh1245	Indo-European [indo1319]	Eurasia	32.0163	49.7713	40	23	9	0	8	23	17	2.5555555555555554	pʰ b tʰ d tʃʰ dʒ kʰ g qʰ ɢ f s z ʃ ʒ χ m n ɾ l v j h õːu æ̃i oːu æi eːi au ɑːi ɔi iː ɛ ɛː a aː ɑː ɔ ɔː uː
southernluri	Southern Luri	sout2647	Indo-European [indo1319]	Eurasia	30.4669	50.8382	32	21	9	0	2	21	11	2.3333333333333335	p t̪ tʃ k b d̪ dʒ g f s ʃ χ z ʁ m n̪ l̪ r ʋ j h iː uː ɛ̝ː ɛ̝ ɔ̝ ɔ̝ː ɛi̯ əu̯ aː a ɑː
kumzari	Kumzari	kumz1235	Indo-European [indo1319]	Eurasia	26.1602	56.4202	35	27	8	0	0	27	8	3.375	p b t d tˤ dˤ k g q ʔ tʃ dʒ m n f s sˤ zˤ ʃ χ ʁ ħ ɦ ɻ j w l iː uː i̽ ʊ̽ eː oː ɐ̟ aː
koroshi	Koroshi	koro1296	Indo-European [indo1319]	Eurasia	29.441	53.008	34	24	8	0	2	24	10	3.0	p t tʃ k b d dʒ g f s ʃ χ h z ʒ ʁ m n ŋ l r ʋ j ɽ iː uː eː e oː o a ɑː ɛi̯ əu̯
gilaki	Gilaki	gila1241	Indo-European [indo1319]	Eurasia	37.1344	49.8359	31	22	9	0	0	22	9	2.4444444444444446	pʰ b m f v tʰ d tʃ dʒ n s z ʃ ʒ l r j kʰ g χ ʁ h i iː u uː e o ə a ɒ
kalkoti	Kalkoti	kalk1245	Indo-European [indo1319]	Eurasia	35.3651	72.0533	39	29	10	0	0	29	10	2.9	p t ʈ k q pʰ tʰ kʰ b d ɖ g m n ts ʈʂ tɕ tɕʰ dʑ s ʂ ɕ x z ɣ r ʋ j l iː ɪ eː ɛ æː ɔ ɑː oː uː ʊ
shumashti	Shumashti	shum1235	Indo-European [indo1319]	Eurasia	34.4756	70.5696	39	31	8	0	0	31	8	3.875	p t ʈ k pʰ tʰ ʈʰ b d ɖ g ts ʈʂ tʃ ʈʂʰ s ʃ ʂ x z ʒ m n ɳ ŋ r ɽ ɬ l w j i e a o u aː uː iː
dameli	Dameli	dame1241	Indo-European [indo1319]	Eurasia	35.299	71.6806	38	32	6	0	0	32	6	5.333333333333333	p t ʈ k pʰ tʰ ʈʰ kʰ b d ɖ g ts tʃ ʈʂ tsʰ tʃʰ ʈʂʰ s ʃ ʂ h z ʒ m n ɳ r ç l w j ɪ u ɛ ɔ æ a
salar	Salar	sala1264	Turkic [turk1311]	Eurasia	35.5457	102.819	43	31	12	0	0	31	12	2.5833333333333335	b̥ pʰ d̥ tʰ g̊ kʰ ɢ̥ qʰ v f ʂ z̥ sʰ ɕ x χ h ɖʐ̥ ʈʂʰ dʒ̥ tʃʰ dz̥ tsʰ dʑ̥ tɕʰ m n ŋ l lˠ r i y æ ø̞ ɑ o̞ u ɯ ɑː o̞ː iː e̞ː
bulgarianstandard	Bulgarian (Standard)	bulg1262	Indo-European [indo1319]	Eurasia	43.3646	25.047	43	37	6	0	0	37	6	6.166666666666667	p b m f v t̪ d̪ s̪ z̪ ts̪ dz̪ l̪ˠ n r ʃ tʃ ʒ dʒ j k x g pʲ bʲ tʲ dʲ c ɟ tsʲ mʲ ɲ rʲ fʲ vʲ sʲ zʲ ʎ a ɛ i ɤ̟ ɔ u
hindi	Hindi	hind1269	Indo-European [indo1319]	Eurasia	25.0	77.0	55	34	21	0	0	34	21	1.619047619047619	p b t̪ d̪ ʈ ɖ k g pʰ bʱ t̪ʰ d̪ʱ ʈʰ ɖʱ kʰ gʱ tʃ dʒ tʃʰ dʒʱ m n ŋ ɾ ɽ ɽʱ f s z ʃ h ʋ j l æ i ɪ u ʊ e ɐ o ɛ ɔ ɑ ĩ ɪ̃ ũ ʊ̃ ẽ ɐ̃ õ ɛ̃ ɔ̃ ɑ̃
georgian	Georgian	nucl1302	Kartvelian [kart1248]	Eurasia	41.850397	43.78613	33	28	5	0	0	28	5	5.6	pʰ pʼ b tʰ tʼ d kʰ kʼ g qʼ ts tsʼ dz tʃ tʃʼ dʒ m n ɾ v s z ʃ ʒ x ɣ h l i ɛ ɑ ɔ u
estonian	Estonian	esto1258	Uralic [ural1272]	Eurasia	58.55	25.82	94	33	25	0	36	33	61	1.32	p t tʲ k m n nʲ r f v s ʃ sʲ l lʲ h j pː tː tʲː kː mː nː nʲː rː fː sː ʃː sʲː lː lʲː hː jː i y u e ø ɤ o æ ɑ iː yː uː eː øː ɤː oː æː ɑː iːː yːː uːː eːː øːː oːː æːː ɑe ɑi ɑo ɑu eɑ ei eo eu iɑ ie io iu oɑ oe oi ou uɑ ue ui uo ɤɑ ɤe ɤi ɤo ɤu æe æi æo æu øɑ øe øi yɑ ye yi yo
ironossetic	Iron Ossetic	iron1242	Indo-European [indo1319]	Eurasia	42.98	44.61	45	38	7	0	0	38	7	5.428571428571429	b pʰ pʼ d̪ t̪ʰ t̪ʼ g gʷ kʰ kʷ kʼ kʼʷ q qʷ ʔ f v s z ʒ ʃ ʁ ʁʷ χ χʷ h dz ts tsʼ dʒ tʃ tʃʼ m n l r w j i u ə e o ɐ a
hungarianstandard	Hungarian (Standard)	hung1274	Uralic [ural1272]	Eurasia	46.9068585714	19.6555271429	39	25	14	0	0	25	14	1.7857142857142858	b ts tʃ d̪ dz dʒ f g h j k ʃ ʒ s z t̪ v cç ɟʝ l m n̪ ɲ p r i iː y yː u uː ø øː o oː eː ɛ ɑ aː
koreanseoul	Korean (Seoul)	seou1239	Koreanic [kore1284]	Eurasia	37.54	126.98	38	21	16	0	1	21	17	1.3125	pʰ tʰ tɕʰ kʰ b̥ d̥ dʑ̥ g̊ p t tɕ k sʰ s h m n ŋ ɾ w j iː ɪ e̞ eː ɛ̝ ɛː ɐ ɑ̟ː o̞̜ oː uː ʊ̜ ɘː ʌ ɯː ɯ̽ ɨi
slovenestandard	Slovene (Standard)	slov1268	Indo-European [indo1319]	Eurasia	46.2543	14.7766	29	21	8	0	0	21	8	2.625	p b m f ʋ t̪ d̪ n̪ ts s z ɾ l tʃ dʒ ʃ ʒ k g x j i e ɛ ə a o ɔ u
galician	Galician	gali1258	Indo-European [indo1319]	Eurasia	42.2446	-7.5343	28	21	7	0	0	21	7	3.0	p b t̪ d̪ ɟ k g tʃ m n ɲ ŋ r ɾ f θ s̺ ʃ j w l i u e o ɛ ɔ a
japanese	Japanese	nucl1643	Japonic [japo1237]	Eurasia	35.0	135.0	28	18	10	0	0	18	10	1.8	p b ɸ β m t d s z ts n r j k g w h ɴ i iː e eː ɯ ɯː o oː a aː
munji	Munji	munj1244	Indo-European [indo1319]	Eurasia	35.9321	70.9404	40	32	8	0	0	32	8	4.0	pʰ b m w f v t̪ʰ d̪ ts dz n ɾ s z l tʃ dʒ ʃ ʒ ʈʂ ɖʐ ʂ ʐ c ɟ ç j kʰ g x ɣ h iː uː ɛː ɔː aː ɪ ʊ ə
sakhastandard	Sakha (Standard)	yaku1245	Turkic [turk1311]	Eurasia	61.6974	133.98	40	20	16	0	4	20	20	1.25	p b m t̺ s̻ d̺ n̺ r l̺ˠ ɲ cç ɟʝ j j̃ k g ŋ q ʁ ħ iː yː ɨː uː ɪ ʏ ɪ̈ ʊ ɛ ɛː œ œː ɔ ɔː a ɑː ie ɨɛ yø uɔ
dolgan	Dolgan	dolg1241	Turkic [turk1311]	Eurasia	71.1083	94.2936	42	22	16	0	4	22	20	1.375	m b p n d t s lˠ r ɲ ɟ c dʒ tʃ j ŋ g ɢ q h ɬ r̥ i y ɯ u œ ɛ ɔ ɑ iɛ ɯɑ yœ uɔ iː yː ɯː uː œː ɛː ɔː ɑː
khalaj	Khalaj	turk1303	Turkic [turk1311]	Eurasia	34.4224	50.3222	28	21	7	0	0	21	7	3.0	p b t̪ d̪ k g q ɢ x ɣ χ ʁ tʃ s ʃ z n j l r ħ a æ i o œ u y
chuvash	Chuvash	chuv1255	Turkic [turk1311]	Eurasia	55.487	47.163	22	14	8	0	0	14	8	1.75	p t̪ k v s ʃ tɕ ɕ x m n̪ l̪ r j i y e ɨ u œ ɞ a
bashkir	Bashkir	bash1264	Turkic [turk1311]	Eurasia	53.5967	56.5594	30	21	9	0	0	21	9	2.3333333333333335	pʰ b m w θ ð tʰ d s l n r ʃ j kʰ g x ŋ q ʁ h i ə æ ʉ ø̈ ɤ ɑ u ɵ
so	So	sooo1254	Austroasiatic [aust1305]	Eurasia	16.9081	105.001	72	22	44	0	6	22	50	0.5	p pʰ t tʰ c cʰ k kʰ ʔ b d f s h m n ɲ ŋ ɾ w l j i e ɛ iː eː ɛː ɯ ɤ ʌ a ɯː ɤː ʌː aː u o ɔ ɑ uː oː ɔː ɑː i̤ e̤ ɛ̤ i̤ː e̤ː ɛ̤ː ɯ̤ ɤ̤ ʌ̤ a̤ ɯ̤ː ɤ̤ː ʌ̤ː a̤ː ṳ o̤ ɔ̤ ɑ̤ ṳː o̤ː ɔ̤ː ɑ̤ː ia ɯa ua i̤a ɯ̤a ṳa
bruwestern	Bru (Western)	west2397	Austroasiatic [aust1305]	Eurasia	16.4906	104.754	68	23	36	0	9	23	45	0.6388888888888888	p pʰ b t tʰ d c cʰ k kʰ s h m n ɲ ŋ ɾ w wˀ l j jˀ j̊ i ɨ u e ʌ̟ o ɛ ɑ̟ ɔ iː ɨː uː eː ɤ̟ː oː ɛː ɑ̟ː ɔː i̤ ɨ̤ ṳ e̤ ʌ̤̟ o̤ ɛ̤ ɑ̤̟ ɔ̤ i̤ː ɨ̤ː ṳː e̤ː ɤ̤̟ː o̤ː ɛ̤ː ɑ̤̟ː ɔ̤ː iɐ i̤ɐ ea̤ ɨɐ ɨ̤ɐ uɐ ṳɐ ɤa ɤa̤
tatarstandard	Tatar (Standard)	tata1255	Turkic [turk1311]	Eurasia	55.0	50.0	42	29	11	0	2	29	13	2.6363636363636362	p b t̪ d̪ s̪ z̪ m n̪ β l r ɕ ʃ ʒ ʑ j k g ŋ q χ ʁ ʔ h v f ts tɕ ɕː iɪ̯ ʉ u ɯɪ̯ ɘ̆ ɵ̆ ɤ̞̆ ŏ ɒ a ɨ ɛ ɔ
kyrgyzstandard	Kyrgyz (Standard)	kirg1245	Turkic [turk1311]	Eurasia	42.0	74.0	37	21	16	0	0	21	16	1.3125	p b f v m t̪ d̪ ts̪ s̪ z̪ tʃ dʒ ʃ n lˠ r j q χ ɢ ɴ ɑ e̞ i ɯ o̞ ø̞ u y ɑː e̞ː iː ɯː o̞ː ø̞ː uː yː
gagauzstandard	Gagauz (Standard)	gaga1249	Turkic [turk1311]	Eurasia	44.5988	28.0277	46	28	15	0	3	28	18	1.8666666666666667	b v g d ʑ z dʑ k p s t f x h ts tʃ ɕ j l m n r bʲ sʲ lʲ dʲ nʲ gʲ a o̞ ʊ ɯ̽ æ e̞ i ɯ̯ɤ̞ ø̞ y aː o̞ː ɯi̯ uː e̞ː iː yː i̯e̞
tuvanstandard	Tuvan (Standard)	tuvi1240	Turkic [turk1311]	Eurasia	51.7	94.36667	52	28	24	0	0	28	24	1.1666666666666667	b̥ β g ɣ d̪̥ t̪ʰ ʒ ʃ s z q l m n̪ ŋ pʰ ɾ χ h tʃ j ts p b f v t̪ d̪ ɑ ɛ i ɯ̽ ɔ œ u y ɑː ɛː iː ɯ̽ː ɔː œː uː yː ɑ̰ː ɛ̰ː ḭː ɯ̰̽ː ɔ̰ː œ̰ː ṵː y̰ː
khakasstandard	Khakas (Standard)	khak1248	Turkic [turk1311]	Eurasia	50.7393	107.169	39	23	16	0	0	23	16	1.4375	χ ʁ k g ŋ j ʃ ʒ tʃ dʒ r t d s z ts l n f v p b m ɪ̞ iː ɛ ɛː y yː œ œː ɯ ɯː ɑ ɑː u uː ɔ ɔː
kumyk	Kumyk	kumy1244	Turkic [turk1311]	Eurasia	43.0	47.0	32	23	9	0	0	23	9	2.5555555555555554	b p v f m d̪ t̪ z s dʒ tʃ ʒ ʃ n l r k g q ʁ χ ɴ h i y e ø æ ɯ a u o
kazakh	Kazakh	kaza1248	Turkic [turk1311]	Eurasia	41.8729	65.7709	35	26	9	0	0	26	9	2.888888888888889	b p m w v f d t z s ts tʃ n l ʒ ʃ ɕ ɣ r k g q ʁ χ ɴ h i y e ø æ ɯ u a o
karakalpak	Karakalpak	kara1467	Turkic [turk1311]	Eurasia	39.98	63.3223	35	26	9	0	0	26	9	2.888888888888889	b p w m v f d t z s ts n l ʒ ʃ tʃ dʒ r ɣ k g q ʁ χ ɴ h i y e ø æ ɯ u a o
nogai	Nogai	noga1249	Turkic [turk1311]	Eurasia	43.5917	46.6618	30	21	9	0	0	21	9	2.3333333333333335	b p w v m d t ʒ ʃ z s n l r g k ɣ q ʁ χ ɴ i y e æ œ ɯ u a o
shor	Shor	shor1247	Turkic [turk1311]	Eurasia	52.3261	88.4344	36	20	16	0	0	20	16	1.25	b p m d̪ t̪ z s n l ʒ ʃ dʒ tʃ r ɣ k g c ɟ ɲ i iː e eː y yː ø øː ɯ ɯː a aː u uː o oː
chulym	Chulym	chul1246	Turkic [turk1311]	Eurasia	54.3209	89.5541	29	14	15	0	0	14	15	0.9333333333333333	p t k v s ʃ j ɣ m ts n l r ŋ i iː y yː e ø ɛː øː ɨ ɨː u o oː a aː
easternyiddishcentral	Eastern Yiddish (Central)	east2295	Indo-European [indo1319]	Eurasia	51.75	19.42	37	24	9	0	4	24	13	2.6666666666666665	p b m f v t d s̺ z̺ ts dz n l ʃ ʒ tʃ dʒ k g x ʀ h nʲ lʲ iː aː uː i e a o u ei ai oi ou ə
bettakurumba	Betta Kurumba	bett1235	Dravidian [drav1251]	Eurasia	11.6385	76.6064	37	22	12	0	3	22	15	1.8333333333333333	p b m ʋ f t̪ d̪ t d ɾ n l ʈ ɖ ɳ ɭ s̠̻ dʒ j k g ŋ ɑ ɑː ɛ ɛː ɪ iː ə əː ɔ ɔː ʊ̞ ʊː ʊ̈i əi ɐi
kuvi	Kuvi	kuvi1243	Dravidian [drav1251]	Eurasia	18.8832	83.7552	37	22	15	0	0	22	15	1.4666666666666666	p b m β̞ t̪̺ d̪̺ n̪ s l r ʈ ɖ ɳ ɽ cç ɟʝ j k g ŋ ʔ h a e̞ i o̞ u aː e̞ː iː o̞ː uː ã ẽ̞ ĩ õ̞ ũ
slavomolisanoacquavivacollecroce	Slavomolisano (Acquaviva Collecroce)	slav1254	Indo-European [indo1319]	Eurasia	41.89	14.7	44	30	14	0	0	30	14	2.142857142857143	b d ɟ g p t c k dz dʒ ts tʃ v z ʒ j f s ʃ ç x m n ɲ l ʎ r w a ɛ e i ɔ o u r̩ aː ɛː eː iː ɔː oː uː r̩ː
skoltsaamisuonnjel	Skolt Saami (Suõʹnnʼjel)	skol1241	Uralic [ural1272]	Eurasia	68.8326	29.7204	75	51	13	0	11	51	24	3.923076923076923	p b m f v ð t d n r s z ts dz l ʃ ʒ tʃ dʒ c ɟ ɲ ʝ j ʎ k g ŋ x ɣ w pʲ bʲ mʲ fʲ vʲ ðʲ tʲ dʲ nʲ rʲ sʲ zʲ tsʲ dzʲ lʲ ʃʲ ʒʲ tʃʲ dʒʲ ç i ɛ e a̟ ɐ ə ɑ ɔ o u ɑ̆ ĕ ɛa̟ ɛɐ iɐ iə uə uɐ ua̟ uɔ ue ie iː ui
alutor	Alutor	alut1245	Chukotko-Kamchatkan [chuk1271]	Eurasia	60.3844	165.653	27	18	9	0	0	18	9	2.0	ʡˤ ʔ qˤ k ɣ ŋ j w m v p r t̪ n̪ l̪ ɕ n̪ʲ l̪ʲ ə̞̆ a aː o̞̜ː e̞ː i iː u uː
atayal	Atayal	atay1247	Austronesian [aust1307]	Papunesia	24.5209	121.388	24	18	6	0	0	18	6	3.0	p t k q ʔ β ʒ ɣ s x ħ ts r l m n j w i y u ɛ ɔ a
chukchi	Chukchi	chuk1273	Chukotko-Kamchatkan [chuk1271]	Eurasia	68.6436	170.045	20	14	6	0	0	14	6	2.3333333333333335	p t̺ kx qχ tɕ ʔ ɬ̪̺ ɣ m n̪̺ ŋ r̺ w j i e̞ o̞ a u ə̆
darkhat	Darkhat	dark1243	Mongolic-Khitan [mong1349]	Eurasia	50.623	99.4449	39	20	15	0	4	20	19	1.3333333333333333	b w g d t dʑ dz ʝ l r m n ŋ s ɕ tɕ x ts p v ɑ e ɔ̜ œ̜ u y i aː æː eː ɔ̜ː œ̜ː uː yː iː ae̯ ɞe̯ ʉi̯ yi̯
daur	Daur	daur1238	Mongolic-Khitan [mong1349]	Eurasia	48.0	124.0	57	45	12	0	0	45	12	3.75	pʰ p m w tʰ t s n l r tʃʰ tʃ ʃ k kʰ j x ŋ f ʈʂʰ ʈʂ ʐ tsʰ ts pʲʰ pʲ tʲʰ tʲ kʲʰ kʲ xʲ mʲ nʲ lʲ rʲ mʷ tʷʰ tʷ sʷ kʷʰ kʷ xʷ tʃʷʰ tʃʷ ʃʷ ɑ ɔ u ə i ɑː ɔː uː əː iː i̯ u̯
urdu	Urdu	urdu1245	Indo-European [indo1319]	Eurasia	25.0	67.0	58	37	21	0	0	37	21	1.7619047619047619	p pʰ b bʱ t̻ t̻ʰ d̻ d̻ʱ ʈ ʈʰ ɖ ɖʱ k kʰ g gʱ tʃ tʃʰ dʒ dʒʱ f s z ʂ ʃ ɦ m n̻ l̻ r ɽ ɽʱ ʋ j ɣ x q iː ɪ eː ɛː æ ə aː uː ʊ oː ɔː ĩː ɪ̃ ẽː ɛ̃ː ə̃ ãː ũː ʊ̃ õː ɔ̃ː
waneci	Waneci	wane1241	Indo-European [indo1319]	Eurasia	30.0501	67.8327	30	23	7	0	0	23	7	3.2857142857142856	pʰ b t̪ʰ d̪ ʈʰ ɖ kʰ g tʃʰ x ɣ s z ʃ ʒ m n ɽ ɽ̃ w j tsʰ dz ə a ɑː iː uː e o
southernbalochi	Southern Balochi	sout2642	Indo-European [indo1319]	Eurasia	26.0	64.0	32	24	8	0	0	24	8	3.0	p b m ʋ t d s z n l ɾ j tʃ dʒ ʃ ʒ ʈ ɖ ɽ k g x ɣ h iː uː aː ɪ ʊ eː oː a
easternhillbalochi	Eastern Hill Balochi	east2304	Indo-European [indo1319]	Eurasia	28.0	62.0	54	35	15	0	4	35	19	2.3333333333333335	pʰ b f m ʋ tʰ d s z n l ɾ j tʃʰ dʒ ʃ ʒ ʈʰ ɖ ɽ kʰ g x ɣ h ɳ θ ð bʰ gʰ dʰ dʒʰ ɖʰ β wʰ iː uː aː ɪ ʊ eː oː æɪ̯ ɔʊ̯ ĩː ũː ãː ɪ̃ ʊ̃ ẽː õː æ̃ɪ̯̃ ɔ̃ʊ̯̃ a
udmurtstandard	Udmurt (Standard)	udmu1245	Uralic [ural1272]	Eurasia	56.12921	52.63548	36	29	7	0	0	29	7	4.142857142857143	t̻ d̻ s̻ z̪̻ ts̻ p b v f ʂ ʐ ʈʂ ɖʐ ɕ ʑ c ɟ tɕ dʑ k g x n̻ lˠ r m ɲ̟ ȴ j ɑ ɛ̠ o̞ ɯ̟ u i ɤ̹̟
komipermyak	Komi-Permyak	komi1269	Uralic [ural1272]	Eurasia	59.6602	54.7959	37	30	7	0	0	30	7	4.285714285714286	p t̻ k c b d̻ g ɟ s̻ ʂ ɕ ʋ z̪̻ ʐ ʑ tɕ dʑ ʈʂ ɖʐ ts̪̻ f x m n̻ ɲ l̻ r ʎ j rʲ a̠ o u ɘ̠ ɨ̠ e i
komizyriansyktyvkar	Komi-Zyrian (Syktyvkar)	komi1268	Uralic [ural1272]	Eurasia	64.0527	54.946	37	30	7	0	0	30	7	4.285714285714286	p t̻ k c b d̻ g ɟ s̻ ʂ ɕ ʋ z̪̻ ʐ ʑ tɕ dʑ ʈʂ ɖʐ ts̪̻ f x m n̻ ɲ l̻ r ʎ j rʲ a̠ o u ɘ̠ ɨ̠ e i
forestnenets	Forest Nenets	fore1274	Uralic [ural1272]	Eurasia	63.72	71.97	38	25	13	0	0	25	13	1.9230769230769231	p t s ɬ k x ʔ pʲ tɕ ɕ ɬʲ kʲ xʲ m n ŋ l w j mʲ nʲ ŋʲ lʲ wʲ r ɑ o̞ u æ e̞ i ɑː o̞ː uː æː e̞ː iː ə̆
kolymayukaghir	Kolyma Yukaghir	sout2750	Yukaghir [yuka1259]	Eurasia	64.218	154.375	36	20	13	0	3	20	16	1.5384615384615385	p t d k g q tɕ dʑ ʃ ʒ ʁ m n ɲ ŋ l ʎ r w j i u ɛ ə œ ɔ a iɛ uɔ uœ iː uː ɛː œː ɔː aː
tundrayukaghir	Tundra Yukaghir	nort2745	Yukaghir [yuka1259]	Eurasia	70.498	157.853	39	20	15	0	4	20	19	1.3333333333333333	p b t d tʃ dʒ k g q ʁ s m n ɲ ŋ r l j w ʎ ɛ̠ u ʉ ə œ̠ ɞ̠ a̠ i iɛ̠ ʉɞ̠ ʉœ̠ ɨa̠ ɛ̠ː ʉː əː œ̠ː ɞ̠ː a̠ː iː
tundranenetscentraleastern	Tundra Nenets (Central-Eastern)	nene1249	Uralic [ural1272]	Eurasia	66.1775	71.0234	35	26	9	0	0	26	9	2.888888888888889	p b t ð k pʲ bʲ tʲ dʲ ts tsʲ s sʲ ʔ x r rʲ l ʎ j w m mʲ n ɲ ŋ ɑː oː u uː ɤː ɨ ɨː ə æː
ligurianmiogliola	Ligurian (Miogliola)	ligu1248	Indo-European [indo1319]	Eurasia	44.0816	7.90522	45	24	20	0	1	24	21	1.2	p t̪ k b d̪ g ts̪ tɕ dz̪ dʑ f s ɕ v z ʑ m n ɲ ŋ l ʎ r ɾ i y e ø æ ɑː o u iː yː eː øː æi̯ ɔː oː uː ɛː œː aː u̯ i̯
ingush	Ingush	ingu1240	Nakh-Daghestanian [nakh1245]	Eurasia	43.11	45.03	69	52	13	0	4	52	17	4.0	pʰ pʼ b f v m t̪ʰ t̪ː t̪ʼ d̪ l̪ tsʰ tsʼ s sː z n ɾ̺ r̺̥ tʃʰ tʃʼ ʃ ʒ j kʲʰ kʼʲ gʲ kʰ kʼ g x̠ ʁ qʰ qː qʼ ʡ ʔ h ʜ t̪ʼˤ tʃʼˤ t̪ˤʰ tʃˤʰ pˤʰ tsˤʰ bˤ d̪ˤ mˤ nˤ vˤ zˤ ʒˤ ɪ ʊ ɨ i u iː uː iːɛ uːʌ ɛ ʌ o ɛ̯æː æ aː a ɔaː
greekstandard	Greek (Standard)	mode1248	Indo-European [indo1319]	Eurasia	38.36	23.13	29	24	5	0	0	24	5	4.8	p b m f v t̪ d̪ θ ð n s̠ z̠ ɾ̠ l k g x ɣ ʎ ɲ̟ c ç ʝ ɟ ɐ e̞ o̞ i u
polishstandard	Polish (Standard)	poli1260	Indo-European [indo1319]	Eurasia	51.8439	18.6255	35	27	8	0	0	27	8	3.375	p b f v t̪ d̪ s̪ z̪ tɕ dʑ ɕ ʑ ts̪ dz̪ ʈʂ̻ ɖʐ̻ ʂ̻ ʐ̻ k g x c ɟ m n̪ j w ä ɛ ɔ i u ɘ̟ ũ̯ ĩ̯
slovakstandard	Slovak (Standard)	slov1269	Indo-European [indo1319]	Eurasia	48.545705	18.78479	45	30	11	0	4	30	15	2.727272727272727	p b m f ʋ d t ts dz n s z r rː lˠː lʲ lˠ tʃ̺ dʒ̺ ʃ̺ ʒ̺ c ɟ ɲ j ʎ k g x ɦ i̞ ɛ a ɔ u̞ i̞ː ɛː aː ɔː u̞ː æ ɪ̯a ɪ̯ɔ ɪ̯u̞ ʊ̯ɔ
serbianstandardekavian	Serbian (Standard Ekavian)	serb1264	Indo-European [indo1319]	Eurasia	44.3238	21.9192	34	24	10	0	0	24	10	2.4	p b f m ʋ t̪̻ d̪̻ s̪̻ z̪̻ ts̪̻ n l r tʃ̻ dʒ̻ ɲ ʎ tʃ̺ʷ dʒ̺ʷ ʃ̺ ʒ̺ k x g i e̞ a o̞ u iː e̞ː aː o̞ː uː
macedonianstandard	Macedonian (Standard)	mace1250	Indo-European [indo1319]	Eurasia	41.5957	21.7932	32	26	6	0	0	26	6	4.333333333333333	p b m f v t̪ d̪ s̪ z̪ n̪ l̪ˠ ts̪ dz̪ l r ʃ ʒ tʃ dʒ c j ɟ ɲ k g x i e a o u ə
forestenets	Forest Enets	fore1265	Uralic [ural1272]	Eurasia	69.9829	88.2121	33	25	8	0	0	25	8	3.125	p m b w t d tʃ s ʃ ð n l r tʲ dʲ tɕ sʲ ɕ nʲ j k g x ŋ ʔ i e ɨ ɤ u o ɔ ɑ
erzyastandard	Erzya (Standard)	erzy1239	Uralic [ural1272]	Eurasia	52.8548	45.3901	35	29	6	0	0	29	6	4.833333333333333	b p v f m t̪ tʲ d̪ dʲ s̪ sʲ z̪ zʲ ʂ ʐ lˠ lʲ ɾ ɾʲ j k g x n̪ nʲ ʈʂ ts̪ tsʲ ŋ i e̞ a u o̞ ɨ
mokshastandard	Moksha (Standard)	moks1248	Uralic [ural1272]	Eurasia	54.1855	42.6728	40	33	7	0	0	33	7	4.714285714285714	b p v f m t̪ tʲ d̪ dʲ s̪ sʲ z̪ zʲ ʂ ʐ lˠ lʲ ɾ ɾʲ j k g x n̪ nʲ tɕ ɬˠ ɬʲ ɾ̥ ɾ̥ʲ ɕ ts̪ tsʲ i e̞ æ ə̆ a u o̞
naukanyupik	Naukan Yupik	nauk1242	Eskimo-Aleut [eski1264]	Eurasia	65.5184	-171.755	22	18	4	0	0	18	4	4.5	p m w v t s l̥ l n r j k x ɣ ŋ q χ ʁ ɨ a i u
dhivehimale	Dhivehi (Malé)	dhiv1236	Indo-European [indo1319]	Eurasia	1.928498	73.54433	39	27	11	0	1	27	12	2.4545454545454546	pʰ t̪ʰ ʈʰ cʰ kʰ b d̪ ɖ ɟ g ⁿb ⁿd̪ ⁿɖ ⁿg m n ɲ j l ɭ ɾ f s ʂ h v z̪ a e i o u aː eː iː oː uː au̯ æː
godoberi	Godoberi	ghod1238	Nakh-Daghestanian [nakh1245]	Eurasia	42.7428	46.2252	66	53	13	0	0	53	13	4.076923076923077	j p b m β d tʰ tʼ n z s sː tsʰ tsʰː tsʼ r ʒ ʃ ʃː dʒ tʃʰ tʃʰː tʃʼ g kʰ kʰː kʼ xː l ɬ ɬː tɬʰː tɬʼ qʼ χ χː ʁ ʁː qχʰ ʔˤ ħ ʔ h cʰ cʰː cʼ ɟ ç kʷʰ kʷʰː kʼʷ qʼʷ χʷ a e i o u aː eː iː oː uː ã ĩ ũ
itelmen	Itelmen	itel1242	Chukotko-Kamchatkan [chuk1271]	Eurasia	56.046173	156.30704	32	27	5	0	0	27	5	5.4	p pʼ t̺ t̺ʼ k kʼ q q̺ tɕ̺ tɕ̺ʼ ɸ β s̺ z̺ j x ɣ χ l lʲ l̥ʲ m n nʲ ŋ r ʔ i ɛ a o̞̜ u̜
karata	Karata	kara1474	Nakh-Daghestanian [nakh1245]	Eurasia	42.6501	46.3151	56	46	10	0	0	46	10	4.6	b d g pʰ tʰ kʰ tʼ kʼ tsʰ tʃʰ tʃʰː tsʰː tsʼ tʃʼ tʃʼː tsʼː w m z s sː n ʒ ʃ ʃː r tɬʰː tɬʼ tɬʼː ɬ ɬː l j çː ʔ kxʰː kxʼː qχʰː qχʼː ɣ ʢ x xː ʜ h dʒ a e̞ i o̞ u ã ẽ̞ ĩ̞ õ̞ ũ
buriatstandard	Buriat (Standard)	russ1264	Mongolic-Khitan [mong1349]	Eurasia	50.8533	105.564	45	27	15	0	3	27	18	1.8	pʰ pʲʰ b bʲ m mʲ t̺ʰ tʲʰ d̺ dʲ n nʲ s̺ z̺ ʃ ʒ l lʲ r̺ r̺ʲ j χ xʲ ɢ gʲ ɴ ħ i iː ɨ̟ː ɤ̟ ɤ̟ː ɛ̞ː œ̞ɛ̞ ɑ ɑː ɔ ɔː ɵ̟ː ʊi ʊ ʊː ui u uː
finnishstandard	Finnish (Standard)	finn1318	Uralic [ural1272]	Eurasia	64.7628	25.5577	23	15	8	0	0	15	8	1.875	p t̪ k s h m j ʋ ŋ d̺ n̺ r̺ l̺ f ʔː ɑ o̞ e̞ ø̞ æ u i y
latvianstandard	Latvian (Standard)	stan1325	Indo-European [indo1319]	Eurasia	57.0	24.0	42	26	14	0	2	26	16	1.8571428571428572	m n ɲ p b t d c ɟ k g ts dz tʃ dʒ ʃ ʒ f v s z x j l ʎ r ɔː uː ɛː iː aː æː æ a i ɛ ɔ ʊ iə uʌ i̯ ʊ̯
lithuanianwestaukstaitian	Lithuanian (West Aukštaitian)	lith1251	Indo-European [indo1319]	Eurasia	55.1429	23.9601	60	45	13	0	2	45	15	3.4615384615384617	m mʲ n̪ nʲ p pʲ b bʲ t̪ tʲ d̪ dʲ kʲ gʲ k g ts̪ tsʲ dz̪ dzʲ tʃ tʃʲ dʒ dʒʲ f fʲ s̪ sʲ z̪ zʲ ʃ ʃʲ ʒ ʒʲ xʲ ɣʲ x ɣ v vʲ lˠ r rʲ lʲ j ɪ iː eː æː ɐ ɔ ʊ ɛ uː oː äː iə uə ɪ̯ ʊ̯
estonianstandard	Estonian (Standard)	esto1258	Uralic [ural1272]	Eurasia	58.55	25.82	26	17	9	0	0	17	9	1.8888888888888888	p m ʋ f t̪ n s̪ l r tʲ nʲ sʲ lʲ ʃ j k h æ e i ø y o u ɑ ɤ
romanianstandard	Romanian (Standard)	roma1327	Indo-European [indo1319]	Eurasia	46.3913	24.2256	51	40	9	0	2	40	11	4.444444444444445	m n̪ p b k g t̪ d̪ ts̪ s̪ z̪ ɾ̪ l f v tʃ dʒ ʃ ʒ h mʲ nʲ pʲ bʲ kʲ gʲ tʲ dʲ tsʲ sʲ zʲ ɾʲ lʲ fʲ vʲ tʃʲ dʒʲ ʃʲ ʒʲ ç ä e̞ o̞ ə i ɨ u e̯ä o̯ä i̯ u̯
arbereshalbanianhoraearbereshevet	Arbëresh Albanian (Hora e Arbëreshëvet)	arbe1236	Indo-European [indo1319]	Eurasia	38.911	16.7164	37	30	7	0	0	30	7	4.285714285714286	p b t d c ɟ k g ts dz tʃ dʒ f v θ ð s z ʃ ʒ ç ɣ m n ɲ ʎ l ɾ r x a ɛ i ɔ u œ ə
pitesaami	Pite Saami	pite1240	Uralic [ural1272]	Eurasia	66.4011	17.4261	54	45	7	0	2	45	9	6.428571428571429	p ʰp pː ʰpː m mː f fː v vː t ʰt tː ʰtː ts ʰts tsː ʰtsː s sː n nː r rː l lː tʃ ʰtʃ tʃː ʰtʃː ʃː ʃ ɲː ɲ j jː k ʰk kː ʰkː ŋ ŋː h ð ðː ɪ ie ɛ a aː ɔ o ʊ ʊa
kildinsaami	Kildin Saami	kild1236	Uralic [ural1272]	Eurasia	68.2158	35.8348	128	113	12	0	3	113	15	9.416666666666666	β f b p m m̥ z s d t n l n̥ l̥ dz ts ʐ ʂ dʑ tɕ r r̥ ʝ ç x g k ŋ ɟ c ɲ βʲ fʲ bʲ pʲ mʲ m̥ʲ zʲ sʲ dʲ tʲ nʲ lʲ n̥ʲ l̥ʲ dzʲ tsʲ ʑ ɕ rʲ r̥ʲ xʲ gʲ kʲ ŋʲ βː fː d̥ː b̥ː g̥ː pː mː m̥ː zː sː tː nː lː n̥ː l̥ː tsː ʂː tɕː rː r̥ː ʝː çː xː kː ŋː ɲː βʲː fʲː bʲː pʲː mʲː m̥ʲː zʲː sʲː nʲː lʲː n̥ʲː l̥ʲː tsʲː ɕː rʲː r̥ʲː xʲː gʲː kʲː ŋʲː dz̥ dʑ̥ dz̥ʲ ʰp ʰt ʰk ʰts ʰtɕ ʰpʲ ʰtʲ ʰkʲ ʰtsʲ i iː e̞ e̞ː o̞ o̞ː ɨ ɨː u uː ɐ aː o̞a ua ue̞
wymysorys	Wymysorys	wymy1235	Indo-European [indo1319]	Eurasia	49.91617	19.15195	35	20	9	0	6	20	15	2.2222222222222223	p b m f v t d s z n r l ʃ ʒ j k g w ŋ h i ɨ ʏ e ø a ɑ ɔ u ɪə yø eɪ øə aɪ ɔʏ
lowersorbian	Lower Sorbian	lowe1385	Indo-European [indo1319]	Eurasia	51.6621	13.9407	42	35	6	0	1	35	7	5.833333333333333	p b f m w pʲ bʲ fʲ vʲ mʲ t̪ d̪ n̪ ts s z l r rʲ tʃ dʒ ʃ ʒ tɕ dʑ ɕ ʑ ɲ̟ j k g x kʲ gʲ h i ɨ u ɛ ɔ a iɪ̯
miyakoogami	Miyako (Ogami)	ogam1239	Japonic [japo1237]	Eurasia	24.915887	125.307663	19	14	5	0	0	14	5	2.8	pʰ m f ʋ s ɾ n tʰ kʰ m̩ n̩ ʋ̩ s̩ f̩ i̞ ɯ̞ ʊ e̞ a
kunigaminakijin	Kunigami (Nakijin)	kuni1268	Japonic [japo1237]	Eurasia	26.5911	128.068	25	20	5	0	0	20	5	4.0	pʰ t̺ʰ cʰ kʰ pʼ t̺ʼ cʼ kʼ ʔ s h b d̺ g z m n̺ w r̺ j i e̞ a o̞ u
ishkashimi	Ishkashimi	ishk1246	Indo-European [indo1319]	Eurasia	36.67	71.55	39	32	7	0	0	32	7	4.571428571428571	p b t ʈ d ɖ k g q ts dz tʃ ʈʂ dʒ f v s z ʃ ʂ ʒ ʐ x ɣ w j m n l r h ɭ i e̞ u o ɔ a ə
uppersorbian	Upper Sorbian	uppe1395	Indo-European [indo1319]	Eurasia	51.2403	14.4098	42	33	7	0	2	33	9	4.714285714285714	b bʲ p pʲ m mʲ w wʲ v f t̪ d̪ ts̪ ts̪ʲ s̪ z̪ z̪ʲ n nʲ r rʲ l lʲ tʃ dʒ ʃ ʒ j x k g h kʰ a u i æ ɨ̞ ɔ uo i̯e i̯
wakhi	Wakhi	wakh1245	Indo-European [indo1319]	Eurasia	37.1768	73.9777	50	38	12	0	0	38	12	3.1666666666666665	p b w m f v t d ts dz tʃ dʒ ʃ ʒ l̥ r θ ð s z ʈ ɖ ʈʂ ɖʐ ʂ ʐ ɭ̊ n j k g x ɣ q χ ʁ ç ɽ̥ a aː o ɔː u̞ u̞ː ɨ̹ ɨ̹ː ɜ̹ ɜ̹ː ɪ iː
bats	Bats	bats1242	Nakh-Daghestanian [nakh1245]	Eurasia	42.1806	45.344	51	33	17	0	1	33	18	1.9411764705882353	m pʰ kʰ t̪ʰ pʼ kʼ t̪ʼ b g n d̪ qχʼ tsʰ dz tsʼ tʃʰ dʒ tʃʼ s z ʃ ʒ ɾ lˠ h χ ʁ qʰ f ɬ ħ ʜ ʡ ɑː ɑ u o̞ o̞ː e ɛː i iː i̯ u̯ ɑ̃ ẽ ĩ õ̞ ũ ĩ̯ ie
kurmanjikurdish	Kurmanji Kurdish	nort2641	Indo-European [indo1319]	Eurasia	37.0	43.0	38	30	8	0	0	30	8	3.75	b dʒ tʃʰ tʃˤ d f g h ħ ʒ kʰ kˤ l m n pʰ q ɾ r s ʃ tʰ tˤ v w χ ʁ j z ʢ i ɪ e æ u ʊ o ɑ
ksingmul	Ksingmul	puoc1238	Austroasiatic [aust1305]	Eurasia	20.8862	103.931	38	20	15	0	3	20	18	1.3333333333333333	p t c k ʔ b d g pʰ tʰ kʰ s zʲ w h m n ŋ ɲ l i iː iə ɛ ɛː ə əː ɨ ɨː ɨə u uː uə o oː a aː ɔː
paiwankulalao	Paiwan (Kulalao)	paiw1248	Austronesian [aust1307]	Papunesia	22.3271	120.806	25	21	4	0	0	21	4	5.25	p b t d c ɟ ts ɖ k g q ʔ v m w r n ɺ j ŋ ʎ i u ə a
rajbanshi	Rājbanshi	rajb1243	Indo-European [indo1319]	Eurasia	26.521945	88.038582	43	34	8	0	1	34	9	4.25	j p b t̺ d̺ t̪ d̪ ts dz k g pʰ bʱ t̺ʰ d̺ʱ t̪ʰ d̪ʱ tsʰ dzʱ kʰ gʱ s h m n̪ mʱ n̪ʱ ŋ ŋʱ r rʱ l lʱ w i e æ ʌ o u æ̃ ũĩ ẽ
ukrainian	Ukrainian	ukra1253	Indo-European [indo1319]	Eurasia	49.796	29.945	39	33	6	0	0	33	6	5.5	p b m f β βʲ t̪ t̪ʲ d̪ d̪ʲ s sʲ z zʲ ts tsʲ dz dzʲ n̪ n̪ʲ l̪ l̪ʲ r̪ r̪ʲ ʃ ʒ tʃ dʒ j k g x h i ɪ ɛ a ɔ u
yaghnobi	Yaghnobi	yagn1238	Indo-European [indo1319]	Eurasia	39.1486	69.2422	36	27	9	0	0	27	9	3.0	p b β̞ m f v t d tʃ dʒ s z ʃʲ ʒʲ n l r k g j q χ χʷ ʁ ħ ʕ h iː eː uː o̞ː yː a ɑː ɪ ʊ
mingrelianzugdidisamurzaqano	Mingrelian (Zugdidi-Samurzaqano)	ming1252	Kartvelian [kart1248]	Eurasia	42.5129	41.8719	37	31	6	0	0	31	6	5.166666666666667	pʼ pʰ b m v w t̪ʼ t̪ʰ tsʼ d̪ dz s ts z n̪ r tʃʼ dʒ ʒ ʃ tʃ lʲ j kʼ kʰ g χ ʁ h ʔ qχʼ ɑ ɔ u ɛ i ə
mirandese	Mirandese	mira1251	Indo-European [indo1319]	Eurasia	41.5375	-6.38371	49	22	11	0	16	22	27	2.0	b k s d f g ʑ l m n p ɾ r s̺ z̺ t ɕ j z tɕ ʎ ɲ a ɐ ɐ̃ e̞ i̯e i̯ẽ ẽ̞ i i̯a ĩ o̞ u̯o u õ u̯a u̯õ ũ ai̯ au̯ ei̯ e̞u̯ eu̯ ou̯ oi̯ o̞i̯ ui̯ iu̯
icelandic	Icelandic	icel1247	Indo-European [indo1319]	Eurasia	63.4837	-19.0212	37	24	8	0	5	24	13	3.0	p t pʰ tʰ v ð f θ m n l l̥ r r̥ c cʰ k kʰ j ɣ ç x ʔ h i y u ɪ ɛ œ ɔ a ai ɛi œy ou au
kabardian	Kabardian	kaba1278	Abkhaz-Adyge [abkh1242]	Eurasia	43.5082	43.3918	51	48	3	0	0	48	3	16.0	p b pʼ t d tʼ ts dz tsʼ kʷ gʷ kʼʷ q qʷ qʼ qʼʷ ʔ ʔʷ f v fʼ s z ɬ ɮ ɬʼ ɕ ʑ ɕʼ ʃ ʒ ç ʝ xʷ cʼ c ɟ χ ʁ χʷ ʁʷ ʕ h m n r j w ɨ ə ɐ
