ID	Name	Glottocode	Family	Macroarea	Latitude	Longitude	Sounds	Consonants	Vowels	Clusters	Diphthongs	Consonantal	Vocalic	Ratio	Phonemes
emmi_amii1238	Ami	amii1238	Western Daly	Australia	-13.5573	130.04	32	27	5	0	0	27	5	5.4	l ɖ i ʐ t̪ ʎ ɻ n̪ ʈ n p o ɛ t g d β k a j r b ɟ w m ŋ ɲ l̪ d̪ c ɳ ɵ
angas_ngas1240	Ngas	ngas1240	Afro-Asiatic	Africa	9.32042	9.46146	42	32	9	0	1	32	10	3.5555555555555554	mʲ m e ɓ ŋ d v pʲ ɜi h ɲ g u z aː n f b ɛ s a j tʃ dʒ c i l ɨː ɟ ʄ k o t ɗ w p ʃ ʒ r bʲ ɨ ɣ
igbo_nucl1417	Igbo	nucl1417	Atlantic-Congo	Africa	4.62705	7.23441	35	27	8	0	0	27	8	3.375	l t̪ ɲ a e z kp n s ʊ ɣ ɪ d̪ b gb o i m tʃ ŋʷ f g ɔ kʷ k gʷ j dʒ ʃ u w ɦ p ɾ ŋ
alabama_alab1237	Alabama	alab1237	Muskogean	North America	30.76738	-94.62848	20	14	6	0	0	14	6	2.3333333333333335	p m ɪ w n’ j ɸ ɪː s oː k b l’ ɬʼ aː h a t̪ o tʃ
siwi_siwi1239	Siwi	siwi1239	Afro-Asiatic	Africa	29.200415	25.519627	44	38	6	0	0	38	6	6.333333333333333	g qʷ j kʷ ʁʷ mˤ zˤ dʒ d b ʜ l o ɦ z χʷ ʃ f ɾ χ t ə a k bˤ w ɾˤ sˤ u tˤ s q n e i gʷ lˤ ʢ dˤ tʃ ʁ ʔ m fˤ
hungarian_hung1274	Hungarian	hung1274	Uralic	Eurasia	46.9068585714	19.6555271429	40	26	14	0	0	26	14	1.8571428571428572	o ʃ tʃ ts̪ r̪ ɒ g p f aː øː eː yː t̪ iː ʒ ø i d̪ y dʒ oː ɲ b m c z̪ n̪ u dz̪ h l̪ j s̪ ɟ ɛ k v uː w
capeverdecreolesantiagodialect_kabu1256	Kabuverdianu	kabu1256	Indo-European	Africa	15.0586	-23.6148	30	22	8	0	0	22	8	2.75	u n ŋ f m l s tʃ ɛ i b j p w e ɔ r ɲ ʒ d o t g ɐ a dʒ z v k ʃ
purepecha_pure1242	Purepecha	pure1242	Tarascan	North America	19.2467	-101.631	27	21	6	0	0	21	6	3.5	kʷ r tʰ x ɛ k kʷʰ n tʃʰ m ts kʰ i w t ɨ p ɽ pʰ a ɔ j u tʃ tsʰ s ʃ
sedang_seda1262	Sedang	seda1262	Austroasiatic	Eurasia	14.7793	108.027	88	41	24	0	23	41	47	1.7083333333333333	ⁿb k i iə ḛ̃ə̰̃ ũ ɔ̃ ĩə̃ ʂ ŋ ⁿd l̥ n̰ ḛə̰ kʰ ã̰ ṵ̃ə̰̃ t o ḭ oə ŋ̊ ĩ j ʍ m̰ o̰ r̰ eo ɛ̃ ⁿɟ w m̥ ie õə̃ ɲ̰ ɛ̰ ũə̃ n ã ṵ ṵo̰ ɲ w̰ ɛ h ḛ̃ ḭ̃ə̰̃ ɔ̰ ḭḛ a̰ o̰ḛ io n̥ ʔ s j̊ u oɛ eə r̥ tʰ l̰ j̰ pʰ uə ḛ ḭə̰ c ɛ̰̃ e ɓ ẽ r l ḭ̃ ẽə̃ ṵə̰ ɔ ɲ̊ ⁿg ŋ̰ ɗ ə̰̃õ̰ a uo p m
suena_suen1241	Suena	suen1241	Nuclear Trans New Guinea	Papunesia	-7.76339	147.534	18	13	5	0	0	13	5	2.6	s m d g i n k a t ɾ dz u w p o e j b
ndyuka_ndyu1242	Aukan	ndyu1242	Indo-European	South America	4.3126	-54.6419	20	15	5	0	0	15	5	3.0	p s d z j l u e b m k n w h i f t g a o
hanis_coos1249	Hanis	coos1249	Coosan	North America	43.4413	-124.16	48	39	9	0	0	39	9	4.333333333333333	s ʔ g kʼ d x j ə ɰ χ dʒ ts tʃʼ q h eː tʃ uː a t ɢ w b gʷ dɮ iː k pʼ kʷ kʼʷ ʃ e tsʼ qʼ p n hʷ tʼ xʷ l dz tɬ tɬʼ aː m u ɬ i
warayaustralia_wara1290	Warray	wara1290	Gunwinyguan	Australia	-13.0941	131.236	17	12	5	0	0	12	5	2.4	k p ɔ w t l a̟ i m ɛ ŋ c ɲ n r j u
totonacmisantladialect_yecu1235	Yecuatla Totonac	yecu1235	Totonacan	North America	20.1765	-96.8741	28	16	12	0	0	16	12	1.3333333333333333	ʔ j a̰ iː m h k n ʃ ṵ s uː ts ḭː a̰ː w ɬ tʃ a q p i t ḭ aː u l ṵː
mandarin_mand1415	Mandarin Chinese	mand1415	Sino-Tibetan	Eurasia	40.0209	116.228	35	25	6	0	4	25	10	4.166666666666667	p i x ʈʂ ei ɑu ou ʈʂʰ k tʰ f u ai ɤ ʐ l ts̪ ts̪ʰ m ʂ ɨ y j t ç ɑ pʰ n ɥ s̪ w kʰ tɕʲ ŋ tɕʲʰ
namakir_nama1268	Namakura	nama1268	Austronesian	Papunesia	-16.8979	168.569	25	20	5	0	0	20	5	4.0	r n e ⁿg ʔ a p h o v i f l ⁿbʷ t mʷ k ŋ pʷ w u ⁿd sʼ ⁿb m
pacoh_paco1243	Pacoh	paco1243	Austroasiatic	Eurasia	16.3353	107.094	53	23	24	0	6	23	30	0.9583333333333334	ɛː r w̰ iə pʰ ɓ aː ea j̰ m u əː ʔ oa æː ɗ ɨ e k oː əa ɜː n ɨː j uə a l p ɔ ɒː iː tʰ i n̠ o æ t̠ ɜ t β̞ eː h uː ɔː ɒ ʄ ʃ ɨə ɛ ə kʰ ŋ
noon_noon1242	Noon	noon1242	Atlantic-Congo	Africa	14.792	-16.9205	47	27	20	0	0	27	20	1.35	eː p o ŋ e aː ⁿd iː j ⁿɟ s ə ɟ h ɓ u ɪ b ɔː f ɛː ʔ l ɲ i ʊː uː d ⁿb k g ɪː əː ɔ c n ʊ ⁿg t ɛ ɗ ʄ w oː m a r
nung_nung1283	Nung (Viet Nam)	nung1283	Tai-Kadai	Eurasia	20.8965	104.286	41	26	15	0	0	26	15	1.7333333333333334	tʃʰ ʔ ɰ aː m pʰ ɔ ɯ ɛː oː tʰ a uː f v ʒ h l ɗ ɬ k kʰ s ɛ ɯː ɓ ŋ ɔː tʃ w əː j u i ʃ n eː ɲ t p iː
cofan_cofa1242	Cofán	cofa1242		South America	0.276675	-77.0643	40	30	10	0	0	30	10	3.0	õ ɛ ɣ β i a g ɾ’ ã tʼ f ʔ ʑ j h dʒ m w n’ pʰ ɟ o t’ʰ kʰ ɨ̃ ĩ tsʼ p b ʃ tʃʰ d’ ɛ̃ k tʃ ɨ ɰ ɲ sʼ dz’
bats_bats1242	Bats	bats1242	Nakh-Daghestanian	Eurasia	42.1806	45.344	46	35	11	0	0	35	11	3.1818181818181817	u z̪ d̪ ɑː n ĩ ɑ̃ j tʃ i ʃ ɸ ʒ ħ ũ q ts̪ dz̪ o ɬ ʔ tʃʼ h g ẽ t̪ʼ r qʼ ts̪ʼ ɛ χ m dʒ k t̪ s̪ ʡ b õ l pʼ ʁ β p kʼ ɑ
bengali_beng1280	Bengali	beng1280	Indo-European	Eurasia	24.0	90.0	43	29	14	0	0	29	14	2.0714285714285716	l ɾ ã ũ ɔ tʃ h d̪ʱ d̪ ʈʰ b õ k dʒʱ p ʈ g e tʃʰ o ʃ u ɔ̃ ẽ æ̃ dʒ s̪ i ɽ ɖ bʱ t̪ ɖʱ kʰ ŋ t̪ʰ gʱ pʰ æ ĩ m n a
amharic_amha1245	Amharic	amha1245	Afro-Asiatic	Africa	11.708182	39.543456	39	32	7	0	0	32	7	4.571428571428571	a o n w ɨ kʷ d gʷ tʃ e h m t mʷ sʼ i f ʃ l p’ʷ ɲ kʼʷ g dʒ pʼ b k hʷ j s kʼ tʃʼ tʼ u p ə fʷ r t’ʷ
maithili_mait1250	Maithili	mait1250	Indo-European	Eurasia	26.3817	86.2211	47	31	16	0	0	31	16	1.9375	ɖ ã ɔ̃ gʱ kʰ æ k u ʂ tʃʰ s̪ æ̃ dʒ p ʃ w ɤ̃ a dʒʱ j o ɤ n̪ ɽ ɔ t̪ l̪ ʈʰ ʈ õ ũ b h ĩ d̪ʱ ẽ ɾ̪ d̪ m pʰ ɖʱ tʃ bʱ g i e t̪ʰ
hupa_hupa1239	Hupa-Chilula	hupa1239	Athabaskan-Eyak-Tlingit	North America	41.0982	-123.68	34	28	6	0	0	28	6	4.666666666666667	oː c q m hʷ tʃʼ ŋ tʃ x tʃʷʰ ɪ qʼ cʼ aː cʰ ɬ t j o n h tʰ tsʰ s tʼ a eː w tsʼ tɬʼ xʷ ʔ ts l
kunwinjku_gunw1252	Bininj Kun-Wok	gunw1252	Gunwinyguan	Australia	-12.3398	133.358	22	17	5	0	0	17	5	3.4	m r ʔ w t n̠ u n t̠ j e ɳ ɻ ɭ a o l k ʈ ŋ p i
toaripi_toar1246	Toaripi	toar1246	Eleman	Papunesia	-8.07231	146.206	14	8	6	0	0	8	6	1.3333333333333333	l h m k i a s ɔ u p e f o t
sumu_maya1285	Mayangna	maya1285	Misumalpan	North America	14.1259	-84.3439	24	19	5	0	0	19	5	3.8	ŋ ɾ̥ u j ŋ̊ b w uː m n̪̥ d̪ m̥ iː l̠̥ ɾ k t̪ i n̪ l̪ h s a p
hausa_haus1257	Hausa	haus1257	Afro-Asiatic	Africa	11.1513	8.7804	43	31	10	0	2	31	12	3.1	w e oː g aː au gʲ kʼ dʒ sʼ i u z j ai ʃ o tʃ s h kʼʷ ɽ l n ʔʲ k ɓ d b uː k’ʲ gʷ a t ɸ̞ r m kʷ kʲ iː ɗ ʔ eː
ayoreo_ayor1240	Ayoreo	ayor1240	Zamucoan	South America	-19.220055	-60.217495	30	20	10	0	0	20	10	2.0	n̪̥ ŋ ɲ̊ ɛ d̪ n̪ k ã ɔ ĩ j m u ũ ɔ̃ tʃ ɲ b ʔ a s̪ ɛ̃ m̥ w g t̪ ɹ h i p
chimila_chim1309	Chimila	chim1309	Chibchan	South America	10.1902	-74.2559	41	20	20	1	0	21	20	1.0	ʔ s̪ k ĩ õː ɲ ɾ ⁿb aː ũ ẽː ẽ m p n̠d̠ʲ l̪ ŋ oː kʷ e ã t̪ ⁿgʷ uː tʃ u ãː iː h ⁿg o ĩː i eː ũː j a w õ n̪ ⁿd̪
tuva_tuvi1240	Tuvinian	tuvi1240	Turkic	Eurasia	51.7	94.36667	44	20	24	0	0	20	24	0.8333333333333334	ʃ n̪ o ts̪ u dʒ eː β ŋ f ḛ oː ɯː i m b o̰ e ɑː ø̰ t̪ tʃ p k uː dz ɯ ɑ g øː j yː r d̪ y̰ l̪ ḭ ɯ̰ iː ɑ̰ ṵ y s̪ ø
mpur_mpur1239	Mpur	mpur1239		Papunesia	-0.7489	133.166	18	13	5	0	0	13	5	2.6	b j e t k u o n p m f d i w dʒ a ɾ s
nukunu_nugu1241	Nugunu (Australia)	nugu1241	Pama-Nyungan	Australia	-31.9899	133.908	28	22	6	0	0	22	6	3.6666666666666665	t̪ l ɖ r ʎ m aː a t ʊ ɭ ɲ w ŋ n p k ɳ ɪː ʈ n̪ c j ɻ l̪ ɪ ʊː ɾ
farsiwestern_west2369	Western Farsi	west2369	Indo-European	Eurasia	32.9	53.3	30	24	6	0	0	24	6	4.0	p tʃ z̪ k d̪ ʔ n x ʒ e f w i u b h æ dʒ t̪ ɒ m o l̪ v j s̪ r̪ g ʃ ɢ
mbabaram_mbab1239	Mbabaram	mbab1239	Pama-Nyungan	Australia	-20.1389	143.438	38	25	12	1	0	26	12	2.0833333333333335	kʷ ɨ ⁿg ɛ iː k ŋʷ ⁿd̪ tʷ n̪ uː u ŋ t̪ ɔ ɛː a ⁿɟ ⁿb w p ɲ t aː ɨː ndʷ ɾ nʷ j c n l m ɺ i ⁿgʷ ⁿd ɔː
adjukru_adio1239	Adioukrou	adio1239	Atlantic-Congo	Africa	5.38228	-4.52522	28	21	7	0	0	21	7	3.0	r l m w k n ɲ kp p d o a gb b f h j dʒ ŋ i e tʃ u s ɛ ɔ t g
wirangu_wira1265	Wirangu	wira1265	Pama-Nyungan	Australia	-32.0	134.0	23	20	3	0	0	20	3	6.666666666666667	l̪ ʎ p w j ɲ ɳ ɭ ŋ k u ɻ m t̪ t a c ɾ ʈ i l n n̪
ghomaraberber_ghom1257	Ghomara	ghom1257	Afro-Asiatic	Africa	34.7979	-4.6696	38	32	4	0	2	32	6	8.0	q w f tˤ z ə ç kʷ u g θ β ai ð gʷ zˤ t h x b s l r sˤ n ʕ ɣ a k m ʔ ʃ dˤ i d au ʒ ħ
gumuzsouthern_gumu1244	Northern Gumuz	gumu1244	Gumuz	Africa	11.05	35.93	48	38	10	0	0	38	10	3.8	ŋʷ ŋ k kʷ g ɲ uː tʃ tʼ cç e ts gʷ ʒ l cç’ ɓ o v a z kʼʷ w eː t h s i ɾ iː tsʼ d f ʔ b ɗ ʃ kʼ tʃʼ p oː aː j u ɟʝ pʼ m n
isaka_kris1246	I'saka	kris1246	Sko	Papunesia	-2.80084	141.303	18	8	10	0	0	8	10	0.8	ɔ o s ũ ĩ ɛ ɔ̃ i b p ã w d ɛ̃ k a t j
malgbe_malg1250	Malgbe	malg1250	Afro-Asiatic	Africa	12.5342	14.8475	44	27	17	0	0	27	17	1.588235294117647	w f tθ’ oː ɑ ɗ n j g eː m d t s ʃ u a̟ː ɔ k ɔː kʼ uː ɤ ɟ ɬ p r ʔ a̟ ɛ iː e ɓ ɑː gb i h l b cʼ ɛː kp pfʼ o
awngi_awng1244	Awngi	awng1244	Afro-Asiatic	Africa	10.9819	36.6916	33	27	6	0	0	27	6	4.5	ʁ ʃ d b k e ŋ kʷ q m t p u ʁʷ j dʒ tʃ w s ŋʷ qʷ f ts a g o gʷ ɨ i n z l ɾ
dyirbal_dyir1250	Dyirbal	dyir1250	Pama-Nyungan	Australia	-17.4516	145.544	16	13	3	0	0	13	3	4.333333333333333	m t a n c ɲ ɻ p j l u w r i k ŋ
ndut_ndut1239	Ndut	ndut1239	Atlantic-Congo	Africa	14.925	-16.9811	43	27	16	0	0	27	16	1.6875	ɔː ⁿɟ d g w ɲ ɟ j n eː f i ɛ k b m aː ʄ əː ɪː ⁿg ɔ ⁿb a ɪ ʔ u s l e ŋ ɛː ə iː c r p uː h ⁿd ɗ t ɓ
azerbaijaninorthern_nort2697	North Azerbaijani	nort2697	Turkic	Eurasia	40.9777	46.4737	33	24	9	0	0	24	9	2.6666666666666665	m dʒ ɪ ʏ l’ ʒ ɛ ɑ p o x z ɤ g ɾ ʊ v j tʃ b t̪ s ʃ a̟ c h ø ɟ k n̪ ɣ d̪ f
kalkatungu_kalk1246	Kalkutung	kalk1246	Pama-Nyungan	Australia	-21.0	139.5	23	20	3	0	0	20	3	6.666666666666667	m ʎ l̪ t a ɾ l ʈ ɽ ɳ ɲ w ɭ p n̪ c i k ŋ u t̪ j n
witotomuruidialect_muru1274	Murui Huitoto	muru1274	Huitotoan	South America	-1.13669	-73.8331	21	15	6	0	0	15	6	2.5	d ɸ ɔ m ɯ i β a u tʃ h k t ɲ b ɛ dʒ n θ g r
achumawi_achu1247	Achumawi	achu1247	Palaihnihan	North America	41.0979	-121.191	39	29	10	0	0	29	10	2.9	j qʼ p l̰ ʔ ɔ ʜ tʃʼ tʰ m tʃ t k u ɛː s aː q pʼ w ɛ kʼ h i n̰ tʃʰ n w̰ m̰ qʰ iː uː pʰ l kʰ a ɔː j̰ tʼ
swedish_swed1254	Swedish	swed1254	Indo-European	Eurasia	59.800634	17.389526	35	18	17	0	0	18	17	1.0588235294117647	ɛ uː ɑː yː k g f ŋ d̪ b ɛː ɪ eː ɵ s l̪ ʉ m øː p ç a ɕ n̪ ɹ œ h ʊ v iː oː t̪ ʝ ɔ ʏ
warrwa_warr1258	Warrwa	warr1258	Nyulnyulan	Australia	-17.0965	123.971	23	17	6	0	0	17	6	2.8333333333333335	k iː j ɭ i a p w n ɻ ŋ ɾ aː ʎ m ʈ c t uː ɲ ɳ l u
birom_bero1242	Berom	bero1242	Atlantic-Congo	Africa	9.67037	8.81221	34	22	12	0	0	22	12	1.8333333333333333	e z kp m s ŋ gb dʒ w tʃ d g ɛ t v aː b h j n oː f l uː i a k u iː eː ɔ p r o
kilivila_kili1267	Kilivila	kili1267	Austronesian	Papunesia	-8.72574	151.072	31	20	5	0	6	20	11	4.0	ai n pʷ ei m t ʔ kʷ gʷ a l ou ɛu g au ɔi p j ɔ ɾ d ɛ b k u mʷ bʷ i w s v
basariguineesenegal_bass1258	Bassari-Tanda	bass1258	Atlantic-Congo	Africa	12.4529	-13.3495	42	36	6	0	0	36	6	6.0	ⁿd l m ⁿgʷ u ɔ ⁿg p x n ⁿɟ ʄ g w̃ ɟ ŋʷ j̃ ə t r ɗ ɰ̃ s xʷ ɓ k w j ɰ gʷ ⁿb i f a c kʷ ŋ ɲ ʃ d b ɛ
wanshohot_puin1248	Puinave	puin1248		South America	3.92974	-67.6886	21	10	11	0	0	10	11	0.9090909090909091	ɔ ɤ̃ m s̪ ĩ ã ʔ u a n̪ ɯ p õ w ɛ i t̪ h ɤ j k
sanuma_sanu1240	Sanumá	sanu1240	Yanomamic	South America	4.5	-64.5	25	12	13	0	0	12	13	0.9230769230769231	ĩ w t n u tʰ h e i l s o a õ m p ɨ̃ ẽ ts k ũ j ɨ ə ã
semelai_seme1247	Semelai	seme1247	Austroasiatic	Eurasia	2.82799	102.806	53	33	20	0	0	33	20	1.65	ĩ ɲ n̥ ʔ w c ʉ̃ m̰ m o ã h w̰ ɲ̰ ʉ u ŋ j̰ g kʰ j i ɛ l l̰ ŋ̊ p n ũ ɔ̃ d ɒ ə e ɛ̃ b t̪ʰ r̰ a m̥ n̰ ɕ ə̃ ɒ̃ ɟ ẽ õ ɔ cʰ pʰ r t̪ k
yagua_yagu1244	Yagua	yagu1244	Peba-Yagua	South America	-3.42913	-72.2186	27	11	16	0	0	11	16	0.6875	ɔ̃ː pʷ k ãː ɾ ɨ̃ː ʊ ɨ̃ a ɔː aː ã ɔ̃ ʊ̃ ts ⁿbʷ h ɨː ⁿd ʊ̃ː ɔ t w ɨ tʃ j ʊː
oneida_onei1249	Oneida	onei1249	Iroquoian	North America	43.438742	-75.708106	16	10	6	0	0	10	6	1.6666666666666667	k s j h i tʃ a ʔ n ɐ̃ ũ w l t u e
sre_koho1244	Koho	koho1244	Austroasiatic	Eurasia	11.6444	108.057	39	29	10	0	0	29	10	2.9	j g u c a o p ɲ̊ ɤ i d w ɓ s kʰ ɛ n t ɟ k pʰ ʍ ʔ tʰ m ŋ m̥ n̥ ɔ h ɲ e j̊ cʰ ɯ b l ɗ ɒ
kadugli_katc1249	Katcha-Kadugli-Miri	katc1249	Kadugli-Krongo	Africa	10.8423	29.4914	36	22	14	0	0	22	14	1.5714285714285714	eː i m aː p iː w h d̪ ɔ r l n b c ɔː o uː t ɓ dʒ g t̪ ɛ ɗ oː d f s u j e k ɛː a ɲ
tulu_tulu1258	Tulu	tulu1258	Dravidian	Eurasia	12.8114	75.2651	34	21	13	0	0	21	13	1.6153846153846154	n̪ eː s e ɯ ŋ t̪ uː b ʋ ɛː ʃ dʒ ɳ k d̪ l̪ m o iː ɲ p tʃ aː ɐ g ɛ ɖ j u ʈ i r oː
nyangi_nyan1313	Nyang'i	nyan1313	Kuliak	Africa	3.4997	33.73651	29	20	9	0	0	20	9	2.2222222222222223	k t zʲ ɲ ŋ i ʊ r o e ɗ n m ɠ ɛ c h ɬ ɪ p ɔ j s̪ ʄ a l u w ɓ
sheko_shek1245	Sheko	shek1245	Dizoid	Africa	7.05022	35.2826	39	28	11	0	0	28	11	2.5454545454545454	g kʼ h n u pʼ f z w ʈʂ tʼ s k a ŋ o iː j ʃ oː tʃʼ b i ts tʃ ə e ʈʂ’ ʒ ʐ t uː aː ɾ eː ʂ tsʼ m d
maidunortheastern_nort2952	Northeast Maidu	nort2952	Maiduan	North America	40.4102	-120.645	23	17	6	0	0	17	6	2.8333333333333335	n pʰ kʼ tʼ i s̠ tʰ a ɛ ɗ w l pʼ u ɨ j ɔ ɓ h cʼ cʰ m kʰ
baining_qaqe1238	Qaqet	qaqe1238	Baining	Papunesia	-4.45258	151.702	31	18	10	0	3	18	13	1.8	n ɣʷ p ŋ ɔ s ɔː kʷ ai ɾ m au uː ɣ u ŋʷ ɛi aː l ⁿd a t iː ɛː ⁿb w ɛ i ⁿg ⁿgʷ k
czech_czec1258	Czech	czec1258	Indo-European	Eurasia	49.873398	15.10437	38	25	10	0	3	25	13	2.5	n ɛu r̝ ɦ b v x tʃ z u ou j c uː ɟ o ɛː aː l f ɛ ɲ d m t i r au g oː iː s ʃ a k p ts ʒ
abkhaz_abkh1244	Abkhaz	abkh1244	Abkhaz-Adyge	Eurasia	43.056218	41.159115	61	58	3	0	0	58	3	19.333333333333332	s dʒ z ʝ ts’ʷ ɣʷ pʼ j ʃ t’ʷ d v l cʼ kʷ p qʼ c gʷ xʷ ʃʷ tʃʼ ħʷ tʼ n f ɖʐ ʂ q’ʲ tsʼ ç tʃ m tʷ a r g dzʷ tsʷ ts ɟ ʒʷ qʼʷ ʐ ʈʂ’ kʼʷ w ʈʂ ʒ ɨ ħ b ɣ x dʷ kʼ k t aː dz ʕʷ
wapishana_wapi1253	Wapishana	wapi1253	Arawakan	South America	2.58744	-59.8021	26	18	8	0	0	18	8	2.25	k uː m g n t a h ʃ aː ɖ w tʃ ɲ p j ɽ ɨː ʔ u i s b ɨ ʐ iː
khasi_khas1269	Khasi	khas1269	Austroasiatic	Eurasia	24.977	91.9998	32	21	8	0	3	21	11	2.625	ɲ t̪ aː h p uː iː b d k e ia ŋ l’ uo kʰ pʰ w j ie m i sʼ n u ʔ a o ʃ r’ t’ʰ dʒ
nakkara_naka1260	Nakara	naka1260	Maningrida	Australia	-12.07653	134.32729	21	16	5	0	0	16	5	3.2	ɭ i n p j l ɻ ɔ m w k t u ŋ c ɲ ɳ ʈ ɾ a ɛ
cuiba_cuib1242	Cuiba	cuib1242	Guahiboan	South America	6.19829	-69.8197	21	16	5	0	0	16	5	3.2	u o tʃ n ts a k j m kʰ pʰ ɾ p h ɓ t i e s w tʰ
mumuye_nucl1240	Mumuye	nucl1240	Atlantic-Congo	Africa	8.90347	11.71545	34	22	12	0	0	22	12	1.8333333333333333	w i s v ũ ɔ̃ m ã ʃ ɛ̃ b l ĩ kp a h ɔ j u z õ p d ɓ gb ʒ n g o f t k ɛ r
apinaye_apin1244	Apinayé	apin1244	Nuclear-Macro-Je	South America	-6.10774	-47.6315	33	16	17	0	0	16	17	0.9411764705882353	e ⁿd m ⁿb ɯ̃ ã t n i ɔ a p o v ʔ s ĩ ʌ̃ u ɛ ⁿdʒ ɯ k õ ʌ ⁿg ɲ j ʑ ɛ̃ ɤ ũ tɕ
nezperce_nezp1238	Nez Perce	nezp1238	Sahaptian	North America	46.3073	-116.408	40	30	10	0	0	30	10	3.0	a kʷ qʼʷ pʼ tsʼ χ i kʼʷ uː m w s oː n qʼ x aː æː æ w̰ l̰ qʷ k tʼ iː j̰ q kʼ o ɬ m̰ l p n̰ ts h ʔ t u j
kekchi_kekc1242	Kekchí	kekc1242	Mayan	North America	15.3788	-89.2452	32	22	10	0	0	22	10	2.2	aː tʼ t o ts p e tsʼ iː q m a ɓ qʼ oː k χ uː n u l ʂ eː ʃ i tʃ ʔ w kʼ s j tʃʼ
otomimezquital_mezq1235	Mezquital Otomi	mezq1235	Otomanguean	North America	20.2274	-99.5564	52	40	12	0	0	40	12	3.3333333333333335	ɯ β t̪ʼ j ɾ ɲ̊ t̪ m̥ θ ɲ̰ ʍ ẽ m̰ h ʌ ʒ f ĩ tʃ k ts ɓ tsʼ p l ɾ̰ j̰ u z n̪̰ s n̪ i o tʃʼ ɲ w ɣ n̪̥ a ɛ w̰ ʔ x m ʃ e ð ã j̊ õ kʼ
sarygyugur_west2402	West Yugur	west2402	Turkic	Eurasia	39.0548	99.3112	44	28	16	0	0	28	16	1.75	u̥ː ɔ̥ː w x ø p ʂ i k tɕ q s ts lˠ ɔ j ɕ qʰ y̥ː t ʈʂ y tʰ e̥ː ɑ tɕʰ ɯ ɑ̥ː n ʐ z r h i̥ː m ʈʂʰ u e kʰ ø̥ː ɣ ɯ̥ː ŋ pʰ
kwakwala_kwak1269	Kwak'wala	kwak1269	Wakashan	North America	50.9269	-127.308	49	42	7	0	0	42	7	6.0	xʲ iː kʷ dz kʲ n̰ t a χ h m qʷ n ɢʷ ɬ xʷ tʼ j qʼʷ kʼʷ d ʔ tsʼ l̰ m̰ l k’ʲ χʷ qʼ gʲ s uː p ə tɬ q w aː ɔː dɮ ts j̰ gʷ ɢ b w̰ tɬʼ ɛː pʼ
hobyot_hote1245	Hote	hote1245	Austronesian	Papunesia	-7.07708	146.869	42	30	10	0	2	30	12	3.0	au oː m θ’ d̪ ʔ ɬʼ ɛ u uː k iː g ʃ θ ħ ɛː w ɬ̪ dʒ n̪ f o z i b a ʃʼ aː ɬ sʼ t̪ʼ j ai ʁ h χ kʼ s t̪ ɾ ð
tlapanecmalinaltepec_mali1285	Malinaltepec Me'phaa	mali1285	Otomanguean	North America	17.2122	-98.6322	47	27	20	0	0	27	20	1.35	ã ⁿg õ ãː m õː a dʒ ⁿdʒ ẽ b iː r tʃ kʰ oː p ũ k pʰ ʃ ɲ e l eː ts t̪ j w t̪ʰ aː ũː ĩ u ĩː ẽː ⁿb ʔ d̪ s ⁿd̪ n̪ o g uː i h
norwegian_norw1258	Norwegian	norw1258	Indo-European	Eurasia	59.92	10.71	46	22	19	0	5	22	24	1.1578947368421053	øy ɔy ɳ ai ʃ ʊ øː ɭ ɪ ʉː yː ɖ ʏ h ʋ l ʈ uː œ ç n̪ d̪ ʉ ɽ ŋ k g eː æi iː ə ɑː æː s b æʉ p ɒ̝ æ oː t̪ a f j e m
westmakian_west2600	West Makian	west2600	North Halmahera	Papunesia	0.45332	127.63	23	17	6	0	0	17	6	2.8333333333333335	a h ŋ r’ d̪ k n̪ ɸ i dʒ b o l’ u g ə p m n̠ tʃ e t̪ sʼ
irantxe_iran1263	Irántxe-Münkü	iran1263		South America	-12.7178	-57.9806	51	21	24	0	6	21	30	0.875	ĩ ɛː ɾ’ kʲ ɛ̃ ɛ ɔ̃ a ũ aː ʃ ɛ̃ː w ʔ n’ ɔ pʷ ãː m ɨ̃ĩ ɨ̃ː mʷ b ɔː k ɨː ĩː tʼ iː oi uː bʷ ãĩ u l’ d’ õĩ ɨ ʍ ɔ̃ː p ai i ũː ɨ̃ t’ʲ j h ã ɨi ʂ
nahuatlnorthpuebla_nort2957	Northern Puebla Nahuatl	nort2957	Uto-Aztecan	North America	20.1356	-97.9814	24	16	7	0	1	16	8	2.2857142857142856	l ɛ n̪ t̪ a m o i tʃ iː tɬ ʔ aː ɸ̞ β̞ j ʃ kʷ oː ei k ts p s
arabicmoroccan_moro1292	Moroccan Arabic	moro1292	Afro-Asiatic	Africa	32.5	-7.5	32	29	3	0	0	29	3	9.666666666666666	b ʁ a ʔ l w tˤ f u ɾˤ d̪ n j lˤ q sˤ χ s zˤ ɾ m g dˤ z t̪ ʃ k ʕ h i ħ ʒ
azande_zand1248	Zande	zand1248	Atlantic-Congo	Africa	4.62047	26.7157	42	25	16	1	0	26	16	1.5625	u gb ⁿd ⁿz kp ⁿɺ z ɪ g f ɺ ɛ̃ w k ɛ ũ ⁿb h ɜ ʊ̃ j m ⁿv n v p ɜ̃ ɪ̃ ɔ̃ i ĩ ɔ ⁿgb ã ⁿg ɲ d t a s ʊ b
maba_maba1277	Maba (Chad)	maba1277	Maban	Africa	12.89147	20.8889	37	27	10	0	0	27	10	2.7	ɛː k ɔː ⁿb iː c f t l uː g ɖ w r j a ⁿg s ʃ aː z i b u ɛ ʒ ɟ n d ɲ ⁿɟ ⁿɖ ⁿd ŋ ʈ ɔ m
songhaykoyrachiinidialect_koyr1240	Koyra Chiini Songhay	koyr1240	Songhay	Africa	16.192	-3.73962	32	18	10	0	4	18	14	1.8	d ɛu o ŋ oː iː u e j ɲ g ɔi w m t eu aː b k eː tʃ l ɾ uː h f dʒ oi n i s a
canelakraho_cane1242	Canela-Krahô	cane1242	Nuclear-Macro-Je	South America	-6.10712	-45.1299	46	12	34	0	0	12	34	0.35294117647058826	e ɔ̃ː ɛ p ɺ ɛː ã ɤ ũ i n uː t ʌ ɯ̃ː ũː o j ts w ʌ̃ ĩ ɤː ʌː ɯ u ɔː m ɛ̃ iː ʌ̃ː ŋ ɯ̃ ãː ɔ kʰ ɯː oː h aː ĩː eː ɔ̃ a ɛ̃ː k
italian_ital1282	Italian	ital1282	Indo-European	Eurasia	43.0464	12.6489	30	23	7	0	0	23	7	3.2857142857142856	w ɔ ɲ tʃ o i l ts j m p ɛ e s z r u dz n d ʎ g dʒ k t b a f ʃ v
sierramiwoksouthern_sout2985	Southern Sierra Miwok	sout2985	Miwok-Costanoan	North America	38.2363	-120.507	27	15	12	0	0	15	12	1.25	h ɛ i t ŋ l aː m ʃ iː a j uː ɔ k ʔ ɔː u ɨ p n s̪ ɛː w ɨː t̪ tʃ
arabela_arab1268	Arabela	arab1268	Zaparoan	South America	-1.96126	-75.0612	18	11	5	0	2	11	7	2.2	w m j o r’ u i p e n’ sʼ k h̃ tʼ a au ai ʃ
yessanmayo_yess1239	Yessan-Mayo	yess1239	Sepik	Papunesia	-4.15721	142.574	22	17	5	0	0	17	5	3.4	ɽ s ⁿb a ⁿd r ʊ ɨ o kʷ l t ⁿgʷ ɸ h ⁿg ɛ j n w m k
yuhup_yuhu1238	Yuhup	yuhu1238	Naduhup	South America	0.2485	-69.8079	32	17	15	0	0	17	15	1.1333333333333333	æ̃ æ t ɨ m̰ n ɔ m j̰ i n̰ u a ã w̰ o p k ĩ ɲ̰ j e tʃ ɳ ɨ̃ ŋ ə ɔ̃ h w ũ ʔ
grico_mode1248	Modern Greek	mode1248	Indo-European	Eurasia	38.36	23.13	40	34	6	0	0	34	6	5.666666666666667	c n̪ k l̪ d̪ a f ɔ ð z r’ s n’ v i p b l’ sʼ u tʼ e θ x m ɛ j dz t̪ tsʼ dz’ ɣ ɲ ts n’ː g ɖː ɾ tʃ ʃ
kanuri_cent2050	Central Kanuri	cent2050	Saharan	Africa	11.8	13.13	29	22	7	0	0	22	7	3.142857142857143	ɭ ʃ dʒ k j w s h l ɨ m n ɲ t z ɐ o i tʃ d ʔ a ɸ g e ɾ f b u
yanyuwa_yany1243	Yanyuwa	yany1243	Pama-Nyungan	Australia	-15.7621	136.055	32	29	3	0	0	29	3	9.666666666666666	n̠ ⁿp ʊ ɪ k ɭ ŋ ⁿt̠ l̠ w ⁿt̪ n l ⁿkʲ l̪ r m ⁿk ŋʲ j t t̪ ⁿʈ ⁿt ʈ n̪ ɽ a ɳ kʲ t̠ p
bukiyip_buki1249	Bukiyip	buki1249	Nuclear Torricelli	Papunesia	-3.47169	143.111	27	19	8	0	0	19	8	2.375	j b r o ə g n l tɕ u m i ɨ gʷ h d e a t p dʑ æ k w hʷ s ɲ
kolymayukaghir_sout2750	Southern Yukaghir	sout2750	Yukaghir	Eurasia	64.218	154.375	31	19	12	0	0	19	12	1.5833333333333333	k p dʒ iː oː ʎ a l uː ʃ eː d u øː g i t r o ʁ aː q n ø tʃ e ɲ b j m ʒ
kalami_kala1373	Gawri	kala1373	Indo-European	Eurasia	35.5303	72.5738	61	37	24	0	0	37	24	1.5416666666666667	ɣ iː tʃʰ dʒ uː tʃ e æ̃ i ɖ s̪ æ ẽː ʃ ɬ̪ o ĩ x m t̪ʰ d̪ h æː õː æ̃ː b g n̪ w t̪ ts̪ʰ ɑ ũ ʈʰ eː z̪ ts̪ ẽ kʰ ʂ oː ɳ k j ɑː ĩː ʈʂʰ ɾ̪ ʈʂ l̪ u ɑ̃ː p ɽ ɲ q ʈ ɑ̃ ũː pʰ õ
ikacolombia_arhu1242	Arhuaco	arhu1242	Chibchan	South America	10.7018	-73.6363	28	18	7	0	3	18	10	2.5714285714285716	i s o ɨ ɐ ʔ dʒ z b ei p m g w tʃ t h iɨ a d n u ou β ʒ k ɾ e
iaai_iaai1238	Iaai	iaai1238	Austronesian	Papunesia	-20.6301	166.59	54	37	17	0	0	37	17	2.176470588235294	w œ ɳ̊ h ʃ m̥ ŋ̊ g ɭ̊ f y ɔː m i ŋ θ b e ɔ ɲ̊ s n̪ iː ɭ mʷ k bʷ o t̪ tʃ ɸ ɛː d̪ p β m̥ʷ ʍ x ɲ ɖ ø ʈ uː n̪̥ ɹ u dʒ eː ɳ æː æ ð ɛ oː
koasati_koas1236	Koasati	koas1236	Muskogean	North America	30.4096	-92.709	26	14	12	0	0	14	12	1.1666666666666667	p oː tʃ a h m t aː ĩː s n l ɬ b f k i j õ ã w o õː ĩ ãː iː
sandawe_sand1273	Sandawe	sand1273		Africa	-5.26918	35.4808	62	44	15	3	0	47	15	2.933333333333333	k pʰ m ŋǀ n aː ts ǃ f uː oː ǁʰ j ẽː dɮ a g dz tsʼ ãː iː gǃ tʰ eː tʼ ũː ǀ e ǁ w ŋ ɾ d l b tɬʼ gǁ t o gǀ tɬ ŋǃ tsʰ p ĩː ʔ ɬ ǃʔ kʰ ŋǁ ǃʰ s ǁʔ ǀʰ ǀʔ u pʼ x õː kʼ i h
southernkiwaiislanddialect_sout2949	Southern Kiwai	sout2949	Kiwaian	Papunesia	-8.64889	143.244	21	13	5	0	3	13	8	2.6	m e p ʔ n ae ɾ i t u oi s w o k b g au j d a
maybratmayhapehdialectofayawasivillage_maib1239	Maybrat-Karon	maib1239		Papunesia	-1.3679	132.591	16	11	5	0	0	11	5	2.2	t f p k r s a u m i n x w ɔ j e
mansinorthern_mans1258	Northern Mansi	mans1258	Uralic	Eurasia	64.4118	61.344	29	19	10	0	0	19	10	1.9	j e iː kʷ ɲ s̪ n̪ w ŋ i l̪ k uː aː x ɕ m t̪ eː r ɣ ʎ xʷ u tʲ a oː o p
tariana_tari1256	Tariana	tari1256	Arawakan	South America	0.440205	-68.9042	39	24	15	0	0	24	15	1.6	wʱ n̪ʱ w t̪ʰ b t̪ tʃ uː n̪ kʰ õ d̪ e mʱ ĩ ɲʱ kʷ i ɨ ã a aː p l ẽ eː ɺ d̪ʱ iː pʰ j h u ɲ m k ũ o s
nandi_nand1266	Nandi	nand1266	Nilotic	Africa	0.793737	35.408478	33	13	20	0	0	13	20	0.65	ɑ ʊː o k n i ɛ u eː ɔː j ɛː uː ɔ e c l p iː ɾ ɲ ŋ m a t ɪː s ɪ ʊ ɑː aː w oː
ingush_ingu1240	Ingush	ingu1240	Nakh-Daghestanian	Eurasia	43.11	45.03	46	34	8	0	4	34	12	4.25	uː q ħ ʡ k uo n v ie ʃ r̥ d̪ oa x t̪ kʼ ea l dʒ tsʼ a o r qʼ b p m ʔ e iː aː z j s tʃ tʃʼ f ʁ i t̪ʼ u h g ts ʒ pʼ
maranungku_mara1386	Maranunggu	mara1386	Western Daly	Australia	-13.6754	130.12	18	13	5	0	0	13	5	2.6	tɕ n j ɹ l m p w ɲ i a r k u ŋ t æ ə
pechculmidialect_pech1241	Pech	pech1241	Chibchan	North America	15.8033	-85.558	36	16	20	0	0	16	20	0.8	j m õː s̪ ẽː ãː a uː iː eː o ẽ ã h ĩ w ũː k t̪ aː ũ oː l̪ ɾ u n ʔ e ĩː p r i kʷ õ ʃ b
diyari_dier1241	Dieri	dier1241	Pama-Nyungan	Australia	-28.1667	138.0	25	22	3	0	0	22	3	7.333333333333333	l ɾ t r u ɳ n̪ k j w ɲ ʈ ʎ ɐ m ɭ l̪ t̪ i p n ɖ t̠ ɻ ŋ
vietnamese_viet1252	Vietnamese	viet1252	Austroasiatic	Eurasia	20.681188	105.774071	36	22	11	0	3	22	14	2.0	iʌ ʌ ɤ ɔ m ɒ l̪ e i ŋ ɓ t̪ ʔ ɣ n̪ ɯ ɲ ɛ z s h w f t̪ʰ ɯʌ o u x j c ɗ p uʌ a k v
bardi_bard1255	Bardi	bard1255	Nyulnyulan	Australia	-16.6274	122.906	24	17	7	0	0	17	7	2.4285714285714284	i ʎ u t aː ɳ o ŋ j p ʈ n uː ɲ iː l m ɻ k w r a ɭ c
mongnjua_hmon1264	Hmong Njua	hmon1264	Hmong-Mien	Eurasia	22.5638	101.95	51	41	6	0	4	41	10	6.833333333333333	ⁿtʃ ʒ ⁿp a p ɔu kʰ n̠ o ⁿk i l̥ ⁿʈʂʰ ʈʂʰ v ⁿts̪ ŋ qʰ ⁿt̪ n̪ ç q ts̪ ⁿkʰ tʃ u ɛʉ s̪ f ʈʂ e ⁿtʃʰ k ⁿt̪ʰ t̪ʰ m h ⁿʈʂ ʉ ⁿq pʰ ai ⁿqʰ tʃʰ ʃ ⁿpʰ l t̪ ⁿts̪ʰ ts̪ʰ uə
ik_ikkk1242	Ik	ikkk1242	Kuliak	Africa	3.61407	34.2507	46	29	17	0	0	29	17	1.7058823529411764	l d̪ ts f m k tɬ̰ z uː r s w ɔ dʒ a o ŋ g oː eː i u ts̰ ɲ ɔː h p ɗ ɪː iː ɛː n̪ ɬ ɪ ɛ tʃ ɮ j aː e ʊː b k̰ dz t̪ ɓ
apalai_apal1257	Apalaí	apal1257	Cariban	South America	1.49792	-54.7457	24	12	12	0	0	12	12	1.0	n ɨ p ʃ u s e ʔ ĩ m ɨ̃ z ũ ã w ɾ k j t o ẽ a õ i
bawm_bawm1236	Bawm Chin	bawm1236	Sino-Tibetan	Eurasia	22.4405233333	92.92553	36	24	10	0	2	24	12	2.4	r h tʰ tʃ ia i w ɔ n l ʔ a kʰ b d ʈ v iː ɛː s aː ua ɛ ʈʰ u ŋ pʰ j k p m z f ɔː t uː
bambara_bamb1269	Bambara	bamb1269	Mande	Africa	12.9	-7.65	49	21	28	0	0	21	28	0.75	m ɛ ŋ ɲ dʒ f ɛː n k iː oː ĩ e aː tʃ o ʃ g h ũ ɛ̃ː b eː ĩː ẽ õː ãː uː w ɔ̃ õ ã ɔ̃ː ɔː ɾ ũː t d j s u ɛ̃ p i a ẽː z ɔ l
papiamentu_papi1253	Papiamento	papi1253	Indo-European	South America	12.48485	-69.93988	42	24	10	0	8	24	18	2.4	j k ʃ s̪ f tʃ b eu iu ui o øi x ɛ ʒ uː p ai u r d̪ ø v y h m ɔ i g n̪ oi au l̪ ɛi a e ŋ z̪ t̪ ɲ w dʒ
yine_yine1238	Yine	yine1238	Arawakan	South America	-11.1086	-73.3087	21	16	5	0	0	16	5	3.2	s ɾ ç k tʃ a ɨ t p n ts l i ʃ o e w c j ɦ̃ m
paez_paez1247	Páez	paez1247		South America	2.61516	-76.31254	52	36	16	0	0	36	16	2.25	w j o p ts pʲ ḛ̃ ŋ i ɺʲ ã ⁿdʲ tsʰ m nʱ kʰ ẽ tʲʰ e ⁿb ⁿʒ nʲ ɸʲ ⁿd ʃ ḭ ã̰ kʲ tʲ a pʰ ḭ̃ tʃʰ ɺ s t a̰ ⁿz tʰ õ̰ tʃ k ḛ ⁿbʲ xʲ ĩ o̰ n x ⁿβʲ õ ⁿg
ache_ache1246	Aché	ache1246	Tupian	South America	-25.5865	-56.4697	24	12	12	0	0	12	12	1.0	ũ ʔ tʃ k i β̞ a õ ⁿb ⁿdʒ t ẽ ɨ̃ j p ĩ ã ɨ ⁿg u e ɾ o ⁿd
aghem_aghe1239	Aghem	aghe1239	Atlantic-Congo	Africa	6.38956	10.0807	36	26	10	0	0	26	10	2.6	gb ʔ j l o ʊ ŋ tʃ dʒ i̝ ŋm ts pf kp ɒ ɲ f ɣ d m s k n dz z w g ɛ b t bv ɔ u̝ ɪ a e
havu_sabu1255	Hawu	sabu1255	Austronesian	Papunesia	-10.5522	121.847	26	20	6	0	0	20	6	3.3333333333333335	e ɗ g r ə dʒ o p a t ɠ ʔ m ɲ n u v h ʄ l k b d i ŋ ɓ
rapanui_rapa1244	Rapanui	rapa1244	Austronesian	Papunesia	-27.113	-109.342	22	12	10	0	0	12	10	1.2	i vʷ n ŋ t ʃ aː p a ʔ uː eː iː k o h tʃ ɾ m oː u e
german_stan1295	German	stan1295	Indo-European	Eurasia	48.649	12.4676	42	23	16	0	3	23	19	1.4375	ʏ ɛ ø ɔɪ ŋ h i v g tʃ ɔ ʃ j ʊ l ts ʒ d p o ʁ œ t n y aː pf aɪ a b f m ɪ k aʊ z ɛː u ə χ s e
mutsun_sout2986	Southern Ohlone	sout2986	Miwok-Costanoan	North America	36.787073	-121.487098	30	20	10	0	0	20	10	2.0	ɔ tʃ l’ʲ ɾ’ aː t’ʲ ɔː k w p i l’ s̪ ʈ m a n’ ʔ ʃ iː n’ʲ h ts̪ ɛː j uː t̪ ɛ u t̪’ʲ
tampulma_tamp1252	Tampulma	tamp1252	Atlantic-Congo	Africa	9.75577	-1.35467	42	24	18	0	0	24	18	1.3333333333333333	ɔ p a ɪː j ɲ l e h uː dʒ ɔː ɾ w k gb b ʊ ŋ i kp ʊː d aː s ɛː o z ŋm g eː ɛ m t tʃ ɪ v oː n f u iː
karuk_karo1304	Karok	karo1304		North America	41.8228	-123.315	24	16	8	0	0	16	8	2.0	ʔ ʊː n̪ j p tʃ x m f iː ʊ ɾ s h oː s̪ β̞ a ʃ t̪ aː i k eː
movima_movi1243	Movima	movi1243		South America	-13.8115	-65.6348	29	19	10	0	0	19	10	1.9	ɓ iː o e β p ʔ k aː ɬ ɾ m ɗ u n j i t h kʷ ʂ eː l j̰ w a tʃ uː oː
ndjebbana_djee1236	Djeebbana	djee1236	Maningrida	Australia	-12.0133	134.097	21	16	5	0	0	16	5	3.2	n k ɭ ɳ ɛ j w t̠ ɔ n̠ u ɾ m ɻ ʈ a p ŋ i l t
egyptianarabic_egyp1253	Egyptian Arabic	egyp1253	Afro-Asiatic	Africa	31.0	31.0	35	27	8	0	0	27	8	3.375	m dʒ w g s̪ ħ uː k æː iː a b q n̪ d̪ˤ s̪ˤ ʕ t̪ ʔ eː j l̪ z̪ˤ f χ ɪ t̪ˤ oː d̪ h z̪ ʁ r ʊ ʃ
uyghurstandarddialectofurumqi_uigh1240	Uighur	uigh1240	Turkic	Eurasia	43.88	87.38	43	25	18	0	0	25	18	1.3888888888888888	sʼ ʔ ʒ oː eː y uː ʃ g øː ɯ m l’ tʼ h f ø u tʃ z’ ɯː yː n’ d’ æː ɑ k dʒ o w e iː j æ ŋ i q r ɢ χ ɑː p b
nunggubuyu_nung1290	Wubuy	nung1290	Gunwinyguan	Australia	-14.2623	135.753	25	19	6	0	0	19	6	3.1666666666666665	ʈ ɭ k t̪ m j w iː a ŋ t l̪ n̠ uː u ɳ aː n ɻ ɾ p t̠ l i n̪
sango_sang1328	Sango	sang1328	Atlantic-Congo	Africa	6.78584	20.1702	39	26	12	1	0	27	12	2.1666666666666665	ɓ i ɛ̃ ɔ f p gb a z w e ũ j v g d h n kp ɲ ɾ ɔ̃ t ĩ s ã u ⁿv o ⁿb ɛ m ⁿd ⁿgb k ⁿg ⁿz b l
bribri_brib1243	Bribri	brib1243	Chibchan	North America	9.39794	-83.0539	28	16	12	0	0	16	12	1.3333333333333333	i u ã b r’ ɪ tʼ ʔ ɾ’ ʊ o õ k tsʼ ũ tʃ ɺ̣ ʃ ẽ d’ a p h j e sʼ w ĩ
lakotateton_lako1247	Lakota	lako1247	Siouan	North America	46.3699	-103.95	33	25	8	0	0	25	8	3.125	ɣ ʒ kʰ ɛ l tʰ ũ tʃʼ m s u ĩ pʼ ʔ tʼ i tʃʰ z h k j tʃ p kʼ x ɔ pʰ t ʃ ã a w n
chatinowesternhighland_west2644	Western Highland Chatino	west2644	Otomanguean	North America	16.2495	-97.3244	42	33	9	0	0	33	9	3.6666666666666665	tʃ j ĩ d n̰ hʲ ɾ ts z e ɔ̃ n ð b k ɛ̃ s lʲ nʲ o dʲ m hʷ ʃ n̰ʲ ʔ tʲ ʔʷ t l p gʷ kʷ a i g h w ũ ʔʲ ʒ u
mehrimehreyyetdialect_mehr1241	Mehri	mehr1241	Afro-Asiatic	Eurasia	16.793	52.473	38	30	6	0	2	30	8	5.0	t u a n e ð tʼ w χ ɾ ai k ts’ˤ ɛ kʼ h au b m ʒ tʃ’ˤ θ ʔ z ɬ l i ʁ s d ʃ ʕ o ħ f g ɬˤ j
lawu_lawu1238	Lawu	lawu1238	Sino-Tibetan	Eurasia	24.133878	101.498795	32	22	6	0	4	22	10	3.6666666666666665	tsʰ u e m s l tɕ au pʰ tʰ ie t tɕʰ o k i j v ŋ ts ua a w n ai x z p ə f kʰ ɕ
bashkir_bash1264	Bashkir	bash1264	Turkic	Eurasia	53.5967	56.5594	36	27	9	0	0	27	9	3.0	i j ʊ w ɒ x ɵ ŋ v n m b f g q z s ð y ʒ h l ɤ θ ʔ t p d ø k ʁ tʃ r ə æ ʃ
lelepa_lele1267	Lelepa	lele1267	Austronesian	Papunesia	-17.6042	168.202	20	14	6	0	0	14	6	2.3333333333333335	t aː s p u kpʷ i e n a r w f m o j k ŋ l ŋmʷ
aymaracentral_cent2142	Central Aymara	cent2142	Aymaran	South America	-17.0	-68.5	33	27	6	0	0	27	6	4.5	kʼ kʰ m pʼ ʃ ʎ q s̪ a tʃʰ χ aː ɲ w tʃ k t̪ʰ pʰ tʃʼ j ɾ̪ t̪ p h l̪ t̪ʼ i iː qʰ uː u qʼ n̪
chukchansi_yoku1256	Northern Yokuts	yoku1256	Yokutsan	North America	36.3167	-119.721	37	27	10	0	0	27	10	2.7	u j a aː iː pʼ i m ʔ kʼ ʃ kʰ tʃʰ tʃʼ t̪ʼ ɛː p x n n̰ w̰ l̪ l̪̰ t̪ʰ h m̰ j̰ pʰ w uː k s ɛ ɔː tʃ t̪ ɔ
slaveharedialectnorth_nort2942	North Slavey	nort2942	Athabaskan-Eyak-Tlingit	North America	63.2671	-123.641	40	31	9	0	0	31	9	3.4444444444444446	ɛ̃ f ɾ kʼ ʃ x p m n tʼ i k ʒ ts kʷ t s kʰ ʔ õ ɬ tɬ ɣ ɛ o a z tʰ ĩ w tsʼ tʃʼ tʃ j u h w̰ e tɬʼ l
silti_silt1240	Silt'e	silt1240	Afro-Asiatic	Africa	7.77004	38.1449	34	24	10	0	0	24	10	2.4	kʼ b t ʔ g k oː j aː d i eː ʒ dʒ h tʼ iː e n o m ɲ l a s f ɾ tʃ z uː w u ʃ tʃʼ
bisu_bisu1244	Bisu	bisu1244	Sino-Tibetan	Eurasia	20.8542	99.9862	38	29	9	0	0	29	9	3.2222222222222223	ɔ e u kʰ ɯ ŋ ɳ ⁿd o k tʃʰ pʰ j̊ m̥ ʃ ŋ̊ c æ tsʰ w m l̥ i n s p ⁿb l ɳ̊ t tʰ j ⁿg n̥ a h ə ts
selkuptaznortherndialect_selk1253	Selkup	selk1253	Uralic	Eurasia	59.9409	82.3004	38	16	22	0	0	16	22	0.7272727272727273	iː n e ɯː ʎ øː ɒː ə y a̟ əː s̪ l p ɯ ɒ aː q ɲ j yː ø ŋ β̞ k oː r ʃ eː a̟ː uː a u o i ʈ t̪ m
embera_embe1262	Emberá-Chamí	embe1262	Chocoan	South America	4.8791	-76.0749	30	18	12	0	0	18	12	1.5	b u d ʋ a ẽ e i ø ũ w ʔ h p ɾ tʃ ã m ɗ s ɓ ĩ ʉ̃ k n j ø̃ ʉ t r
mbane_mbaa1245	Mba	mbaa1245	Atlantic-Congo	Africa	1.06885	25.143	31	22	7	2	0	24	7	3.142857142857143	k ⁿgb a n’ i l’ p ⁿg gb ⁿdʒ w ɗ’ f tʃ g tʼ ɔ e nd’ d’ ɓ ɛ dʒ o kp ⁿb b n̠ j v u
bagirmi_bagi1246	Bagirmi	bagi1246	Central Sudanic	Africa	11.52392	14.769495	39	30	9	0	0	30	9	3.3333333333333335	ɖ p w ɲ ɛ e ɐ g n̪ ⁿg ʈ c ⁿɟ ʃ ⁿb i o ɔ u ɓ t̪ sʼ m ⁿd̪ ə ʄ k ᶑ h ʔ j b ɟ z’ ṛ ŋ a ɭ d̪
comanche_coma1245	Comanche	coma1245	Uto-Aztecan	North America	34.0	-101.0	27	14	12	0	1	14	13	1.1666666666666667	w h uː ɨ aː u ɾ ʔ j s t̪ i m n̪ iː ai e p β ts̪ oː ɨː k kʷ a eː o
amahuaca_amah1246	Amahuaca	amah1246	Pano-Tacanan	South America	-10.2012	-72.3208	22	14	8	0	0	14	8	1.75	õ j h p ɯ̃ m ç ʔ n’ ɯ θ s̪ k ɪ ɾ’ tʃ ã w tʼ o ɪ̃ a
creeplains_plai1258	Plains Cree	plai1258	Algic	North America	51.2437	-110.463	18	11	7	0	0	11	7	1.5714285714285714	ts oː k m i p w t eː a iː o kʷ s n j aː h
urubukaapor_urub1250	Urubú-Kaapor	urub1250	Tupian	South America	-2.46455	-46.2204	27	15	12	0	0	15	12	1.25	ʔ h ũ õ ẽ m ŋʷ sʼ a i ã kʷ ĩ tʼ w ɾ’ u k n’ ʃ o e p ɨ̃ ɨ ŋ j
tol_toll1241	Tol	toll1241	Jicaquean	North America	14.6686	-87.0372	28	22	6	0	0	22	6	3.6666666666666665	s k h a ʔ kʰ t̰ m t k̰ tʰ tsʰ ŋ pʰ l ts β e o p̰ j w i u ts̰ n ɨ p
yoruba_yoru1245	Yoruba	yoru1245	Atlantic-Congo	Africa	7.15345	3.67225	29	18	11	0	0	18	11	1.6363636363636365	gb n dʒ k e o j ɔ̃ f t ɛ d b ɾ ũ m ɔ ɛ̃ s h ĩ kp l ʃ u i w g a
efik_efik1245	Efik	efik1245	Atlantic-Congo	Africa	4.89379	8.38121	20	13	7	0	0	13	7	1.8571428571428572	m i e ɲ j n b ɵ u ɔ k s ɛ f a t ŋʷ d w kp
thakalitukchedialect_thak1245	Thakali	thak1245	Sino-Tibetan	Eurasia	28.7014	83.6466	31	19	12	0	0	19	12	1.5833333333333333	l̥ m l tʰ r̝̥ tsʰ e̤ a̤ t ə i̤ e w ɾ u t̪ʰ o kʰ t̪ ts pʰ j ŋ r a n̪ o̤ i ə̤ ṳ p
ahtna_ahte1237	Ahtena	ahte1237	Athabaskan-Eyak-Tlingit	North America	61.7068	-144.889	37	27	10	0	0	27	10	2.7	ɛ χ s iː kʼ tɬʼ n ɐ ɬ tɬʰ kʰ ɔ qʰ ŋ h oː z uː ʁ tsʰ æː ɮ ʊ tʼ t tɬ tʰ ɪ tsʼ ʔ k ts aː qʼ q p hʷ
tigre_tigr1270	Tigre	tigr1270	Afro-Asiatic	Africa	17.3494	38.2233	36	29	7	0	0	29	7	4.142857142857143	f j z t̪ʼ oː kʼ l tʃ w pʼ ʔ n̪ h tsʼ iː ts ʕ dʒ k r eː ə ʒ uː d̪ æː ɐ g b ħ m s x ʃ t̪ tʃʼ
huambisa_huam1247	Huambisa	huam1247	Chicham	South America	-3.99109	-77.9797	22	14	8	0	0	14	8	1.75	k n ɯ tʃ j ĩ s ã ɯ̃ p w a ŋ i ts ũ u ʃ x m ɾ t
nuxalk_bell1243	Bella Coola	bell1243	Salishan	North America	52.3448	-126.689	34	28	6	0	0	28	6	4.666666666666667	χʷ s l tɬʼ aː w ʔ kʷ χ a u qʼ j xʷ m iː kʼʷ uː ç qʷ q qʼʷ i k’ʲ pʼ ɬ t̪ʼ tsʼ t̪ kʲ h p n̪ ts
urarina_urar1246	Urarina	urar1246		South America	-4.44006	-75.4211	45	17	20	0	8	17	28	0.85	k õː eː aː a ʉ̃ː ɲ ɽ s i tɕ ãː hʲ o ẽː ʃ e kʷ ʉː ʉ ãũ h ĩ ĩː fʷ t iː ai b ã aʉ oː au l n ẽ ae ãĩ d ãẽ ʉ̃ ãʉ̃ m õ hʷ
emerillon_emer1243	Teko	emer1243	Tupian	South America	3.23694	-52.3699	30	16	14	0	0	16	14	1.1428571428571428	t u w tʃ j ə̃ b s z ĩ a ʔ ẽ ã l kʷ h õ e i ũ g ɨ̃ p dʒ k o ə ɨ d
gunya_marg1253	Margany	marg1253	Pama-Nyungan	Australia	-26.789	144.892	31	25	6	0	0	25	6	4.166666666666667	ɻ t aː l iː r n d̠ g t̪ t̠ d̪ p ɭ w ɳ ŋ n̠ l̠ u a d n̪ ʈ j m k b uː ɖ i
chaha_seba1251	Sebat Bet Gurage	seba1251	Afro-Asiatic	Africa	8.11879	37.9891	45	36	9	0	0	36	9	4.0	w s o tʼ pʷ kʼ f ɛ kʲ xʲ p r l k’ʲ fʷ n tʃʼ ɨ a ɔ z kʷ m ʒ tʃ ʃ u b x gʷ g j gʲ mʷ bʷ i t β̞ d e k xʷ dʒ ə kʼʷ
ngizim_ngiz1242	Ngizim	ngiz1242	Afro-Asiatic	Africa	12.1051	11.0178	41	34	7	0	0	34	7	4.857142857142857	ʒ ɽ a z ɨ ʃ gʷ i ⁿg l v d̰ t n ɬ r k g aː h ⁿb ɲ ⁿgʷ j b f d c m eː oː kʷ ɟ ⁿd s u w p ɮ b̰ ɟ̰
tsimshiancoast_nucl1649	Southern-Coastal Tsimshian	nucl1649	Tsimshian	North America	52.59103	-128.544545	44	38	6	0	0	38	6	6.333333333333333	iː n̰ d q b qʼ ɢ i p kʲ kʷ ts ɬ j̰ ɰ̰ tʼ m h gʷ k’ʲ pʼ k n s x gʲ w kʼ l̰ g w̰ a uː dz u j l kʼʷ m̰ ɰ t ʔ aː tsʼ
assamese_assa1263	Assamese	assa1263	Indo-European	Eurasia	26.0876	91.2932	38	23	15	0	0	23	15	1.5333333333333334	ɛ̃ n i ɹ ŋ ẽ s gʱ g ɔ j x bʱ k ã z β̞ kʰ ɒ u ĩ b ũ d õ ɦ ɒ̃ m dʱ p o tʰ ɛ e l a pʰ t
bocotachiriquidialect_bugl1243	Buglere	bugl1243	Chibchan	North America	8.57695	-81.25648	28	15	12	1	0	16	12	1.25	o h ĩ m w e i ŋ l’ ⁿb k ã n’ ⁿg ɾ’ ɔ̃ sʼ ɛ a nd’ tʼ ɔ j ɲ ũ tʃ u ɛ̃
lahu_lahu1253	Lahu	lahu1253	Sino-Tibetan	Eurasia	21.2701	100.214	35	26	9	0	0	26	9	2.888888888888889	ɯ kʰ q tʃ ɣ qʰ k ʔ a pʰ ɨ tʰ ɛ v d f t ɔ i l p n g x ʝ e m ŋ tʃʰ ə dʒ b w ʃ o
teduray_tiru1241	Tiruray	tiru1241	Austronesian	Papunesia	6.77321	124.127	22	16	6	0	0	16	6	2.6666666666666665	h ɔ t ɛ i d a j r s w n b ʔ k m ɨ u ɸ ŋ l g
mazahuacentral_cent2144	Central Mazahua	cent2144	Otomanguean	North America	19.7357	-100.018	68	53	15	0	0	53	15	3.533333333333333	ⁿb u ɲ̰ k ɾ ⁿgʷ ɛ n̰ kʷ kʷʰ ⁿg p tʰ o ɲ̊ tʃʼ m ɔ pʰ j̰ j m̥ m̰ ⁿdʒ ɲ w n̥ ã tʼ ũ g ⁿd a ɣ ⁿdz ɗ sʼ ʍ ʃ ɓ kʰ ʒ tʃʰ n gʷ ʔ t ĩ i kʼ w̰ tsʰ s õ tsʼ kʼʷ ə̃ ẽ ɐ β j̊ tʃ z ə ts sʰ h e
kyrgyz_kirg1245	Kirghiz	kirg1245	Turkic	Eurasia	42.0	74.0	36	22	14	0	0	22	14	1.5714285714285714	k s ɛː m n ɛ u ɢ x j g z ʃ uː yː ŋ ɨ øː b t̪ ø oː ts β d̪ l a y aː i r p f tʃ q o
oromoharar_east2652	Eastern Oromo	east2652	Afro-Asiatic	Africa	8.67428	41.4395	36	26	10	0	0	26	10	2.6	w d̪ h tʃ g o x b aː ɗ n̪ u tʃʼ a i ʔ kʼ ɲ z l pʼ dʒ iː oː k eː e t̪ʼ f t̪ j uː s m ʃ r
bilua_bilu1245	Bilua	bilu1245		Papunesia	-7.92388	156.663	21	16	5	0	0	16	5	3.2	o p ɲ m ŋ z β r ⁿd a ⁿg ⁿdʒ k i e t u s ⁿb n l
maltesestandard_malt1254	Maltese	malt1254	Afro-Asiatic	Eurasia	35.8884	14.4508	35	24	11	0	0	24	11	2.1818181818181817	uː ʒ r t̪ d̪ f k ɪː aː s g tʃ b dʒ a ʃ p w n ɛː ʔ ɛ m ts ɔː l ʊ z ɔ j iː dz v ɪ h
tunica_tuni1252	Tunica	tuni1252		North America	30.9888	-92.5403	28	21	7	0	0	21	7	3.0	u o g w j tʃ r s ʰp ʰk k a d n ʰtʃ ʰt i ɔ l ʃ ʔ ɛ h b m p e t
yareba_yare1248	Yareba	yare1248	Yareban	Papunesia	-9.50651	148.605	18	13	5	0	0	13	5	2.6	k m d a ɛ b ɸ v ɔ j dz o i n ɾ s g t
quechuacochabamba_sout2991	South Bolivian Quechua	sout2991	Quechuan	South America	-20.9201	-66.3331	33	28	5	0	0	28	5	5.6	qʰ q u ɛ j ʃ kʰ pʼ ɔ tʃ t̪ʼ t̪ ʒ tʃʰ ɸ ʎ ɲ x i s l qʼ tʃʼ kʼ pʰ n a p k r t̪ʰ m w
tsou_tsou1248	Tsou	tsou1248	Austronesian	Papunesia	23.216	120.787	23	17	6	0	0	17	6	2.8333333333333335	ʔ w ts ɓ n e a i h k m o u z ɗ p f t v ɨ ŋ s j
kpelle_libe1247	Liberia Kpelle	libe1247	Mande	Africa	6.92048	-9.96128	34	22	12	0	0	22	12	1.8333333333333333	ɪ ɾ ɣ kp ŋ g gʷ b ɔ s ɛ i p ã ĩ m d v kʷ t ɔ̃ ũ k u ɓ l ʊ j gb ɛ̃ n z a f
nara_nara1262	Nara	nara1262		Africa	15.3251	37.499	35	25	10	0	0	25	10	2.5	ɕ ⁿg n̪ ɾ ŋ ⁿb ⁿd̪ f h k s b j d̪ u ⁿgʷ tɕ ɲ iː oː a aː dʑ i l w eː e gʷ uː o g t̪ m kʷ
mundari_mund1320	Mundari	mund1320	Austroasiatic	Eurasia	23.03	85.85	26	21	5	0	0	21	5	4.2	t̪ ɖ g tʃ h i u k ʈ ŋ r̪ ɳ s̪ dʒ ɽ b ɔ d̪ a n̪ m j p ɛ w l̪
moxo_igna1246	Ignaciano	igna1246	Arawakan	South America	-15.1188	-65.3993	19	15	4	0	0	15	4	3.75	i k a n̠ β̞ ɾ ɛ n tʃ u j ŋ ʃ m t p ts ʔ s
murle_murl1244	Murle	murl1244	Surmic	Africa	6.69756	33.988	41	23	18	0	0	23	18	1.2777777777777777	ʊ ɛː oː ʊː ɗ j v z dʒ ŋ eː w o ɔ ɾ g uː u e ɔː ɛ aː d ɓ a ts l ɠ ɪː k tʃ ɲ t m ð iː b n p ɪ i
digaro_diga1241	Tawra	diga1241	Sino-Tibetan	Eurasia	28.4993	96.8803	40	31	9	0	0	31	9	3.4444444444444446	ɛ ɨ a ɐ̃ p l u ɟ n̪ ẽ ɹ ts̪ʰ õ d̪ s z w b ts̪ h m tʃ tʃʰ j t̪ʰ dʒ cʰ c k kʰ ŋ g ɔ dz̪ t̪ pʰ ʃ i ɲ ʔ
wikmunkan_wikm1247	Wik-Mungkan	wikm1247	Pama-Nyungan	Australia	-13.98051	141.81611	26	16	10	0	0	16	10	1.6	ɔ ɛ n t ɛː k w ʔ ɹ u uː n̠ iː n̪ a t̠ j aː i r t̪ m ɔː p ŋ l
ejagham_ejag1239	Ejagham	ejag1239	Atlantic-Congo	Africa	5.54442	8.90959	25	18	7	0	0	18	7	2.5714285714285716	tʃ u k b ŋ kp a dʒ g w n ɛ i m y s ɾ gb p f t ʌ ɔ j d
gadsup_gads1258	Gadsup	gads1258	Nuclear Trans New Guinea	Papunesia	-6.31631	145.997	15	9	6	0	0	9	6	1.5	n ʔ j eː ɐ u t m oː i a̟ː p k β d
usan_usan1239	Usan	usan1239	Nuclear Trans New Guinea	Papunesia	-4.84265	145.362	20	14	6	0	0	14	6	2.3333333333333335	t s j a w i d o ⁿb ⁿd ʔ u ɐ m n b g p ⁿg e
georgian_nucl1302	Georgian	nucl1302	Kartvelian	Eurasia	41.850397	43.78613	33	28	5	0	0	28	5	5.6	tʃʰ kʼ β̞ kʰ qʼ ʃ tʃ h tʃʼ lˠ ʒ i a tsʰ t̪ʼ e s pʰ o χ p ɾ k m z n̪ ʁ t̪ tsʼ pʼ u ts t̪ʰ
paakantyisouthern_darl1243	Paakantyi	darl1243	Pama-Nyungan	Australia	-32.7021	142.695	27	21	6	0	0	21	6	3.5	c t̪ ɪː ʎ w ɽ ŋ m ɪ ɳ n n̪ aː a j ɲ ɭ l̪ k p ʊ t ʊː ʈ ɾ r l
nimboran_nucl1633	Nimboran	nucl1633	Nimboranic	Papunesia	-2.5803	140.179	21	14	7	0	0	14	7	2.0	ⁿg d ɔ b ⁿd k h ʉ s ŋ m a ⁿb p o n e u i ɺ t
seri_seri1257	Seri	seri1257		North America	28.9877	-112.384	25	17	8	0	0	17	8	2.125	iː x i χ m aː oː s χʷ ɬ o ɸ ʂ ɛ l j a xʷ k ɛː ʔ kʷ p t̪ n̪
noni_noon1243	Noone	noon1243	Atlantic-Congo	Africa	6.37256	10.5707	33	19	14	0	0	19	14	1.3571428571428572	ɲ j dʒ f o n’ ə tʼ ɔ iː ŋ w ʃ ɛː k b g uː i l’ a ɰ aː d’ tʃ ʊ ɛ m ʔ ɔː oː sʼ eː
anguthimri_alng1239	Alngith	alng1239	Pama-Nyungan	Australia	-12.5324	141.938	44	27	17	0	0	27	17	1.588235294117647	ⁿd β n̠ o ɣ ŋ ɹ m æ n̪ u eː i l ʔ r k a y æ̃ ø iː ⁿb e uː ⁿd̪ aː p ⁿdʳ æː ẽ ð w t̠ ĩ t tʳ n j ã t̪ ⁿg ⁿd̠ ʒ
juma_juma1249	Júma	juma1249	Tupian	South America	-7.27501	-64.0998	24	12	12	0	0	12	12	1.0	m g n’ tʼ ɔ h a ĩ β i ɨ ɛ ʔ u ɔ̃ j ɛ̃ ŋ ũ ɨ̃ ɾ’ ã p k
kannada_nucl1305	Kannada	nucl1305	Dravidian	Eurasia	13.5878	76.1198	40	30	10	0	0	30	10	3.0	ɭ tʃ i β̞ gʱ a n p ɖʱ kʰ pʰ k o ʈʰ g dʒ s̪ e bʱ eː h iː aː l̪ u t̪ʰ d̪ʱ ɾ d̪ t̪ ɖ uː ʂ b oː ʃ m ʈ ɳ j
danilowergrandvalley_lowe1415	Lower Grand Valley Dani	lowe1415	Nuclear Trans New Guinea	Papunesia	-4.25684	138.992	25	13	7	0	5	13	12	1.8571428571428572	ɪ k ei ɔ t s ai l m u ɛ ŋ ʊ w ou i au kʷ a ʔ oi j n p h
koromfe_koro1298	Koromfé	koro1298	Atlantic-Congo	Africa	14.046	-1.96187	38	17	21	0	0	17	21	0.8095238095238095	ʊ p ə ŋ ũ ɛ̃ õ g ɐ̃ a u f ɪ̃ z d v ʊ̃ l s ĩ m ɐ h ɔ e w t ã n ɔ̃ ɛ ẽ k j i ɪ o b
albaniantoskdialect_tosk1239	Northern Tosk Albanian	tosk1239	Indo-European	Eurasia	41.0	20.0	36	29	7	0	0	29	7	4.142857142857143	ə ts f z i ʃ ɹ h θ b ʒ a e v u dz l n̠ m o t̪ j ð ɟ s lˠ p ɾ c y tʃ d̪ dʒ g n k
kuukthaayorre_thay1249	Thayore	thay1249	Pama-Nyungan	Australia	-14.8159	142.034	26	16	10	0	0	16	10	1.6	oː l ɻ r o t̪ n̪ ʔ uː a n j c aː p ŋ u ɲ ɛː t iː w ɛ m i k
piraha_pira1253	Pirahã	pira1253		South America	-6.77713	-61.8167	11	8	3	0	0	8	3	2.6666666666666665	i h p t k s g o ʔ a b
brahui_brah1256	Brahui	brah1256	Dravidian	Eurasia	29.04	66.56	37	27	8	0	2	27	10	3.375	uː ɖ dʒ oː ai aː au b eː i w ɬ x ɳ ʈ r j k tʃ l t̪ n̪ p z a u d̪ s ɽ m g ʃ ɣ h f ʒ iː
sundanese_sund1252	Sundanese	sund1252	Austronesian	Papunesia	-6.89708	107.106	32	18	14	0	0	18	14	1.2857142857142858	m ə s t j ɛ̃ a ɯ i tʃ dʒ k d n ã p l g u ɯ̃ ɔ̃ ə̃ ɔ ɲ r ũ h ŋ b ĩ w ɛ
sinhala_sinh1246	Sinhala	sinh1246	Indo-European	Eurasia	8.0	81.0	40	27	13	0	0	27	13	2.076923076923077	æː n̪ ɸ k ɖ a̟ g e b uː ⁿb ʊ j ɪ eː m c ə ɑ ʈ ʃ oː ⁿg p s ⁿɟ ʋ l iː ɲ t̪ ⁿɖ aː h d̪ o ɟ r ŋ ⁿd̪
jacalteceastern_popt1235	Popti'	popt1235	Mayan	North America	15.6609	-91.6633	32	27	5	0	0	27	5	5.4	χ p ŋ tsʼ tʼ l w qʼ e s pʼ ts u j ɾ a k m ʈʂ’ h o kʼ ʈʂ ʃ i t ɸ tʃ ʔ ʂ n tʃʼ
gunin_kwin1241	Kwini	kwin1241	Worrorran	Australia	-14.2515	126.562	28	17	11	0	0	17	11	1.5454545454545454	ɭ ʈ t i ɳ w m uː c ŋ p oː j ɾ eː e ɻ ɑː iː ɲ ʎ u o l a k ɨ n
alawa_alaw1244	Alawa	alaw1244	Mangarrayi-Maran	Australia	-15.5458	134.282	26	22	4	0	0	22	4	5.5	l ɹ ⁿɖ ⁿb j t ʈ m n p n̠ i ɯ ⁿd̠ ɭ ⁿg k ɛ ɳ r ŋ ⁿd w t̠ l̠ a
yelidnye_yele1255	Yele	yele1255		Papunesia	-11.3796	154.127	91	49	34	8	0	57	34	1.4411764705882353	ɣ ə̃ː nm tp pʲ ɑ̃ː β ĩː ə ɑː æː ⁿt tpʲ ɛ̃ ⁿmʲ ɑ ɔ̃ ɔː kⁿʷ pʷ ɯ t̠pʲ ⁿt̠p ŋʷ ɔ eː e tʲ ⁿkʷ uː p u mʷ əː ɯː kp æ ə̃ nʲ ⁿk m nmʲ βʲ ⁿtʲ ɑ̃ t̠ kʷ o ⁿt̠pʲ ⁿpʲ ⁿt̠ iː æ̃ː æ̃ ɛː t̠ⁿ ⁿpʷ l kʲ lʲ ŋm ⁿtp ⁿpʲʷ oː ɛ̃ː k ⁿtpʲ kpⁿ ⁿkp mʲ βʳ ⁿt̠ʲ ɛ pʲʷ t kⁿ ũː ĩ n̠ n ɔ̃ː j t̠pⁿ n̠ʲ t̠ʲ t̠p mʲʷ ũ ŋ ⁿp i
supyirekampwodialect_supy1237	Supyire Senoufo	supy1237	Atlantic-Congo	Africa	11.632	-5.87709	33	21	12	0	0	21	12	1.75	ɛ̃ n f i p ɲ ã l u k dʒ m ɛ ŋ w b ũ d o z ʔ s a ɔ ʒ tʃ e t j ʃ ĩ v ɔ̃
dumo_vani1248	Vanimo	vani1248	Sko	Papunesia	-2.68501	141.258	27	12	15	0	0	12	15	0.8	a e β ɨ̃ i b d ɺ ã ɔ n ɨ p ɦ j u ɲ ɛ̃ o ɔ̃ õ m t ĩ ɛ ẽ s
tohonooodham_toho1245	Tohono O'odham	toho1245	Uto-Aztecan	North America	31.7973	-111.995	30	20	10	0	0	20	10	2.0	s̪ ɨ i iː ʂ d̪ ʔ β̞ n̠ a k u ɔ j b h uː ɨː ɺ̣ ɖ tʃ g t̪ n̪ ɔː p aː m ɲ dʒ
selknamcentraldialect_onaa1245	Selk'nam	onaa1245	Chonan	South America	-54.0	-68.5	26	20	6	0	0	20	6	3.3333333333333335	qʼ j t̪ ɔ tʃʼ h ʔ t̪ʼ o m k pʼ r̠ x l̪ e q n̪ ə kʼ w s ɛ ʃ p ɐ
khoekhoe_nama1264	Nama (Namibia)	nama1264	Khoe-Kwadi	Africa	-25.0747	17.9767	51	32	8	0	11	32	19	4.0	o ŋǃ ǃ ⁿǁˀ ŋǂ s ⁿǂ ɾ ã õã ⁿǃˀ ⁿǀˀ ãĩ ⁿǂʰ oa au ⁿǀ ãũ ts k h ui ʔ m p ũ ⁿǁ ⁿǂˀ ǀ ũĩ i ŋǁ oe ao ⁿǁʰ ⁿǀʰ ai ǂ u ǁ t ⁿǃʰ n x ĩ e ae a ⁿǃ kx ŋǀ
thaistandard_thai1261	Thai	thai1261	Tai-Kadai	Eurasia	14.192	100.671	42	21	18	0	3	21	21	1.1666666666666667	ɯ pʰ f u i ɯa tɕ ɛː tɕʰ s d̪ ɛ t̪ h w ŋ ʔ j r n ɔ oː ɔː o eː a e iː ɯː p uː l b kʰ m k ua aː ia ɤ ɤː t̪ʰ
bariba_baat1238	Baatonum	baat1238	Atlantic-Congo	Africa	9.63186	2.99607	30	18	12	0	0	18	12	1.5	d n i e s ũ ã kp ɛ u j o h ĩ f ɔ t w ɔ̃ ɛ̃ z g p l k gb ɺ m b a
tobati_toba1266	Tobati	toba1266	Austronesian	Papunesia	-2.56434	140.71	23	18	5	0	0	18	5	3.6	b ŋ m u s ɸ r o n ɲ k a t j ɟ e ɰ i w c h d̪ ʃ
hunzib_hunz1247	Hunzib	hunz1247	Nakh-Daghestanian	Eurasia	42.0808	46.1369	50	34	16	0	0	34	16	2.125	ɑ̃ ɑ ʃ k a tɬʼ ʒ ĩ ɨ̃ ʔ ɛ̃ ʡ pʼ t̪ p ħ s d̪ x h tɬ χ qʼ ɨ ɛ w t̪ʼ b u ã ə̃ z ũ tʃʼ ə r tsʼ n ɬ i m õ l o kʼ q ts j g tʃ
umbundu_umbu1257	Umbundu	umbu1257	Atlantic-Congo	Africa	-12.4763	14.4148	29	20	8	1	0	21	8	2.5	e ɦ̃ sʼ l’ p v n’ ũ o l’̃ ⁿb ã ⁿg m h nd’ k ɲ ĩ i tʼ u f ŋ ṽ c ⁿɟ j̃ a
natchez_natc1249	Natchez	natc1249		North America	31.75	-91.33	28	18	10	0	0	18	10	1.8	ʃ k eː iː ʍ o n’ l’ uː i w m̥ p u j̊ a n’̥ tʼ j oː h m aː tsʼ e ʔ kʷ l’̥
tonkawa_tonk1249	Tonkawa	tonk1249		North America	30.25	-96.75	35	25	10	0	0	25	10	2.5	o j kʷ eː i n̪̰ k n̪ aː tʃ kʼʷ h tʼ xʼ u ʃ m̰ l̪ kʼ iː xʷ x’ʷ w l̪̰ p m ʔ e oː j̰ uː tʃʼ x a w̰
imonda_imon1245	Imonda	imon1245	Border	Papunesia	-3.31228	141.171	22	12	10	0	0	12	10	1.2	s ɒ i u æ f ɜ l o ⁿd ɛ t m a ⁿb x p ⁿg n e k ɔ
tzutujileasternsanjuanlalagunadialect_tzut1248	Tz'utujil	tzut1248	Mayan	North America	14.6351	-91.2012	32	22	10	0	0	22	10	2.2	e j oː tʃʼ o u r q ɗ aː ʔ t tʃ iː ʃ ɓ n m kʼ s w i a p ʛ k ts tsʼ l eː χ uː
makah_maka1318	Makah	maka1318	Wakashan	North America	48.3258	-124.616	44	34	10	0	0	34	10	3.4	n h qʷ tsʼ eː i l p t s tɬ ʃ q oː e uː ts x tʃʼ χʷ m j kʷ ʔ b qʼʷ tʃ æː iː tɬʼ qʼ ɬ kʼ o pʼ d χ a u k xʷ w tʼ kʼʷ
epena_epen1239	Epena	epen1239	Chocoan	South America	4.25877	-77.3566	31	17	14	0	0	17	14	1.2142857142857142	tʰ b ɨ̞̃ kʰ ɨ̞ e h r g i s ẽ o ɨ̃ ĩ d a ɾ k t ũ tʃ β̞ ɨ j pʰ ʔ u p ã õ
finnish_finn1318	Finnish	finn1318	Uralic	Eurasia	64.7628	25.5577	33	17	16	0	0	17	16	1.0625	i r’ øː p a g h iː j æ ɛ ø n̪ ʃ yː æː u t̪ uː ŋ d̪ ɛː b y oː f k aː l̪ o s v m
wuvulu_wuvu1239	Wuvulu-Aua	wuvu1239	Austronesian	Papunesia	-1.73938	142.851	16	11	5	0	0	11	5	2.2	u n x p b i ʔ a w m j t o ɺ f ɛ
tangaleshongomdialect_nucl1696	Tangale	nucl1696	Afro-Asiatic	Africa	9.75444	11.3228	41	23	18	0	0	23	18	1.2777777777777777	ʃ u ɪ ⁿdʒ eː ⁿb ɔ j ʔ o n uː z e aː t s h p r ⁿd b ɛː a i w ɪː g k ʒ m l ɗ oː ʊ iː d ɛ ʊː ɔː ɓ
jicarillaapache_jica1244	Jicarilla Apache	jica1244	Athabaskan-Eyak-Tlingit	North America	36.8079	-107.007	50	32	18	0	0	32	18	1.7777777777777777	kʷ ẽ kʷʰ tɬ̪ʼ ɣʷ kʼ ts̪ʼ tɬ̪ʰ ɪ j ẽː i ɬ̪ s̪ ã ĩː m p ts̪ʰ tɬ̪ tʃ kʰ ʃ x k e n̪ ɪ̃ t̪ʼ tʃʼ ʒ t̪ eː t̪ʰ oː o a iː z̪ l̪ aː xʷ ʊ ɜ ts̪ õ ɣ d̪ tʃʰ ãː
navajo_nava1243	Navajo	nava1243	Athabaskan-Eyak-Tlingit	North America	36.33	-109.38	51	35	16	0	0	35	16	2.1875	n ã ãː tsʼ eː l ɣ tʃ ts aː õ ʃ z ĩ õː p ʔ kʼ m kʷ k i tʃʰ ɣʷ m̰ ɬ kxʷ tɬʰ e iː j tʶ tɬʼ tʼ oː tsʰ h ĩː o s n̰ ẽ w x tʃʼ kx a ʒ tɬ t ẽː
carnicobarese_carn1240	Car Nicobarese	carn1240	Austroasiatic	Eurasia	9.18853	92.7671	35	17	18	0	0	17	18	0.9444444444444444	j ɨ ɔ ɲ ɔː aː iː k i ɾ ʐ s ɛː ɨː tʃ β a əː ʔ t oː n e f o uː ŋ eː u ə m ɛ l h p
manange_cent1394	Central Mashan Hmong	cent1394	Hmong-Mien	Eurasia	25.60046	106.39604	40	30	10	0	0	30	10	3.0	tʃʰ ũ kʰ ẽ ĩ pʷʰ ã kʷ ʃ l e mʷ pʰ u pʷ a kʷʰ k n ɾ p t̪ʰ ɲ ɐ m ts ʈ i ŋ t̪ tsʰ o h tʃ ʔ s ʂ ŋʷ j ʈʰ
phlong_pwon1235	Pwo Northern Karen	pwon1235	Sino-Tibetan	Eurasia	18.016	98.2709	34	25	9	0	0	25	9	2.7777777777777777	vʷ tʃ r ɔ fʷ p tʃʰ tʰ o ɣ ə kʰ s̪ h ɲ u e t k ɓ ɗ ʔ m pʰ j n x ŋ ɨ a̟ ʃ l a i
ladakhidialectofleh_lada1244	Leh Ladakhi	lada1244	Sino-Tibetan	Eurasia	33.468	80.6013	38	33	5	0	0	33	5	6.6	tsʰ t̪ʰ kʰ tʃ o pʰ ʈʰ z tʃʰ n dz lʱ ɲ r m ʃ k u ɖ i j g β̞ dʒ p h ʒ a e l d̪ b ʂ s ts ŋ t̪ ʈ
munduruku_mund1330	Mundurukú	mund1330	Tupian	South America	-8.41095	-57.691	37	17	20	0	0	17	20	0.85	ə̰ w ɲ i ḭ ə̃ dʒ ɛ̰ ɾ õ õ̰ p ʃ d ʔ tʃ ĩ s ə̰̃ ə m a k ɛ̃ t ã̰ h o b ɛ̰̃ a̰ j ɛ ḭ̃ n ã o̰
paamese_paam1238	Paama	paam1238	Austronesian	Papunesia	-16.47548	168.23693	26	16	10	0	0	16	10	1.6	r aː j i m eː iː l e o ŋ v uː n a w k oː t ⁿb ⁿd h u p ⁿg s
burmese_nucl1310	Burmese	nucl1310	Sino-Tibetan	Eurasia	20.7926	93.9665	47	34	11	0	2	34	13	3.090909090909091	dʒ tʃ ə g θ b tʃʰ ẽĩ t z m̥ sʰ ɔ h pʰ p ʔ l̥ ɲ̊ l ʊ̃ kʰ n k ŋ̊ ʃ ð u a j n̥ i ɲ o s tʰ ɪ̃ ɹ e ŋ m ɛ ʍ õũ æ̃ w d
midwahgi_nucl1620	Wahgi	nucl1620	Nuclear Trans New Guinea	Papunesia	-6.11629	144.665	23	17	6	0	0	17	6	2.8333333333333335	ⁿd l ʟ ɔ a e ŋ l̪ ts̪ w t n̪ ɪ j k ⁿdz̪ i n m ⁿb u p ⁿg
nivkh_gily1242	Amur Nivkh	gily1242	Nivkh	Eurasia	52.59	140.681	34	28	6	0	0	28	6	4.666666666666667	s ɨ pʰ ɛ a h i z χ tʲʰ t k nʲ n x β u l tʰ q w r ŋ ɣ ɔ p tʲ kʰ qʰ ʁ m j ɸ r̥
jomang_talo1250	Tasomi-Tata	talo1250	Narrow Talodi	Africa	10.6453	30.4815	29	15	14	0	0	15	14	1.0714285714285714	n ɽ ʊː ʊ u ɛː ɛ s a ɪː ɔ g ɲ i r aː ŋ ɔː ɪ ɟ iː d̪ j uː b w m l d
mofugugur_mofu1248	Mofu-Gudur	mofu1248	Afro-Asiatic	Africa	10.567	14.0314	40	34	5	1	0	35	5	6.8	ⁿg r ⁿgb tʃ hʷ t kʷ ɓ j ⁿd s l z ɗ ɮ aː kp w eː b g n p gʷ dʒ ə gb f h v d ⁿdʒ ⁿgʷ k ɬ ⱱ a e m ⁿb
kiribati_gilb1244	Gilbertese	gilb1244	Austronesian	Papunesia	0.179	173.64	20	10	10	0	0	10	10	1.0	o iː uː i p mʷ t u k oː pʷ aː ʋ e ŋ m ɾ a eː n
toratan_rata1244	Ratahan	rata1244	Austronesian	Papunesia	1.07592	124.858	26	21	5	0	0	21	5	4.2	k j n p o ʔ u dʲ ɦ tʲ s t ŋ d i m b β ɲ g w e ɾ l a x
konkani_konk1267	Konkan Marathi	konk1267	Indo-European	Eurasia	18.404	73.994	37	19	18	0	0	19	18	1.0555555555555556	d̪ f w u ə̃ n ã̟ ɭ ʈ l ã t̪ ĩ o i b ɔ̃ k s ɛ̃ ɖ e ɔ tɕʲ ɽ p j dʑʲ ũ g h a̟ õ ə ẽ ɛ a
nhanda_nhan1238	Nhanda	nhan1238	Pama-Nyungan	Australia	-27.42523643	114.2680442	33	27	6	0	0	27	6	4.5	b i d̪ l j n̪ n̠ a ɳ l̪ ɖ ɻ iː aː l̠ p k ɭ ʈ t̠ ŋ uː t g t̪ n u ʔ d d̠ ɹ̪ʲ m w
nepalikathmandudialect_nepa1254	Nepali	nepa1254	Indo-European	Eurasia	28.0	85.0	40	29	11	0	0	29	11	2.6363636363636362	o w t̪ʰ n ɖʱ dz a h ɾ p tsʰ d̪ʱ l i m g ũ b u ʈʰ dzʱ ts ã e pʰ k bʱ d̪ ĩ ʈ ɖ t̪ ẽ ʌ j kʰ s gʱ ʌ̃ ŋ
southeasternpomo_sout2982	Southeastern Pomo	sout2982	Pomoan	North America	38.9354	-122.599	31	26	5	0	0	26	5	5.2	qʼ ɔ a k t̪ʼ χ ʔ pʼ h ɛ tʼ s m ɪ q j t b ʊ kʼ f l d x ʃ w tsʼ p n t̪ ts
kedang_keda1252	Kedang	keda1252	Austronesian	Papunesia	-8.23039	123.77	28	16	12	0	0	16	12	1.3333333333333333	l i̤ æ æ̤ v h ɲ s̪ ɔ n̪ d̪ p ɛ k i ɛ̤ m b ɔ̤ a t̪ ʔ r g a̤ ṳ u j
zoquecopainala_copa1236	Copainalá Zoque	copa1236	Mixe-Zoque	North America	17.2157	-93.3183	18	12	6	0	0	12	6	2.0	u ŋ a h ʌ̃ ɛ m ts w ʔ i o s n p j k t
wari_wari1268	Wari'	wari1268	Chapacuran	South America	-10.69948	-64.56152	21	15	6	0	0	15	6	2.5	j i m̰ p ts r n̰ kʷ a ʔ o t m n ʍ e y ø tp k h
garrwa_gara1269	Garrwa	gara1269	Garrwan	Australia	-17.4504	137.72014	20	17	3	0	0	17	3	5.666666666666667	w a ʊ ɻ ɳ ŋ p ʎ j k ɪ ʈ ɾ l m n t ɲ c ɭ
yulu_yulu1243	Yulu-Binga	yulu1243	Central Sudanic	Africa	8.04124	23.6166	49	34	14	1	0	35	14	2.4285714285714284	gb ʃ uː g ɗʲ ⁿd̪ a tʲ ɓ ŋ ɛː ⁿdʲ aː kp z̪ ⁿb ɔː l̪ p h k i ʔ w v o ⁿgb dʲ d̪ eː j ɛ oː t̪ m e s̪ f ⁿg n̪ ʄ ɔ u r̪ iː ɲ ⁿv ⁿz̪ b
inapari_inap1243	Modern Iñapari	inap1243	Arawakan	South America	-12.4653	-69.3083	36	12	24	0	0	12	24	0.5	m õː ẽː ũ s nʲ eː ãː ɯ̃ i aː oː j ɯ̃ː ʔ ĩ ɯ u ɾ h ã iː ɯː e o ĩː ẽ p õ w tʲ n a t ũː uː
ngarinyin_ngar1284	Ngarinyin	ngar1284	Worrorran	Australia	-16.4006	126.433	23	17	6	0	0	17	6	2.8333333333333335	aː ʎ u e i c ɔ l ʈ a m w ŋ p r j t ɳ ɭ k n ɻ ɲ
totonacpapantladialect_papa1238	Papantla Totonac	papa1238	Totonacan	North America	20.5671	-97.2554	29	17	12	0	0	17	12	1.4166666666666667	u ʃ n i j ɾ tʃ l ṵ uː ʔ q t ḭː s w p a̰ː ɬ iː ṵː aː a̰ ḭ a m h k ts
xavante_xava1240	Xavánte	xava1240	Nuclear-Macro-Je	South America	-14.3017	-52.4367	36	10	26	0	0	10	26	0.38461538461538464	w dʒ ʔ e i p ɔː uː aː ãː əː ẽː h r tʃ o u ɛː ĩː ɔ̃ː ĩ ɔ̃ t eː ə ɛ oː b ɨ a ã ɨː ɔ ẽ iː d
turkish_nucl1301	Turkish	nucl1301	Turkic	Eurasia	39.8667	32.8667	36	24	12	0	0	24	12	2.0	j g p n̪ e œ d̪ h k o ɯ a b tʃ l̪ˠ z iː s ʒ f v ɰ l̠ eː ɾ c ɟ aː u t̪ uː m dʒ y i ʃ
tashlhiyt_tach1250	Tachelhit	tach1250	Afro-Asiatic	Africa	29.7854	-7.77879	39	36	3	0	0	36	3	12.0	g w d’ˤ kʷ j q d’ k qʷ i l’ b t’ˤ tʼ f a ʃˤ ʁʷ ʜ ɾˤ n’ˤ χˤ gʷ ʒ ɾ u z’ˤ s’ˤ ʃ l’ˤ sʼ m ʕ n’ ɦ z’ χ ʁ ʒˤ
amele_amel1241	Amele	amel1241	Nuclear Trans New Guinea	Papunesia	-5.29126	145.687	20	15	5	0	0	15	5	3.0	æ d o w m s b u n e h l ʔ k ʝ gb t i f g
lezgian_lezg1247	Lezgian	lezg1247	Nakh-Daghestanian	Eurasia	41.5157	47.8951	60	54	6	0	0	54	6	9.0	kʼ tʼ j ts b pʼ qʼ ʒ tsʼ y zʷ f qʼʷ pʰ tʃʼ ʃ ʁ qʷʰ i ʔ tʃʰ p qʷ t̪ʷʰ t̪ tsʷʰ l β̞ kʷ ʁʷ h s g a kʷʰ e n̪ r gʷ tsʷ qʰ u d̪ sʷ χʷ kʼʷ χ tʃ t’ʷ æ ts’ʷ x kʰ t̪ʷ k t̪ʰ tsʰ m q z
bulgarian_bulg1262	Bulgarian	bulg1262	Indo-European	Eurasia	43.3646	25.047	28	22	6	0	0	22	6	3.6666666666666665	j t p a d r g s k f ʒ u x n ɛ i ʃ z l ɔ dz m v tʃ b ɤ ts dʒ
evenki_even1259	Evenki	even1259	Tungusic	Eurasia	61.972	94.689	29	18	11	0	0	18	11	1.6363636363636365	b uː aː ŋ p i dʒ h ə ɲ β j o r oː eː d̪ g m n əː iː l u s k tʃ a t̪
tamil_tami1289	Tamil	tami1289	Dravidian	Eurasia	10.520219	78.825989	36	24	10	0	2	24	12	2.4	ʋ e aɪ h d u a oː aː t̪ eː ʂ ɲ ʈ ɭ aʊ s m p o k ŋ j ɖ dʒ b uː ɾ iː tʃ l ɕ g ʐ n i
quechuaimbabura_imba1240	Imbabura Highland Quichua	imba1240	Quechuan	South America	0.31776	-78.3729	25	22	3	0	0	22	3	7.333333333333333	ɾ ɲ s j ts i l x ɸ m b tʃ w a g p d ʒ β k t u n z ʃ
westernkeres_west2632	Western Keres	west2632	Keresan	North America	34.9733	-107.517	54	39	15	0	0	39	15	2.6	aː w̰ tʲ m u̥ kʼ i̥ ɛ tsʰ ɨ̥ ḁ ɨ i ʃʼ tʲʰ w tʰ t uː h ɛː ʈʂ’ ɛ̥ ɨː t’ʲ ʈʂʰ ʃ sʼ tsʼ ɾ tʃ iː p pʰ ɾ̰ tʼ tʃʰ ʂ’ k kʰ ʈʂ n u j̰ s ʂ n̰ m̰ pʼ j ʔ tʃʼ a ts
sindhi_sind1272	Sindhi	sind1272	Indo-European	Eurasia	26.0	69.0	66	46	20	0	0	46	20	2.3	ɖʱ ə x ũ ʊ̃ ɳʱ ɽ ɓ bʱ l̪ ɪ̃ l̪ʱ g t̪ o ɣ k gʱ tʃʰ b ɗ h ə̃ s mʱ ĩ dʒ ɛ̃ ʈ ɖ d̪ dʒʱ ŋ ã ɪ z ʈʰ ʂ i r ɠ ɛ d̪ʱ p ʊ ẽ nʱ ɽʱ ɔ n u ɳ f ʋ ɲ pʰ m t̪ʰ ʄ a j õ ɔ̃ e tʃ kʰ
karao_kara1487	Karao	kara1487	Austronesian	Papunesia	16.5655	120.956	26	22	4	0	0	22	4	5.5	d q ə a gʷ g p n b k ɸ dʒ ŋ s tʃ u i ʔ t w ɾ θ m j l χ
gojri_gnau1240	Gnau	gnau1240	Nuclear Torricelli	Papunesia	-3.59093	142.196	48	31	17	0	0	31	17	1.8235294117647058	t̪ʰ u ũ tʃ h ɖ ʈ l̪ ɔ m z ə s tʃʰ p dʒ i e ɽ ẽ r̪ ɛ ɳ b n̪ kʰ o d̪ a ĩ j ʈʰ ɛ̃ ɔ̃ k t̪ x ʊ ã pʰ f w õ ɣ ɭ ɪ g ʃ
hindi_hind1269	Hindi	hind1269	Indo-European	Eurasia	25.0	77.0	58	38	20	0	0	38	20	1.9	k f ɾʱ z l ə ɽʱ ɽ gʱ tʃʰ pʰ t̪ b g õ ɑ̃ ʈ dʒ m ĩ ɖʱ i ŋ ʊ ɛ̃ dʒʱ ɖ ẽ s t̪ʰ æ bʱ ũ ʈʰ ɾ ɪ ʃ kʰ e p lʱ ɛ n̪ʱ tʃ j mʱ n̪ ɪ̃ ɔ̃ ɑ ʊ̃ d̪ o ɔ h ʋ ə̃ d̪ʱ
sapuan_sapu1248	Sapuan	sapu1248	Austroasiatic	Eurasia	15.3692	106.843	41	20	18	0	3	20	21	1.1111111111111112	h ĕ ia ɔ ŋ sʼ ɔ̆ ŭ i ɺ ua ɟ ʔ b ɛ ŏ e l̪ ç k ɲ ă ɛ̆ t̪ ɨ u a ə̆ ɨ̆ o j c d̪ g m ɨa n̪ ə ʋ ĭ p
cayuvava_cayu1262	Cayubaba	cayu1262		South America	-13.2482	-65.4822	33	17	16	0	0	17	16	1.0625	ũ u ã k ĩ dʒ õ ɛ æ̃ m ɨ̃ b t tʃ d̪ p æ ɲ o j ɔ̃ a w ʃ i h n ɾ β ɔ ẽ ɨ s
kwoma_kwom1262	Kwoma	kwom1262	Sepik	Papunesia	-4.08721	142.664	32	24	8	0	0	24	8	3.0	ʃ ɲ a t tʃ o ɛ β s u n ɔ ⁿgʷ ⁿd ⁿdʒ e ɨ ⁿbʷ j ɸ ɸʷ ɾ k h ⁿg ʔ mʷ kʷ i m ⁿb w
maori_maor1246	Maori	maor1246	Austronesian	Papunesia	-38.2881	176.541	15	10	5	0	0	10	5	2.0	t o i f p n e ɾ w k ŋ m a h u
tiwi_tiwi1244	Tiwi	tiwi1244		Australia	-11.6308	130.949	26	22	4	0	0	22	4	5.5	m k ɔ ɾ p ⁿt̪ l ɳ ŋ w n̪ ɻ n a j i ⁿp ɭ ⁿʈ ʈ ⁿt ⁿk t ɣ u t̪
kalalagauya_kala1377	Kala Lagaw Ya	kala1377	Pama-Nyungan	Australia	-10.6748	142.196	24	18	6	0	0	18	6	3.0	l b s z j t n u m a d̪ ŋ t̪ k w n̠ g i d ɨ ɾ o e p
yagariamovedialect_yaga1260	Yagaria	yaga1260	Nuclear Trans New Guinea	Papunesia	-6.32432	145.388	23	14	5	0	4	14	9	2.8	ɓ ʔ o v m i ae ou u ao n t k s ʟ ɛ j p ɗ h ɛi g a
yanesha_yane1238	Yanesha'	yane1238	Arawakan	South America	-10.5454	-75.315	32	23	9	0	0	23	9	2.5555555555555554	p β ɲ ʈʂ j lʲ ɣ k ʐ pʲ tɕ tʃ mʲ r’ e aː ɾ’ a o ts a̰ m ʃ s w eː n o̰ x t oː ḛ
kiswahili_swah1253	Swahili	swah1253	Atlantic-Congo	Africa	-8.25605	37.624	33	28	5	0	0	28	5	5.6	ɗ ʄ t o f ʃ ɲ z tʰ pʰ r k v m j e tʃ ɓ i ɠ a kʰ ð θ ɣ ŋ p l n u h tʃʰ w
gaahmg_gaam1241	Gaam	gaam1241	Eastern Jebel	Africa	11.4674	33.9797	34	22	12	0	0	22	12	1.8333333333333333	f j k ʔ i ɾ d̪ ɹ̪ t̪ n l t eː b o p d ɲ əː iː m s w ŋ e uː g oː a ə u c ɟ aː
miskitu_misk1235	Mískito	misk1235	Misumalpan	North America	15.1576	-84.2942	26	20	6	0	0	20	6	3.3333333333333335	ŋ d a i ɾ uː l̥ g n̥ ŋ̊ s b j p l t ɾ̥ n k iː aː m̥ w m h u
kogi_cogu1240	Cogui	cogu1240	Chibchan	South America	10.9485	-73.8043	26	19	7	0	0	19	7	2.7142857142857144	g d x ʔ n j s p u i z m ʒ h ʃ o b w t ŋ k l e ɐ a ɨ
kewawestern_west2599	West Kewa	west2599	Nuclear Trans New Guinea	Papunesia	-6.32097	143.73	19	13	6	0	0	13	6	2.1666666666666665	m ⁿb ɺ j a u ɸ i ɾ q ⁿd ə s n x o e t w
nkorekiga_chig1238	Chiga	chig1238	Atlantic-Congo	Africa	-1.04387	29.9122	31	21	10	0	0	21	10	2.1	d̪ k z j s i p n̪ h m ŋ t̪ u ʒ w g o ɛ dʒ b ɹ iː ɛː aː a oː f ʃ tʃ v uː
ewondo_ewon1239	Ewondo	ewon1239	Atlantic-Congo	Africa	4.21141	11.93646	34	25	8	1	0	26	8	3.125	s o b v ⁿgb d ⁿb n ⁿv u̝ ɲ ⁿdz f k ts m w j ɛ dz ŋ kp e l gb i̝ ⁿg t ə g z a ɔ ⁿd
northernuzbektashkentdialect_nort2690	Northern Uzbek	nort2690	Turkic	Eurasia	40.886	69.211	31	25	6	0	0	25	6	4.166666666666667	s tʃ p d̪ u k β̞ˠ ɾ ʃ dʒ ɔ a b χ o n̪ e ɸ q g ʁ m j t̪ l h ʒ i ŋ z f
mixtecchalcatongowesternalta_sanm1295	San Miguel El Grande Mixtec	sanm1295	Otomanguean	North America	17.046881	-97.622482	43	19	24	0	0	19	24	0.7916666666666666	w k kʷ ḛ̃ õ ḭ̃ ⁿtʃ i ḭ o a ⁿb ʒ õ̰ ẽ ⁿd u ã̰ ḛ n’ ɨ̃ ⁿʒ ɨ ã o̰ ɨ̰̃ ɾ’ x t̪ ɲ ṵ ṵ̃ ɨ̰ m ⁿg a̰ e ĩ ð sʼ l’ ũ ʃ
dardajudaju_dard1243	Dar Daju Daju	dard1243	Dajuic	Africa	12.1187	18.7996	36	26	10	0	0	26	10	2.6	aː ʄ uː g d o z oː ɓ k ⁿg s w h i t c e l p u ɟ ⁿb ɾ iː b ⁿɟ eː n a ɲ ɗ j ⁿd ŋ m
muniche_muni1258	Muniche	muni1258		South America	-5.7441796	-76.426712	26	21	5	0	0	21	5	4.2	ɾ u i j x ʔ s ɲ ç ʃ e l ə c d̪ g n̪ a ts p m tʃ k w t̪ ʈʂ
daga_daga1275	Daga	daga1275	Dagan	Papunesia	-9.9747	149.263	30	13	5	0	12	13	17	2.6	g ei u j b oi oa ou oe ae a ue e w k ua s n ai ui m o ao au t p d i β ɾ
themne_timn1235	Timne	timn1235	Atlantic-Congo	Africa	8.90294	-12.3331	26	17	9	0	0	17	9	1.8888888888888888	t̪ ɐ m j d t i e b ɛ ɔ p l r k o gb ə n ŋ s a u h w f
lelemi_lele1264	Lelemi	lele1264	Atlantic-Congo	Africa	7.34549	0.50746	27	20	7	0	0	20	7	2.857142857142857	ɲ kp ɸ ts s e t w o n ɛ a ɖ g k h b v l gb u m dz j i ŋ ɔ
kunimaipa_kuni1267	Kunimaipa	kuni1267	Goilalan	Papunesia	-8.09371	146.908	20	15	5	0	0	15	5	3.0	e n p i z̪ t ŋ o d l m β g ʁ ɽ a b u k s̪
wayuu_wayu1243	Wayuu	wayu1243	Arawakan	South America	11.395566	-72.199791	21	15	6	0	0	15	6	2.5	s ɲ ʔ m w r ɺ u h t̪ ɛ n̪ i ɨ ɔ ʃ j a k p tʃ
tsafiki_colo1256	Tsafiki	colo1256	Barbacoan	South America	-0.21181	-79.2347	26	16	10	0	0	16	10	1.6	ɸ sʼ ɓ k x l’ j a u õ i ũ ʔ tsʼ tʼ ẽ e n’ ã ĩ ɗ’ m o w ɾ’ p
wardaman_ward1246	Wardaman	ward1246	Yangmanic	Australia	-15.4155	132.604	22	17	5	0	0	17	5	3.4	a k m ʈ ŋ ɔ i ɾ ɭ t p l ɛ β̞ n u ɳ j n̠ l̠ ɻ t̠
cahuilla_cahu1264	Cahuilla	cahu1264	Uto-Aztecan	North America	33.5324	-116.691	28	20	8	0	0	20	8	2.5	w e aː v p xʷ i ʔ j a l t χ ʎ u ʃ n m tʃ iː eː uː k q ŋ ɲ s kʷ
japanese_nucl1643	Japanese	nucl1643	Japonic	Eurasia	35.0	135.0	25	15	10	0	0	15	10	1.5	w eː z̪ a b ɯ ɾ s̪ k ɯː h g n̪ p ɴ t̪ j i e iː aː oː o m d̪
dadibi_dadi1250	Dadibi	dadi1250	Teberan	Papunesia	-6.65765	144.511	23	13	10	0	0	13	10	1.3	n ɛ t x pʰ õ p k w ũ kʰ tʰ s a ɭ m ĩ ẽ o ã u i j
batakkaro_bata1293	Batak Karo	bata1293	Austronesian	Papunesia	2.12787	98.2517	25	18	7	0	0	18	7	2.5714285714285716	r m u i d a ə dʑ ɯ b p ʔ w j l tɕ n̪ e s k ŋ h o t̪ g
ocaina_ocai1244	Ocaina	ocai1244	Huitotoan	South America	-2.159	-72.1422	35	26	9	0	0	26	9	2.888888888888889	x k ũ ɾ t dz tʲ ʔ ɲ h dʒ ʒ a s ɲː ĩ ɛ ts n β g ɸ p nː ʃ ã ɯ b i õ m ɔ mː dʲ tʃ
kotaindia_kota1263	Kota (India)	kota1263	Dravidian	Eurasia	11.4978	76.9387	33	23	10	0	0	23	10	2.3	n ɽ iː a v ɭ t̪ ɛ d̪ ɖ aː uː b ʈ tʃ ŋ ɳ j g m i r ɛː k ɔː l t ʂ d u p ɔ dʒ
kanakuru_dera1248	Dera (Nigeria)	dera1248	Afro-Asiatic	Africa	10.072	12.0256	35	24	11	0	0	24	11	2.1818181818181817	d ɓ i e g ⁿb eː m uː o ɹ ɲ ɟ aː ⁿg ŋ a ⁿd w p oː l ʃ ɗ k iː u n j ɮ ⁿɟ b ɰ t ɨ
moghol_mogh1245	Mogholi	mogh1245	Mongolic-Khitan	Eurasia	34.2504	62.2802	29	24	5	0	0	24	5	4.8	tʃ z’ dʒ m b d’ ŋ w q h u tʼ f sʼ a x ɔ ʀ p l’ ʔ n’ ʃ r’ g ɛ k j i
pawaianoyobedialect_pawa1255	Pawaia	pawa1255		Papunesia	-6.88021	145.081	22	10	12	0	0	10	12	0.8333333333333334	m ã o h t ɺ ɔ ũ k ẽ a ɔ̃ n w p j s i u ĩ õ e
yidiny_yidi1250	Yidiñ	yidi1250	Pama-Nyungan	Australia	-17.1332	145.876	19	13	6	0	0	13	6	2.1666666666666665	i ŋ l d ɻ b u uː iː w aː j g n m ɟ ɲ a r
ngiyambaa_wang1291	Ngiyambaa	wang1291	Pama-Nyungan	Australia	-30.6481	146.18	21	15	6	0	0	15	6	2.5	t̠ w a ð aː uː i l ɻ n n̪ p j t t̪ k n̠ iː ŋ u m
tundrayukaghir_nort2745	Northern Yukaghir	nort2745	Yukaghir	Eurasia	70.498	157.853	32	20	12	0	0	20	12	1.6666666666666667	aː χ s t lʲ i ŋ m oː uː j øː ø r q dʲ p n iː o eː l w a nʲ b u g k e d tʲ
lelechad_lele1276	Lele (Chad)	lele1276	Afro-Asiatic	Africa	9.158	15.81149	36	25	10	1	0	26	10	2.5	ⁿd iː k u h r w ŋ ɔː m w̃ gb ⁿgb j̃ dʒ aː g d s ⁿb ɛ n ɓ i b j ɗ tʃ uː l t kp ɛː p ɔ a
ama_amas1236	Ama (Sudan)	amas1236	Nyimang	Africa	12.0993	29.4332	29	19	10	0	0	19	10	1.9	u ɪ d r t̪ f w l o i ɔ e ɛ t g a s d̪ n ɟ ʊ ŋ m k ɲ j b ɜ ɽ
polish_poli1260	Polish	poli1260	Indo-European	Eurasia	51.8439	18.6255	43	35	8	0	0	35	8	4.375	l̪ mʲ fʲ m s v d̪ pʲ f ɲ bʲ ɛ u k t̪ w b ɕ dʒ i r dʑ ɔ x ɨ ɛ̃ kʲ a ʑ ts tʃ z dz gʲ p ʒ g n̪ ɔ̃ vʲ j ʂ tɕ
khariadudh_khar1287	Kharia	khar1287	Austroasiatic	Eurasia	22.3571	84.3922	37	32	5	0	0	32	5	6.4	ɖ bʱ gʱ ɾ̪ k ɦ d̪ tʃ ɛ ʔ dʒ kʰ dʒʱ b ɔ ɽ w l̪ d̪ʱ ɲ i u ŋ ʈ t̪ʰ ʈʰ n̪ g t̪ a s̪ j m tʃʰ ɖʱ pʰ p
kukuyalanji_kuku1273	Kuku-Yalanji	kuku1273	Pama-Nyungan	Australia	-16.0036	145.188	16	13	3	0	0	13	3	4.333333333333333	u w p j a ɻ l m ŋ r n i n̠ k t̠ t
nzadib865_nzad1234	Nzadi	nzad1234	Atlantic-Congo	Africa	-4.102208	20.194462	36	22	14	0	0	22	14	1.5714285714285714	oː uː s i ɔ m z t dz gb bv ŋ w aː j ɛː u g p l e ɛ iː f o v d n b ɔː k eː ts a r kp
cubeo_cube1242	Cubeo	cube1242	Tucanoan	South America	1.32382	-70.1939	22	10	12	0	0	10	12	0.8333333333333334	ũ a ɨ̃ ɨ t ɛ̃ β i b ɛ k ɾ d õ p ĩ tʃ ã u ð x o
malekujaika_male1297	Maléku Jaíka	male1297	Chibchan	North America	10.7485	-84.7318	25	15	10	0	0	15	10	1.5	eː e k t̪ tʃ i n u aː a l iː x uː dʒ s ɬ p ɾ ŋ ɸ r o m oː
apurina_apur1254	Apurinã	apur1254	Arawakan	South America	-8.21692	-66.7714	34	14	20	0	0	14	20	0.7	ɨ h ẽ k eː ʃ ts s j õ ĩː a ɨː tʃ ɰ ẽː aː e õː o ɲ p ɨ̃ ãː t ɨ̃ː n m ã iː oː ĩ ɾ i
kohumono_kohu1244	Kohumono	kohu1244	Atlantic-Congo	Africa	5.92596	7.96202	38	28	10	0	0	28	10	2.8	a n u ŋ ŋʷ v ɓ kʰ kʷʰ ɲ pʰ m s ɛ g h e kpʰ z o f r dʒ d b ʊ gb β t w tʃ ə tʰ ɔ i j ɪ gʷ
zuni_zuni1245	Zuni	zuni1245		North America	35.0056	-108.782	30	20	10	0	0	20	10	2.0	ts k l kʼʷ uː h a w kʷ e ɬ ʔ t oː tʃ tsʼ j s m i u p n kʼ aː eː ʃ tʃʼ iː o
dagbani_dagb1246	Dagbani	dagb1246	Atlantic-Congo	Africa	9.64745	-0.43227	33	22	11	0	0	22	11	2.0	t v g b m d ŋ gb e uː ə k ŋm kp o f β̞ iː p u eː j a tɕ l oː n aː ɲ s dʑ i z
jebero_jebe1250	Jebero	jebe1250	Cahuapanan	South America	-5.40317	-76.4103	22	18	4	0	0	18	4	4.5	a i ə ʎ k ɲ l ɾ ɹ̪ ʃ s ɾ̰ m n̪ cç w j ʔ u t̪ p ŋ
indonesian_indo1316	Indonesian	indo1316	Austronesian	Papunesia	-7.33458	109.716	28	22	6	0	0	22	6	3.6666666666666665	w ə p d ŋ x a o f e h b g n s k l dʒ m u i ɲ ʃ t̪ z r j tʃ
kafa_kafa1242	Kafa	kafa1242	Ta-Ne-Omotic	Africa	7.34022	36.1718	32	22	10	0	0	22	10	2.2	ɔː s u k n i ɛː tʃʼ tʼ z d a dʒ tʃ ɛ uː w pʼ aː iː ʔ p h m ɔ l g kʼ t ɸ b ɾ
klamath_klam1254	Klamath-Modoc	klam1254		North America	42.5861	-121.704	41	33	8	0	0	33	8	4.125	m̥ æ æː j l̰ l n̰ i k iː oː p tʰ pʰ n̥ tʼ o aː m̰ ʔ n l̥ s ʍ w̰ cʼ j̰ q c qʼ h qʰ cʰ kʰ w pʼ m a kʼ j̊ t
hopi_hopi1249	Hopi	hopi1249	Uto-Aztecan	North America	35.7653	-110.535	37	31	6	0	0	31	6	5.166666666666667	kʷ m̥ l o ʰk n̥ j̊ t q m l̥ ʔ kʲ ɲ ʰt s n ʰq w ŋ j ʰkʷ i ŋʷ k h ʰts a v p ɛ ʍ ɨ ŋ̊ ts ø ʰp
hixkaryana_hixk1239	Hixkaryána	hixk1239	Cariban	South America	-0.16265	-58.80153	23	18	5	0	0	18	5	3.6	u n ɸ tʃ s d̠ b ɺ̣ m ɾ p t ɯ d ʃ j æ ɔ e n̠ w k h
kayardild_kaya1319	Kayardild	kaya1319	Tangkic	Australia	-17.0695	139.489	23	17	6	0	0	17	6	2.8333333333333335	ŋ r a t̠ m iː w uː j n̠ p t ɻ ʈ i u t̪ n̪ n k ɳ l aː
darai_dara1250	Darai	dara1250	Indo-European	Eurasia	27.8623	84.1357	36	30	6	0	0	30	6	5.0	o ɖʱ s ŋ kʰ ʈʰ e d̪ a dzʱ k t̪ʰ l u pʰ n̪ p ɦ bʱ ɾ g ts i β̞ ɖ gʱ ʈ j b tsʰ dz ə t̪ ɽ d̪ʱ m
englishstandardsouthernbritish_stan1293	English	stan1293	Indo-European	Eurasia	53.0	-1.0	43	24	11	0	8	24	19	2.1818181818181817	aʊ s p ɪ w ɑ ʃ z ɐ ə ʊ b oʊ ɔɪ f ɔ dʒ ɒ v ɛ tʃ ɹ ʒ i ð n ɜ t ʊə g ŋ k ɛə d l u iə aɪ eɪ m h j θ
ticuna_ticu1245	Ticuna	ticu1245	Ticuna-Yuri	South America	-3.66289	-69.8723	26	16	10	0	0	16	10	1.6	ũ kʷ u ʔ ɨ̃ g dʒ p b ã ɨ i k o ɲ a n e tʃ d ĩ t ŋ ɾ w m
rama_rama1270	Rama	rama1270	Chibchan	North America	11.5007	-83.8571	23	17	6	0	0	17	6	2.8333333333333335	p aː g iː h t uː r i n kʷ d ŋ ŋʷ k b a j s w l u m
malakmalak_mull1237	Mullukmulluk	mull1237	Northern Daly	Australia	-13.427	130.664	19	14	5	0	0	14	5	2.8	j n̠ ø m ɹ l̠ ŋ a t k ɾ w n i l ʊ ɛ t̠ p
mian_mian1256	Mian	mian1256	Nuclear Trans New Guinea	Papunesia	-4.70881	141.523	25	15	6	0	4	15	10	2.5	ⁿgʷ ɛi a ɛ k h n m ŋ w ⁿd o u ai s i j ou aˤ ⁿb au t ⁿg kʷ f
chachi_chac1249	Cha'palaa	chac1249	Barbacoan	South America	0.71489	-79.0508	32	24	8	0	0	24	8	3.0	n̠ l ɛ s ɑː b ʃ t d n ʊ ɾ w k d̠ p ɑ j ʔ tʃ m ŋ h ɸ ɛː g l̠ ʊː ts t̠ iː i
lithuanian_lith1251	Lithuanian	lith1251	Indo-European	Eurasia	55.1429	23.9601	51	39	10	0	2	39	12	3.9	ʋ kʲ b ʃʲ n̪ n̪ʲ ie g l̪ʲ iː s̪ dz̪ʲ bʲ eː r̪ʲ d̪ pʲ æ k oː p z̪ʲ æː r̪ dz̪ ɪ gʲ ts̪ ts̪ʲ z̪ dʒʲ t̪ʲ a tʃʲ t̪ s̪ʲ l̪ˠ ʋʲ ʊ ʃˠ dʒ uo ɑː m tʃ uː ʒʲ ʒˠ d̪ʲ j mʲ
timucuamocamadialect_timu1245	Timucua	timu1245		North America	30.3027	-82.3132	19	14	5	0	0	14	5	2.8	tʃ a u l’ h kʷ ɛ ɸ ɾ’ k tʼ β sʼ n’ j ɔ p i m
lenakel_lena1238	Lenakel	lena1238	Austronesian	Papunesia	-19.4763	169.261	27	21	6	0	0	21	6	3.5	ɾ p l̥ k h a i t ɔ l n̥ m f w s mʷ ŋ̊ ɰ pʷ n ɾ̥ m̥ʷ ɛ m̥ u ɨ ŋ
so_sooo1256	Soo	sooo1256	Kuliak	Africa	2.58367	34.7595	40	24	16	0	0	24	16	1.5	p d ʊ aː ɔ b ŋ m ɛː n w i c ɓ θ gʷ g ʔ ɲ u uː ɗ k e o r kʷ ɟ a ɪ t ɔː ɛ eː iː l oː j ʄ ɠ
selepet_sele1250	Selepet	sele1250	Nuclear Trans New Guinea	Papunesia	-6.03532	147.234	21	15	6	0	0	15	6	2.5	ŋ ⁿb i ɔ s ɾ t̪ m n̪ u w ⁿd̪ l a ⁿg k j h o p ɛ
santali_sant1410	Santali	sant1410	Austroasiatic	Eurasia	25.0317	87.8185	51	31	16	0	4	31	20	1.9375	bʱ j r c ẽ ɖʱ cʰ ũ n w e ɛ̃ t ə d ĩ ʈʰ ə̃ g o dʱ ŋ ɽ õ tʰ gʱ iə a k s p ɔ pʰ h ɟʱ io ɖ kʰ u b l m ɟ ã ɛ i ʈ ɲ ɔ̃ uə ea
yurok_yuro1248	Yurok	yuro1248	Algic	North America	41.3262	-123.824	38	29	9	0	0	29	9	3.2222222222222223	ɬ p i t̪ʼ m o tʃ ɣ e s u ɹ kʼ oː ʃ n̰ m̰ iː k h t̪ tʃʼ l̰ ʔ ɹ̰ l a x aː w̰ pʼ kʷ uː β̞ kʼʷ n j̰ j
maxakali_maxa1247	Maxakalí	maxa1247	Nuclear-Macro-Je	South America	-16.9402	-40.7891	20	10	10	0	0	10	10	1.0	ⁿb t i ʔ tʃ o k õ ĩ ⁿdʒ h ɛ̃ ɛ ⁿg p ɯ ⁿd ɯ̃ a ã
beja_beja1238	Beja	beja1238	Afro-Asiatic	Africa	17.2436	36.6666	29	21	8	0	0	21	8	2.625	eː u h oː b aː n ɖ ʈ dʒ uː gʷ k f ʔ l ʃ s d̪ j t̪ kʷ iː a r i g w m
hainanese_minn1241	Min Nan Chinese	minn1241	Sino-Tibetan	Eurasia	24.5	118.17	24	19	5	0	0	19	5	3.8	b e ɓ j a ɸ t̪ ɕ w ŋ u tɕ h ʔ o ɦ k dʑ m n̪ g ɺ i d̪
tiwanorthern_nort1550	Taos Northern Tiwa	nort1550	Kiowa-Tanoan	North America	36.4277	-105.604	36	23	12	0	1	23	13	1.9166666666666667	u tʰ tʃʼ ã ɨ̃ pʼ ʔ a i ia pʰ tʃ n kʼʷ l j ɬ k kʷ ũ m t kʼ s ẽ p õ x h o ĩ w e xʷ ɨ tʼ
welshnorthern_wels1247	Welsh	wels1247	Indo-European	Eurasia	52.0	-4.0	50	23	14	0	13	23	27	1.6428571428571428	oi h t ɨ eː u w ʃ j b f ð̠ ŋ k aɨ v d ɾ ai iː n uː uɨ oɨ iu əi g eu s i p ɬ m oː aː ɾ̥ x ə θ̠ əː ɨː l au a əu əɨ o e ɨu aːɨ
bakairi_baka1277	Bakairí	baka1277	Cariban	South America	-14.2628	-54.7034	30	16	14	0	0	16	14	1.1428571428571428	m u ʃ l k j ã b g ɨ̃ i h ɔ̃ ɨ e d ũ s z p t ə̃ ə ɾ ĩ ẽ ɔ n a w
russian_russ1263	Russian	russ1263	Indo-European	Eurasia	59.0	50.0	38	33	5	0	0	33	5	6.6	vʲ tʃ d̪ʲ s̪ʲ kʲ b z̪ u s̪ mʲ n̪ i j r̪ f ts fʲ t̪ z̪ʲ l̪ˠ t̪ʲ bʲ l̪ʲ n̪ʲ k p r̪ʲ o pʲ d̪ m e a ʝ v ʃ x g
fasu_fasu1242	Fasu	fasu1242		Papunesia	-6.62687	143.284	21	11	10	0	0	11	10	1.1	e ĩ p t ũ ã s n ẽ m j h ɸ a õ ɾ k u w o i
ekari_ekar1243	Ekari	ekar1243	Nuclear Trans New Guinea	Papunesia	-3.88974	136.018	15	10	5	0	0	10	5	2.0	n t m j ɛ p w i o d u ʟ b k a
abipon_abip1241	Abipon	abip1241	Guaicuruan	South America	-29.0	-61.0	25	15	10	0	0	15	10	1.5	ʁ a h oː eː o k j p ɨː l’ m n’ ɨ ɣ tʃ iː ɾ’ i ɲ tʼ q w aː e
uraklawoi_urak1238	Urak Lawoi'	urak1238	Austronesian	Eurasia	7.5258	99.0768	31	23	8	0	0	23	8	2.875	kʰ m w æ tʃʰ pʰ a s g n ɛ ə dʒ p tʰ h ɲ u ɔ l k d o b j ʔ ŋ ɹ t tʃ i
yabem_yabe1254	Yabem	yabe1254	Austronesian	Papunesia	-6.67052	147.81	27	20	7	0	0	20	7	2.857142857142857	m ŋ ɪ i kʷ p mʷ ⁿs pʷ j ⁿb t e ʊ n ⁿbʷ ⁿgʷ u ʔ ⁿd k s o ⁿg l w a
kunama_kuna1268	Kunama	kuna1268		Africa	14.5879	37.5292	35	22	10	0	3	22	13	2.2	ai g s j ŋ tʃ uː n ɲ m h o t̪ iː b kʷ e au aː gʷ ʃ f w eː k a oː u d̪ ʎ oi ɹ dʒ i l
southernnambiquara_sout2994	Southern Nambikuára	sout2994	Nambiquaran	South America	-14.3707	-59.5187	60	34	18	0	8	34	26	1.8888888888888888	w au j j̊ w̰ kʷ ã̰ṵ̃ ã l̪ kʰ ḛ̃ ḭ ṵ̃ n̪ l̪̥ ʔ ʍ t̪ ṵ ɸ ũ ãũ ʃ b ai n̪̥ k ĩ d̪ t̪ʼ ã̰ a̰ x ãĩ pʼ ɺ ã̰ḭ̃ a p u ḛ a̰ḭ e o̰ kʼʷ ḭ̃ l̪̰ kʼ a̰ṵ xʼ j̰ i o t̪ʰ ɗ ẽ s̪ kʷʰ pʰ s̪ʼ
tera_tera1251	Tera	tera1251	Afro-Asiatic	Africa	11.0376	11.80953	54	43	11	0	0	43	11	3.909090909090909	k dʒ z j ŋ n vʲ ⁿdʒ t l ɣ ⁿb v ɲ o r ʃ eː ⁿd ɣʷ ⁿgʷ f g s x kʷ aː tʃ ʄ gʷ ɮ e ɗ ɓ b d xʷ ɠ h ʒ w pʲ iː oː ⁿg m uː a u ɨ i ɬ p ɓʲ
chamicuro_cham1318	Chamicuro	cham1318	Arawakan	South America	-5.1149	-75.6778	29	19	10	0	0	19	10	1.9	eː t tʃ a u o i ʎ j aː e ʂ ʃ ʈʂ p w oː h m ʔ ɾ ts iː s n k l ɲ uː
yananortherndialect_yana1271	Yana	yana1271		North America	39.2769	-121.608	36	26	10	0	0	26	10	2.6	s tʰ iː kʰ ʔ pʰ pʼ ɛ ɛː j̰ a h m̰ k tʃ w n̰ m u tʼ j w̰ n p uː tʃʰ ɾ t l aː ɔː i tʃʼ kʼ ɔ l̰
seneca_sene1264	Seneca	sene1264	Iroquoian	North America	42.56	-77.53	29	13	16	0	0	13	16	0.8125	ɔ̃ː ʔ k uː æ u j ɛ dz s aː i ɛ̃ dʒ ɛː æː kʰ ʃ ɔ̃ w oː n t tʰ a ɛ̃ː iː h o
burarra_bura1267	Burarra	bura1267	Maningrida	Australia	-12.3061	134.365	21	16	5	0	0	16	5	3.2	n ɻ l ɔ i w ɲ t u a ɭ m ɾ ɳ c æ ʈ ŋ p k j
khantynorthern_khan1273	Kazym-Berezover-Suryskarer Khanty	khan1273	Uralic	Eurasia	62.4308	66.1218	26	16	10	0	0	16	10	1.6	w s oː p eː k n t aː ʃ i uː ɲ a ɔ l m c e j x ŋ ʎ u r iː
diolafogny_jola1263	Jola-Fonyi	jola1263	Atlantic-Congo	Africa	12.75752	-15.7354766667	39	19	20	0	0	19	20	0.95	oː f ɛː ɹ j i ə h l ɪː a n ɠ m s iː ɪ o əː aː uː ŋ g ɔ k c ɛ b e t p ɲ w d eː ʊː ɔː u ʊ
awapit_awac1239	Awa-Cuaiquer	awac1239	Barbacoan	South America	1.21652	-78.3401	21	14	7	0	0	14	7	2.0	t̪ ŋ i i̥ ɨ u ʒ s k w z ḁ u̥ j p a l ʃ m n ɬ
eseejja_esee1248	Ese Ejja	esee1248	Pano-Tacanan	South America	-11.7268	-67.515	21	17	4	0	0	17	4	4.25	s a q ɗ h t j i w tʃ ɓ χ ʃ ʔ e ɲ n p m kʷ o
guaraniparaguayan_para1311	Paraguayan Guaraní	para1311	Tupian	South America	-25.60551	-57.08816	30	18	12	0	0	18	12	1.5	ã ⁿgʷ ũ ʔ ⁿb l̪ s ⁿg ɨ kʷ p ɨ̃ u ẽ t̪ õ e i ĩ ⁿd̪ ɣʷ ɣ s̪ v k x ɾ j a o
sorbianupperdialect_uppe1395	Upper Sorbian	uppe1395	Indo-European	Eurasia	51.2403	14.4098	33	26	7	0	0	26	7	3.7142857142857144	k mʲ ɛ t̪ g ʃ s̪ bʲ wʲ h o d̪ m ɔ j i n ʀ pʲ nʲ a dʒ f w x e l u ts̪ tʃ b p ʀʲ
kwaza_kwaz1243	Kwaza	kwaz1243		South America	-11.6667	-61.1833	36	19	16	0	1	19	17	1.1875	tʃ ɓ i aə l ɛ j h ĩ s t w ə̃ ʃ ɛ̃ œ̃ ũ k n ə ɾ ts œ ɔ t̠ u ɗ m ɔ̃ ɲ ẽ a e ã ʔ p
pitjantjatjara_pitj1243	Pitjantjatjara	pitj1243	Pama-Nyungan	Australia	-26.9704	131.357	23	17	6	0	0	17	6	2.8333333333333335	ŋ t̠ r m ʈ n n̠ t l ɳ u aː ɭ i uː p ɻ iː l̠ j w k a
mapudungun_mapu1245	Mapudungun	mapu1245	Araucanian	South America	-38.7392	-71.277	26	20	6	0	0	20	6	3.3333333333333335	ŋ ʈɻ̝̊ n ɔ l̪ m ɲ j ɸ ɻ u ɛ ʎ t p tʃ s w ð̠ i n̪ k a ɯ l t̪
dutch_dutc1256	Dutch	dutc1256	Indo-European	Eurasia	52.0	5.0	34	18	10	0	6	18	16	1.8	v ou y ɑ k s ɛ ə b l ŋ ɪ p ɑu ɦ ʋ ʏ χ øy m ɔ œy aː ei ɛi ɾ t u n f j z d i
kickapoo_kick1244	Kickapoo	kick1244	Algic	North America	41.655145	-89.03034	20	12	8	0	0	12	8	1.5	aː p n o i θ kʷ tʃ m k iː ɛː ɛ t s h oː w a j
madacameroun_mada1293	Mada (Cameroon)	mada1293	Afro-Asiatic	Africa	10.8806	14.1142	36	32	4	0	0	32	4	8.0	d̪ ɓ t̪ j ⁿb kʷ ɬ̪ ⁿg w ŋ ⁿgʷ dz œ ɗ r̪ g l̪ h gʷ z s k hʷ m f n̪ v p o ⁿd̪ ts e ⁿdz b a ɮ̪
french_stan1290	French	stan1290	Indo-European	Eurasia	48.0	2.0	35	21	14	0	0	21	14	1.5	ŋ ʃ v ɑ̃ ɔ s̪ m w œ k ʒ u ə ɛ̃ e l̪ ɥ b n̪ ø a p d̪ t̪ ɲ o i f g j y ɔ̃ ʁ z̪ ɛ
murrinhpatha_murr1258	Murriny Patha	murr1258	Southern Daly	Australia	-14.74852	129.70152	25	21	4	0	0	21	4	5.25	p ɖ r n̪ ɽ i ɳ k t m ʈ a n b d̪ l g ɭ ŋ ɛ t̪ w ʊ j d
adzera_adze1240	Adzera	adze1240	Austronesian	Papunesia	-6.39394	146.294	28	22	3	1	2	23	5	7.333333333333333	w ts j t dz ɾ au m nts ai k ŋ̰ d ⁿk g ŋ n ⁿp b a ʔ p s h f u i ⁿt
natugu_natu1246	Natügu	natu1246	Austronesian	Papunesia	-10.6771	165.835	31	15	16	0	0	15	16	0.9375	j m ɜ ⁿg ŋ æ t dʒ a æ̃ p ɵ̃ ɔ ẽ ⁿb k ⁿd i ʉ n u s l ɜ̃ β ɵ o ã w e ɔ̃
bunuba_buna1275	Bunaba	buna1275	Bunaban	Australia	-17.8297	125.631	24	20	4	0	0	20	4	5.0	w u m l̠ t̠ ɻ n n̠ ŋ ɾ j θ̞ p ʈ ɳ n̪ t ɭ ɑː t̪ i k l a
yuchi_yuch1247	Yuchi	yuch1247		North America	35.75	-86.75	49	38	11	0	0	38	11	3.4545454545454546	tʃʼ kʼ tsʰ tʃʰ ɛ̃ tʃ j ʃ j̰ dz kʰ t ɸ’ æ ĩ tʼ g ɸ b ã pʰ dʒ e æ̃ l̰ ɬ tsʼ o h w̰ ɔ̃ ʔ n ʃʼ sʼ i n̰ k u p ɬʼ s ts l tʰ a pʼ d w
chukchi_chuk1273	Chukchi	chuk1273	Chukotko-Kamchatkan	Eurasia	68.6436	170.045	20	14	6	0	0	14	6	2.3333333333333335	m ʔ e i ɰ ə u n q j ɾ ts ɬ k w t a ŋ p o
inga_inga1252	Colombian Inga	inga1252	Quechuan	South America	1.00313	-76.8606	21	18	3	0	0	18	3	6.0	o e p k j n̪ t̪ l̪ ɲ m a b g x ʂ d̪ ʐ w tʃ s̪ ʎ
asmatcentralkawenaldialect_cent2117	Central Asmat	cent2117	Nuclear Trans New Guinea	Papunesia	-5.80391	138.471	17	11	6	0	0	11	6	1.8333333333333333	w i ɾ p s a j k f e t ⁿd ə ɔ ⁿb u tʃ
koya_koya1251	Koya	koya1251	Dravidian	Eurasia	17.6772	81.2096	24	19	5	0	0	19	5	3.8	d̪ ɖ u b l ɐ t̪ m dʒ g j p i k ʋ ʈ tʃ e ɑ h ɳ s̪ ɽ n
paumari_paum1247	Paumari	paum1247	Arawan	South America	-5.78403	-64.2803	25	22	3	0	0	22	3	7.333333333333333	ʊ ʔ ɗ t ʃ ɓ h g dʒ n kʰ ɾ tʰ tʃ p b ɽ v ɪ d k f m s ɐ
itonama_iton1250	Itonama	iton1250		South America	-12.80431	-64.35748	25	19	6	0	0	19	6	3.1666666666666665	h j n kʼ i w t tʃ u ɨ k ʔ ɾ m l p o s e tʲ tʼ b d a tʃʼ
shasta_shas1239	Shasta	shas1239	Shastan	North America	41.7587	-122.738	27	19	8	0	0	19	8	2.375	s k a oː x tʃʼ aː ʔ tsʼ w i ɾ p m tʼ ɛ ɛː n iː o ts t h tʃ pʼ kʼ j
ly_luuu1242	Lü	luuu1242	Tai-Kadai	Eurasia	21.0321	101.282	31	22	9	0	0	22	9	2.4444444444444446	p ɔ t f ɯ tʃʰ o kʷ tʰ a m v ŋ n s kʰ tʃ u d ɛ b k i l j pʰ e ɤ h kʷʰ ʔ
kelepapuanewguinea_kele1258	Kele (Papua New Guinea)	kele1258	Austronesian	Papunesia	-2.09163	147.064	24	19	5	0	0	19	5	3.8	j ʔ i m l h p ŋ mʷ s u ŋʷ e kʷ pʷ k w a o t ⁿdʳ ⁿbβ r n
kalihna_gali1262	Galibi Carib	gali1262	Cariban	South America	5.83772	-56.8323	33	15	12	0	6	15	18	1.25	ɯ β i ai ui eː g iː h au uː ʔ oi u ɯː m p d’ b ɾ ei ŋ oː e ɯi k n’ aː o sʼ tʼ j a
kisisoutherndialect_sout2778	Southern Kisi	sout2778	Atlantic-Congo	Africa	8.32448	-10.3377	25	17	7	1	0	18	7	2.4285714285714284	ⁿb i ɔ u h s ⁿd ⁿdʒ ɓ j ɛ t ⁿg ɗ a ɪ l kp ⁿgb tʃ ʊ f w p k
lugbarawestern_lugb1240	Lugbara	lugb1240	Central Sudanic	Africa	3.02245	30.8642	33	26	7	0	0	26	7	3.7142857142857144	t̪ gb j̰ u ɺ a i m f n w s g ɛ h r p z w̰ ʔ v ʊ ts b kp k ɓ j d̪ ɗ dz ɔ ɪ
tagalog_taga1270	Tagalog	taga1270	Austronesian	Papunesia	14.06	121.747	28	18	10	0	0	18	10	1.8	uː ʔ s w d̪ l i e t̪ g o b tʃ ŋ k p u j a n̪ aː f h iː ɾ m oː eː
tekekukuyadialect_teke1280	Teke-Kukuya	teke1280	Atlantic-Congo	Africa	-2.27122	14.4407	28	21	7	0	0	21	7	3.0	h o f a p j m b n dʒ e w u ɲ d pf tʃ bv i ɱ t k ɪ l ʊ g ŋ s
piapoco_piap1246	Piapoco	piap1246	Arawakan	South America	4.37718	-68.5953	22	14	8	0	0	14	8	1.75	p m e aː j θ t eː ɓ n i iː a ʔ ts ɗ u k w ɺ uː h
fijianboumaadialect_fiji1243	Fijian	fiji1243	Austronesian	Papunesia	-18.0	178.33	36	19	10	0	7	19	17	1.9	k ⁿg β ŋ ao n̪ aː e u o t̪ a ai l oː eː r ⁿb iː p ou f ⁿd̪ ʔ i iu ð au ei s uː ⁿr m j ɰ eu
limilngan_nucl1327	Limilngan	nucl1327	Limilngan-Wulna	Australia	-12.4294	131.845	21	18	3	0	0	18	3	6.0	w t a ɹ kʷ k c l ɭ ŋ ɳ p ɲ ʈ u m r ʎ j i n
tlingit_tlin1245	Tlingit	tlin1245	Athabaskan-Eyak-Tlingit	North America	59.4447	-135.29	50	42	8	0	0	42	8	5.25	s qʼʷ ts x’ʷ χʷ qʰ eː tsʼ tɬ xʼ tʰ iː tʃʼ ʔ ɢʷ k q ɬʼ h kʷ qʷ tɬʰ aː gʷ w qʼ sʼ χʼ kʰ tɬʼ ɬ kʼ u kʼʷ χ’ʷ i a t x tʃ uː tʃʰ n e χ xʷ ʃ tsʰ j tʼ
drehu_dehu1237	Dehu	dehu1237	Austronesian	Papunesia	-20.8892	167.229	43	29	14	0	0	29	14	2.0714285714285716	w n aː m̥ æː k i ɲ̊ ɵ h u m z θ ɖ n̥ ŋ ŋ̊ ɟ x c ʈ f oː eː uː s ɲ a e iː t æ b p ɵː g d ð ʍ l̥ l o
kiowa_kiow1266	Kiowa	kiow1266	Kiowa-Tanoan	North America	34.9403	-98.9042	43	19	24	0	0	19	24	0.7916666666666666	ẽː m b õː o u j n̪ æː s æ̃ ũː oː d̪ ĩː ɔ̃ː eː k ɔ̃ pʼ ãː õ iː ẽ g p t̪ ũ z i uː t̪ʼ ɔː e ʔ æ ĩ ɔ h kʼ ts tsʼ d̪ɮ
chamorro_cham1312	Chamorro	cham1312	Austronesian	Papunesia	13.438011	144.74474	25	19	6	0	0	19	6	3.1666666666666665	l æ w k ɻ ɒ e ts j f s m p g ʔ u b o n dz h t i ŋ d
nanai_nana1257	Nanai	nana1257	Tungusic	Eurasia	48.4343	134.797	25	19	6	0	0	19	6	3.1666666666666665	y t g p b β ɪ ŋ n a m l dʒ o r k s u j d w ə ɲ tʃ x
kobon_kobo1249	Kobon	kobo1249	Nuclear Trans New Guinea	Papunesia	-5.16446	144.46	27	18	7	0	2	18	9	2.5714285714285716	n ⁿd l ɾ tɕ m e a w au ⁿb u h ɺ̣ ɨ ə ⁿg ʎ ɸ s ŋ i kʰ ɲ o ⁿdʑ ai
samre_samr1245	Samre of Siem Reap	samr1245	Bookkeeping	Eurasia	13.479	103.978	42	21	18	0	3	21	21	1.1666666666666667	tɕ ɔ kʰ ɨə h ʔ d a p aː ɔː iə m tʰ oː ŋ ɨː t u i w pʰ ɛ ɨ s b uə iː l ɲ əː e n tɕʰ o ɰ ɛː j k uː ə eː
mangghuerminxedialect_tuuu1240	Tu	tuuu1240	Mongolic-Khitan	Eurasia	36.8177	102.117	31	26	5	0	0	26	5	5.2	f t qʰ j ʈʂ s p tɕʰ kʰ tʰ u tɕ a ŋ k i ɾ χ o q tsʰ ɕ pʰ ʈʂʰ n m ʂ w l ts ə
wano_wano1243	Wano	wano1243	Nuclear Trans New Guinea	Papunesia	-3.47858	137.678	27	17	5	0	5	17	10	3.4	kʷ ɛ ⁿgʷ ⁿd ai t k ɗ ɔu u ɔ i pʷ ɛi ui p j ʝ β ʔ ɓ ç ɔi w ⁿg ⁿb a
mangarrayi_mang1381	Mangarrayi	mang1381	Mangarrayi-Maran	Australia	-14.8	133.5	22	17	5	0	0	17	5	3.4	b j ɳ l d̠ m ɭ ɪ ɔ ŋ ɛ n w ʊ ʔ ɖ ɻ a n̠ g d ɾ
tolowa_tolo1259	Tolowa-Chetco	tolo1259	Athabaskan-Eyak-Tlingit	North America	41.9192	-124.1	43	28	15	0	0	28	15	1.8666666666666667	tʰ ʂ ə tʃ a tsʼ i kʷ tʼ eː t w ãː ʈʂ’ ʔ e tʃʰ xʷ ũː j ĩ n̰ l uː iː ã ʃ aː m p x m̰ kʼʷ n ɰ kʼ ɬ k s ĩː tʃʼ ũ u
tsamakko_tsam1247	Tsamai	tsam1247	Afro-Asiatic	Africa	5.3097	36.9139	39	29	10	0	0	29	10	2.9	ħ χ ʃ k z b m ɗ a ʒ ɠ tʃː uː j ɓ tʃʼ n u qʼ p e i t aː d tsʼ β̞ ɲː r ʕ l h ʔ oː iː o eː s g
warao_wara1303	Warao	wara1303		South America	7.50851	-59.3528	21	11	10	0	0	11	10	1.1	i kʷ ɺ k ĩ u n m ɛ a t ũ h j õ ã b ɛ̃ ɸ s o
kuotsouth_kuot1243	Kuot	kuot1243		Papunesia	-3.06952	151.537	19	13	6	0	0	13	6	2.1666666666666665	e m ⁿg ɾ ə t n l ⁿb s̪ p ŋ i a ⁿd f u o k
trumai_trum1247	Trumai	trum1247		South America	-11.8119	-53.5717	28	23	5	0	0	23	5	4.6	ɬ̪ e x kʼ j u ɾ ʃ t̪ʼ k a w p ts̪ʼ t̪ ɨ ts̪ n̪ i d̪ h m f ʔ tʼ t s̪ l̪
paresi_pare1272	Parecís	pare1272	Arawakan	South America	-14.5929	-57.4059	22	18	4	0	0	18	4	4.5	a o kʷ tʃ tʲ k ʃ n ts ɾ w e l j h m lʲ i b f θ t
wolof_nucl1347	Wolof	nucl1347	Atlantic-Congo	Africa	15.2534	-15.383	39	24	15	0	0	24	15	1.6	ⁿb j aː ə u n c g ɟ ɛ ʔ ⁿd ⁿɟ ⁿg a eː o l̪ ɔː p f ɲ ɾ’ s uː e oː w t i b d k x ŋ ɔ m ɛː iː
dhuwal_dhuw1249	Dhuwal	dhuw1249	Pama-Nyungan	Australia	-12.7825	136.008	25	20	5	0	0	20	5	4.0	ɪː k a t̪ ʔ ɳ t̠ l t j ɽ n̪ ʊː ʊ w ɭ ŋ n̠ p aː ʈ r ɻ m n
rotuman_rotu1241	Rotuman	rotu1241	Austronesian	Papunesia	-12.5008	177.066	28	16	12	0	0	16	12	1.3333333333333333	l ɔ v f n ɒ ɾ p u s tʃ y ʔ œ a j o w ɛ h ŋ e i k m t̪ ø æ
yakut_yaku1245	Sakha	yaku1245	Turkic	Eurasia	61.6974	133.98	33	17	12	0	4	17	16	1.4166666666666667	yː b d’ m tʼ ɯa ie j aː sʼ r œ g p ɯː iː tʃ yø uː k dʒ uo ɲ a ɯ ŋ j̃ l’ i u œː n’ y
tamazightcentralatlas_cent2194	Central Moroccan Berber	cent2194	Afro-Asiatic	Africa	32.7415	-2.40872	35	32	3	0	0	32	3	10.666666666666666	kʷ k f i l̪ˤ kˤ ʒ l̪ u gʷ s h ʕ t̪ zˤ tʃ w ʃ ʔ j dʒ n b z t̪ˤ ɾˤ a m ɾ d̪ˤ sˤ d̪ q g ħ
wambaya_wamb1258	Wambayan	wamb1258	Mirndi	Australia	-17.496	135.683	21	16	5	0	0	16	5	3.2	ɭ n iː k i ŋ u t̠ l j p m ɲ ɳ t w ɾ aː ɻ a ʈ
passamaquoddy_male1292	Malecite-Passamaquoddy	male1292	Algic	North America	45.494475	-67.40805	20	15	5	0	0	15	5	3.0	a s̪ kʷ p j tʰ ə pʰ w kʰ m ɛ ʊ i l h k t n tʃ
slovene_slov1268	Slovenian	slov1268	Indo-European	Eurasia	46.2543	14.7766	29	21	8	0	0	21	8	2.625	m k f ʃ ʋ dʒ p d̪ ɛ e n̪ b s j ɾ x u ʒ ə a o l g t̪ z ts tʃ i ɔ
cavinena_cavi1250	Cavineña	cavi1250	Pano-Tacanan	South America	-13.3544	-66.6277	24	20	4	0	0	20	4	5.0	s i t ʎ tɕ ɟ b e ɲ ɕ c w ɺ kʷ a j d m n ts k h ʊ p
kakwacolombia_cacu1241	Kakua	cacu1241	Kakua-Nukak	South America	0.88778	-69.5659	27	17	10	0	0	17	10	1.7	o ɨ t õ ʍ w w̰ j ɛ̃ ã j̰ p n m ŋ ɛ m̰ a ʔ ĩ i k ɨ̃ h n̰ tʃ l
tadaksahak_tada1238	Tadaksahak	tada1238	Songhay	Africa	16.685	2.32653	43	32	11	0	0	32	11	2.909090909090909	eː a j χ m dˤ ʒ k ʕ n lˤ t b h s uː tˤ i z tʃ ŋ iː aː l zˤ dʒ ʃ d nˤ ɾ ə e q ʁ w g ɾˤ oː u o ħ f sˤ
cuitlatec_cuit1236	Cuitlatec	cuit1236		North America	18.1	-100.5	23	17	6	0	0	17	6	2.8333333333333335	p kʷ ɛ n̪ ʃ ʔ u a h j ⁿd̪ tʃ i ⁿgʷ ɔ k ɬ̪ ɨ m ⁿb t̪ ⁿg l̪
kutenai_kute1249	Kutenai	kute1249		North America	48.7892	-115.065	34	28	6	0	0	28	6	4.666666666666667	h qʷ a qʼʷ m̰ pʼ t̪ χʷ n̪̰ i ʔ ts qʼ q t̪ʼ tɬʼ iː u j uː ɬ s k kʼ p χ n̪ kʼʷ tsʼ w kʷ m ʔʷ aː
yucatec_yuca1254	Yucatec Maya	yuca1254	Mayan	North America	18.7757	-88.9567	30	20	10	0	0	20	10	2.0	a s l ɓ p i aː ʔ ts m oː tʃʼ iː tʼ t ɛː tsʼ u j tʃ ɛ o h w k ʃ uː kʼ pʼ n
bataktoba_bata1289	Batak Toba	bata1289	Austronesian	Papunesia	2.35498	99.1761	24	17	7	0	0	17	7	2.4285714285714284	m o a g s k w t ɛ r h ŋ e tɕ u j dʑ i d l n p ɔ b
fur_furr1244	Fur	furr1244	Furan	Africa	12.0455	23.6401	26	18	8	0	0	18	8	2.25	ɾ w g ŋ k ɔ s ʊ dʒ l i h m ɛ f ʃ ɪ ə j t̪ d̪ ɲ u n b a
koiari_gras1249	Grass Koiari	gras1249	Koiarian	Papunesia	-9.51218	147.437	18	13	5	0	0	13	5	2.6	e m d s g b ɸ β̞ a l n i t h o k u j
bare_bare1276	Baré	bare1276	Arawakan	South America	1.91649	-66.828	27	19	8	0	0	19	8	2.375	h ɾ u n̥ pʰ tʃ tʰ m p ʍ e d k b w ã n ĩ s i ẽ m̥ j a kʰ ũ t
tausug_taus1251	Tausug	taus1251	Austronesian	Papunesia	5.12236	118.88	22	17	3	0	2	17	5	5.666666666666667	d’ m aɪ w t̪ ɾ’ b dʒ k sʼ j l g ɪ aʊ ʊ p h n’ ŋ ʔ a
yaqui_yaqu1251	Yaqui	yaqu1251	Uto-Aztecan	North America	29.9446	-110.681	20	15	5	0	0	15	5	3.0	p m s o ɾ bʷ t k h e u l j w b n a tʃ i ʔ
wichita_wich1260	Wichita	wich1260	Caddoan	North America	35.0665	-98.1831	16	10	6	0	0	10	6	1.6666666666666667	aː ɾ̪ t̪ ts̪ i j h iː s̪ ɛː kʷ a w ɛ k ʔ
alamblak_alam1246	Alamblak	alam1246	Sepik	Papunesia	-4.66307	143.316	25	18	7	0	0	18	7	2.5714285714285716	e s a ə i b tʃ m dʒ g p j w u n d ʃ k x ɨ ɸ t ɾ ɲ o
luiseno_luis1253	Luiseno-Juaneño	luis1253	Uto-Aztecan	North America	33.3184	-116.939	34	24	10	0	0	24	10	2.4	k qʷ q l̪ n̪ kʷ i xʷ m f uː oː ɾ β̞ x t̪ u s p ð tʃ e iː eː o a v h ʃ ŋ aː ʂ ʔ j
huastec_huas1242	Huastec	huas1242	Mayan	North America	21.6153	-98.5028	31	21	10	0	0	21	10	2.1	eː p β̞ o tʃʼ θ n tsʼ kʼʷ t aː ʃ oː a ts iː tʃ e kʼ i u k tʼ j m ʔ uː h β l kʷ
resigaro_resi1247	Resígaro	resi1247	Arawakan	South America	-1.169535	-71.60524	35	30	5	0	0	30	5	6.0	p a dʒ ʔ j b s ɲ̊ w ɸ kʰ ɲ ʃ k pʰ g m dz n̥ h n tʃʰ ɯ tʰ i t tʲ m̥ dʲ ɛ d tʃ ts tsʰ ɔ
jingulu_djin1251	Jingulu	djin1251	Mirndi	Australia	-17.165	133.659	20	17	3	0	0	17	3	5.666666666666667	w n i ɲ ŋ k ʎ u t m r l ɻ a c ɳ p j ɭ ʈ
shipibokonibo_ship1254	Shipibo-Conibo	ship1254	Pano-Tacanan	South America	-7.17105	-74.8219	23	15	8	0	0	15	8	1.875	ã ɯ̃ a ĩ õ ʂ ɹ β o k ʃ p i tʃ s n t ɯ w m ts j h
ainuhokkaidodialect_ainu1240	Hokkaido Ainu	ainu1240	Ainu	Eurasia	43.633654	142.46167	16	11	5	0	0	11	5	2.2	tʃ k u ɽ ɛ ɔ w i h t̪ a m p j n sʼ
piaroa_piar1243	Piaroa	piar1243	Jodi-Saliban	South America	4.41805	-67.7574	39	25	14	0	0	25	14	1.7857142857142858	p ɓ æ̃ æ ʍ ɗ s k pʰ kʼʷ i ɨ̃ t ũ ɲ ĩ m o ɾ pʼ tʼ õ n̪ j ẽ ʔ u ɑ e tʰ w ts ɨ kʰ ɑ̃ h kʷ tsʼ kʼ
nobiin_nobi1240	Nobiin	nobi1240	Nubian	Africa	22.8142	31.8376	29	19	10	0	0	19	10	1.9	ɲ s ŋ b aː l t̪ h m dʒ k uː i eː u d̪ e iː ʃ f o g j tʃ oː n̪ a w r’
nyangumarda_nyan1301	Nyangumarta	nyan1301	Pama-Nyungan	Australia	-20.6271	121.391	20	17	3	0	0	17	3	5.666666666666667	t ɲ p l k ŋ w a m i u r ɳ ɭ j ʎ n ʈ c ɻ
barasanonorthern_waim1255	Waimaha	waim1255	Tucanoan	South America	0.30416	-70.1644	23	11	12	0	0	11	12	0.9166666666666666	ĩ t u ɨ e ẽ ɨ̃ õ g h k ũ p ɾ ã b s w j i o d a
garifuna_gari1256	Garifuna	gari1256	Arawakan	North America	15.3529	-86.9091	28	16	12	0	0	16	12	1.3333333333333333	õ b h ɯ̃ i ã t f s w e ɯ ĩ g ɹ o u n m d tʃ a ẽ ũ l k j p
yaathe_fuln1247	Fulniô	fuln1247		South America	-9.02591	-37.1402	33	21	12	0	0	21	12	1.75	s tsʰ k p tʃʰ iː aː o a tʰ h m uː l ɔ ts d ʎ ɛ j t u e dʒ pʰ i oː tʃ ʃ w eː f kʰ
wayampi_waya1270	Wayampi	waya1270	Tupian	South America	1.73817	-52.6887	22	10	12	0	0	10	12	0.8333333333333334	j n̪ w ɨ̃ m ɛ u t̪ ʔ ɔ̃ ũ ĩ ã a i l̪ ɔ p k ŋ ɛ̃ ɨ
tamambowestern_malo1243	Tamambo	malo1243	Austronesian	Papunesia	-15.6835	167.16	21	16	5	0	0	16	5	3.2	βʷ i ⁿdʒ l k s e mʷ ⁿb r a β ŋ ⁿbʷ x o u n m t ⁿd
kpan_kpan1246	Kpan	kpan1246	Atlantic-Congo	Africa	7.58343	10.1642	34	24	10	0	0	24	10	2.4	ʒ ⁿg dz ũ gb ʃ ẽ ɣ e g i r a p u b ĩ j w t v õ z k ts x ⁿd s d ã kp ⁿb f o
tabawaikyondialect_east2440	East Makian	east2440	Austronesian	Papunesia	0.07337	127.423	23	18	5	0	0	18	5	3.6	k i ɔ tʃ d n u dʒ ɛ w ŋ g m f s j h l t a r p b
meriammer_meri1244	Meriam	meri1244	Eastern Trans-Fly	Papunesia	-9.59575	143.773	23	14	5	0	4	14	9	2.8	ɾ eʊ g ʊ j p s aɪ a e z m w aʊ l eɪ o k b n t d ɪ
naasioi_naas1242	Naasioi	naas1242	South Bougainville	Papunesia	-6.46022	155.632	13	8	5	0	0	8	5	1.6	k b p ʔ ɑ ɛ n u o t m i d
caddo_cadd1256	Caddo	cadd1256	Caddoan	North America	33.33	-93.5	27	21	6	0	0	21	6	3.5	sʼ n̰’ tsʼ tʃʼ m tʼ b j̰ n’ w ʔ aː w̰ j ʃ d’ a iː kʼ k ʊː p ʊ i m̰ tʃ h
hamtai_hamt1247	Hamtai	hamt1247	Angan	Papunesia	-7.54975	146.227	19	12	7	0	0	12	7	1.7142857142857142	n β ʔ o ɒ p w k ŋ ɐ j e m t h q i ɨ u
westgreenlandicinuktitut_kala1399	Kalaallisut	kala1399	Eskimo-Aleut	North America	69.3761	-52.864	26	19	6	0	1	19	7	3.1666666666666665	n̪ l̪ q xː uː p u i aː t̪ a m ʃ ʁ iː ɣ fː ŋ ɬ̪ː sʼ β tsʼ ʝ χː k ai
tukangbesiwancinortherndialect_tuka1248	Tukang Besi North	tuka1248	Austronesian	Papunesia	-5.30994	123.578	27	22	5	0	0	22	5	4.4	s a p ɛ ɓ ŋ ʔ l̪ m k ɯ ⁿt̪ ⁿp h n ⁿs̪ ɗ ⁿd̪ ⁿk i r ⁿb β t̪ o ⁿg ɠ
kugunganhcara_kuku1283	Kuku-Muminh	kuku1283	Pama-Nyungan	Australia	-14.0959	141.625	30	20	10	0	0	20	10	2.0	ʔ t aː n̪ d̪ uː oː a i iː t̪ ɾ k e g ŋ n̠ l t̠ n p b eː o d m w u d̠ j
tehuelche_tehu1242	Tehuelche	tehu1242	Chonan	South America	-47.5796	-68.3235	31	25	6	0	0	25	6	4.166666666666667	eː tʃʼ d̪ k ɢ e x h p ʔ l n q kʼ b pʼ tʃ qʼ oː ʃ r w g o t̪ m aː a s j t̪ʼ
miamiillinois_miam1252	Miami	miam1252	Algic	North America	40.0	-90.0	20	12	8	0	0	12	8	1.5	p ʃ o n iː l ɛ j t s h oː k i a m tʃ ɛː w aː
lardil_lard1243	Lardil	lard1243	Tangkic	Australia	-16.56152	139.4343	25	17	8	0	0	17	8	2.125	a i aː m k n̠ n̪ æ ɳ u w ɻ ʈ j t̠ æː t iː ŋ u̠ː t̪ n ɾ l p
maung_maun1240	Mawng	maun1240	Iwaidjan Proper	Australia	-11.66	133.376	22	17	5	0	0	17	5	3.4	ŋ i n̠ ɽ a ɣ t̠ ɛ j k ɹ l m ɔ ʈ u ɳ ɭ n t p r
nganasan_ngan1291	Nganasan	ngan1291	Uralic	Eurasia	73.1354	86.2106	29	20	9	0	0	20	9	2.2222222222222223	o c x a ə sʼ ð y p tʼ ɨ ʎ ɟ a̟ r’ i ɲ l’ n’ d’ k b g e m j ʔ ŋ u
korean_kore1280	Korean	kore1280	Koreanic	Eurasia	37.5	128.0	32	21	10	0	1	21	11	2.1	tʃ s̪ t̪̰ t̪ʰ u e t̪ k ɯi o pʰ p̰ y l j kʰ tʃʰ n̪ æ s̪̰ p ɯ m ø i a ɤ h tʃ̰ ŋ w k̰
gooniyandi_goon1238	Gooniyandi	goon1238	Bunaban	Australia	-18.4073	126.351	23	19	4	0	0	19	4	4.75	ɑː l̠ t̪ k ɳ n̪ m n̠ p l w u ŋ a ɾ n j ɻ t i ɭ t̠ ʈ
wintu_nucl1651	Nuclear Wintu	nucl1651	Wintuan	North America	41.0	-122.5	37	27	10	0	0	27	10	2.7	o tʃʼ uː oː kʼ ɹ ʔ eː b p a tʼ qʼ l w q s tɬʼ d m iː pʰ tɬ pʼ t e u aː h n tʃ χ j k tʰ i x
camsa_cams1241	Camsá	cams1241		South America	1.14537	-76.8931	28	22	6	0	0	22	6	3.6666666666666665	ɲ o ʎ ɾ ə k a p tʃ ʃ j ʂ m i x e n b u w f ts ʈʂ d t s l g
makassarese_maka1311	Makasar	maka1311	Austronesian	Papunesia	-5.65551	119.838	24	19	5	0	0	19	5	3.8	ɲ ɟ n d ʔ t̪ o r j w g a i u h m c p s k e l b ŋ
palawanbrookespoint_broo1239	Brooke's Point Palawano	broo1239	Austronesian	Papunesia	8.83891	117.871	20	16	4	0	0	16	4	4.0	h t ɾ l k a n d ʔ g s i ŋ j p m b ɜ w u
qawasqar_qawa1238	Qawasqar	qawa1238	Kawesqar	South America	-49.303195	-74.707536	23	20	3	0	0	20	3	6.666666666666667	m ɾ f qʰ o ts n e tsʼ a j qʼ p x tʼ q l w t tʰ s pʰ pʼ
rumu_rumu1243	Rumu	rumu1243	Turama-Kikori	Papunesia	-7.17149	144.179	16	9	7	0	0	9	7	1.2857142857142858	ɛ j h ɔ u n̪ ɾ k t̪ m p e a o β̞ i
yimas_yima1243	Yimas	yima1243	Lower Sepik-Ramu	Papunesia	-4.71731	143.572	14	12	2	0	0	12	2	6.0	w j lʲ k t p m a n c ɨ ŋ l ɲ
grebo_sout2826	Southern Grebo	sout2826	Atlantic-Congo	Africa	4.47607	-7.56872	36	20	16	0	0	20	16	1.25	l̥ o ɟ m̥ ɪ ɛ̃ a i f n̥ õ w ĩ t j ʍ ʊ l p g k ã ũ h b ɔ ɛ ẽ ɔ̃ gb e s c u d kp
trio_trio1238	Trió	trio1238	Cariban	South America	2.53616	-55.7599	18	11	7	0	0	11	7	1.5714285714285714	ɨ s n p ə i ɺ u a ɸ m k β̞ ɛ ɔ j h t̪
khakas_khak1248	Khakas	khak1248	Turkic	Eurasia	50.7393	107.169	33	15	18	0	0	15	18	0.8333333333333334	u uː y k iː p yː i ŋ ɯː tʼ ɑ sʼ oː d’ g o ø e tʃ r’ w dʒ eː ɑː ɪ m ɯ ɪː j l’ n’ øː
angaatiha_anga1290	Angaataha	anga1290	Angan	Papunesia	-7.15012	146.352	19	12	7	0	0	12	7	1.7142857142857142	p k ŋ ɲ n o tʃ t aː ʔ u e a j m w ɺ i ə
tanimucaretuara_tani1257	Tanimuca-Retuarã	tani1257	Tucanoan	South America	-0.59023	-70.3853	21	11	10	0	0	11	10	1.1	õ ɛ ĩ h ã ʔ ɛ̃ ɾ i b dʲ w k ũ t s u d o a ɸ
biri_biri1256	Biri	biri1256	Pama-Nyungan	Australia	-20.1494	146.67	18	15	3	0	0	15	3	5.0	ŋ t̪ t r a n̪ i ɽ l n̠ u j m n p t̠ k w
toba_toba1269	Toba	toba1269	Guaicuruan	South America	-23.77	-61.96	25	17	8	0	0	17	8	2.125	ɣ oː β ʃ m l̪ i t̪ ʁ k ʔ ɾ j o p q n̪ ʒ eː aː tʃ a e iː s̪
unapapua_unaa1239	Una	unaa1239	Nuclear Trans New Guinea	Papunesia	-4.69676	140.1	30	19	7	0	4	19	11	2.7142857142857144	a k bʲ aʉ j ɪ d ei nʲ dʲ bʷ l ai b ʊ t i mʷ ɛ lʲ n ʉ oʉ m w kʷ ɔ tʲ s ŋ
rotokas_roto1249	Rotokas	roto1249	North Bougainville	Papunesia	-5.94339	155.154	11	6	5	0	0	6	5	1.2	g u β ɾ k t i e a p o
martuthunira_mart1255	Martuthunira	mart1255	Pama-Nyungan	Australia	-20.9294	116.607	26	20	6	0	0	20	6	3.3333333333333335	ɐː j ɐ t ɪ p l̪ ʊ ɲ ʊː t̪ ʈ ʎ c ŋ ɭ r l w k ɪː n̪ m n ɻ ɳ
rao_raoo1244	Rao	raoo1244	Lower Sepik-Ramu	Papunesia	-4.85243	144.511	31	24	7	0	0	24	7	3.4285714285714284	ɯ n ɛ tʃ m d ɺ ʔ dʒ z s ⁿd v f ɑ ɣ ɔ g ŋ t k ⁿb b ⁿdʒ ⁿg u p j β̞ ə i
tigak_tiga1245	Tigak	tiga1245	Austronesian	Papunesia	-2.70951	150.893	17	12	5	0	0	12	5	2.4	g ɛ u b s ɮ β ɐ n ŋ t ɔ m p i r k
lavukaleve_lavu1241	Lavukaleve	lavu1241		Papunesia	-9.05569	159.119	20	15	5	0	0	15	5	3.0	a o e i u k m ŋ t ɰ n f d b p ɾ h s l β̞
nahuatltetelcingo_tete1251	Tetelcingo Nahuatl	tete1251	Uto-Aztecan	North America	18.8854	-98.893	24	16	6	0	2	16	8	2.6666666666666665	ɪ m u ɔa a ts ʃ s o p k ɛ i l kʷ h j β̞ t̪ n̪ tʃ tɬ ie ɾ
