ID	Name	Glottocode	Family	Macroarea	Latitude	Longitude	Sounds	Consonants	Vowels	Clusters	Diphthongs	LongConsonants	LongVowels	Ratio	Phonemes
fwee1238-852	Fwe	fwee1238	Atlantic-Congo	Africa	-17.72372	24.43151	60	50	10	0	0	0	3	5.0	bʷ d dz dʷ dʲʷ dʒ f fʷ h hʷ j k ǀ ǀʰ kʷ lʷ m mʲ mʷ n nʷ p pʷ rʷ s sʷ t tʷ tʃ v vʷ w z zʷ ŋ g gǀ gʷ ɱ ɲ ɻ ɻʲ ɻʷ ʃ ʃʷ ʒ ʒʷ β βʲ βʷ a aː i ĩ u uː ɔ ɔː ɛ ɛ̃
yeyi1239-853	Yeyi	yeyi1239	Atlantic-Congo	Africa	-18.9178	23.6088	88	75	13	0	0	0	5	5.769230769230769	b bʲ bʷ c cʰ cʷʰ d dz dzʷ dʲ dʷ dʒ f fʷ h hʷ j jʷ k ǀ ǀʰ ǀʷ ǀʷʰ ǃ ǃʰ kʰ kʲ kʷ kʷʰ m mʲ mʷ nʷ n̪ p pʰ pʲ pʲʰ pʷ r rʷ s ts tsʰ tsʷʰ tʰ tʲ tʷ tʷʰ tʃ tʃʰ t̪ v vʷ w z ŋ ŋʷ ɟ ɟʷ g gǀ gǃ gʲ gʷ ɱ ɲ ɲʷ ɻ ɻʲ ʃ ʃʷ ʒ β βʲ a aː i iː u uː ũ ɔ ɔː ɔ̃ ɛ ɛː ɛ̃
cavi1250-854	Cavineña	cavi1250	Pano-Tacanan	South America	-13.3544	-66.6277	24	20	4	0	0	0	0	5.0	b c d h j k kʷ m n p s t ts tɕ w ɕ ɟ ɲ ɹ ʎ a e i ʊ
cham1318-855	Chamicuro	cham1318	Arawakan	South America	-5.1149	-75.6778	29	19	10	0	0	0	5	1.9	h j k l m n p r s t ts tʃ w ç ɲ ʂ ʃ ʎ ʔ a aː e eː i iː o oː u uː
chec1245-856	Chechen	chec1245	Nakh-Daghestanian	Eurasia	43.5	45.5	44	32	12	0	0	2	6	2.6666666666666665	b c d̪ h j k k̰ l m n p pʰ pʼ q qː q̰ r rʱ sː t̪ t̪ʰ t̪ʼ v x z ç ħ ɟ g ʒ ʔ ʕ a aː e eː i iː o oː u uː ʊ ʊː
chep1245-857	Chepang	chep1245	Sino-Tibetan	Eurasia	27.7206	84.9017	24	18	6	0	0	0	0	3.0	b dz d̪ h j k l̪ m n̪ p r s ts t̪ w ŋ g ʔ a e i o u ə
east2328-858	Eastern Mari	east2328	Uralic	Eurasia	55.8307	48.405	27	19	8	0	0	0	0	2.375	b d̪ j k l m n p s tʃ t̪ z ŋ g ɲ ɾ ʃ ʎ ʒ a e i o ö u ü ə
leal1235-859	Lealao Chinantec	leal1235	Otomanguean	North America	17.3162	-95.9265	35	28	7	0	0	0	0	4.0	b d dʲ f h hʲ j k kʲ kʷ l lʲ m n nʲ p r s t tʲ v ŋ g gʲ gʷ ɲ ʃ ʔ a e i o u ɨ ɵ
chol1282-860	Chol	chol1282	Mayan	North America	17.4897	-92.4698	26	20	6	0	0	0	0	3.3333333333333335	b c cʼ h j k kʼ l m p pʼ s ts tsʼ tʲ tʼʲ w ɲ ʃ ʔ a e i o u ɨ
chra1242-861	Chrau	chra1242	Austroasiatic	Eurasia	10.8021	107.293	33	20	13	0	2	0	8	1.5384615384615385	b c d h j k l m n p s t̪ w ŋ ɓ ɗ ɟ g ɲ ɽ aː eː i iaː iː oː uaː uː ɐ ɔː əː ɛ ɛː
barb1263-862	Barbareño	barb1263	Chumashan	North America	34.462	-119.699	40	34	6	0	0	0	0	5.666666666666667	h j jˀ k kʰ kʼ l lˀ m mˀ n nˀ p pʰ pʼ q qʰ qʼ s sʰ t ts tsʰ tsʼ tʰ tʼ tʃ tʃʰ tʃʼ w wˀ ʃ ʔ χ a e i o u ɨ
coeu1236-863	Coeur d'Alene	coeu1236	Salishan	North America	47.2958	-116.715	48	40	8	0	0	0	0	5.0	b d dʒ h kʷ kʼʷ l lʼ m mʼ n nʼ p pʼ q qʷ qʼʷ qʼ s t ts tsʼ tʼ tʃ tʃʼ w wʼ xʷ gʷ ɬ ɹˤ ɹ̰ˤ ʃ ʔ ʕ ʕʷ ʕʼʷ ʕʼ χ χʷ a e i o u y yˀ ə
coma1245-864	Comanche	coma1245	Uto-Aztecan	North America	34.0	-101.0	18	12	6	0	0	0	0	2.0	h j k kʷ m n p s t̪ ts̪ w ʔ e i o u ɑ ɨ
cupe1243-865	Cupeño	cupe1243	Uto-Aztecan	North America	33.3148	-116.515	38	27	11	0	0	0	5	2.4545454545454546	f h j k kʷ l m n p q qʷ s t tʃ w x xʷ ð ŋ ɣ ɲ ɾ ʂ ʃ ʎ ʔ β a aː i iː o oː u uː ə ɛ ɛː
cuvo1236-866	Cuvok	cuvo1236	Afro-Asiatic	Africa	10.6448	14.0006	29	27	2	0	0	0	0	13.5	b d dz f h j k l m ⁿb n ⁿd ⁿdz p s t ts v w z ⁿg ɓ ɗ g ɬ ɮ ɾ a ə
deny1238-867	Denya	deny1238	Atlantic-Congo	Africa	5.97237	9.39989	30	22	8	0	0	0	0	2.75	b dʒ d̪ f h k kp l m n̪ p s tʃ t̪ v w ŋ ŋm g gb ɾ ʃ a e i o u y ɔ ɛ
nepa1253-868	Nepali Kurux	nepa1253	Dravidian	Eurasia	26.72057	86.00255	39	34	5	0	0	0	0	6.8	b bʱ dʒ dʒʱ d̪ d̪ʱ h j jʱ k kʰ l m mʱ n nʱ p pʰ s tʃ tʃʰ t̪ t̪ʰ w wʱ ɗ ɗʱ g gʱ ɾ ɾʱ ʈ ʈʰ ʔ a e i o u
mufi1238-869	Mufian	mufi1238	Nuclear Torricelli	Papunesia	-3.57932	142.955	22	17	5	0	0	0	0	3.4	b d f h k kʷ l m n p s t w g gʷ ʔ ʔʷ a e i u ə
usar1243-870	Usarufa	usar1243	Nuclear Trans New Guinea	Papunesia	-6.38898	145.633	22	17	5	0	0	2	0	3.4	j k m mː n nː p r t w ʔ ˀj ˀm ˀn ˀp ˀt ˀw e i o u ɑ
kora1295-871	Korafe	kora1295	Nuclear Trans New Guinea	Papunesia	-9.07	149.267	24	19	5	0	0	0	0	3.8	b d dʒ f j kʰ m ⁿb n ⁿd ⁿdʒ s tʰ v ⁿg ⁿɣ g ɣ ɾ e i o u ɐ
binu1245-872	Binumarien	binu1245	Nuclear Trans New Guinea	Papunesia	-6.22068	146.102	16	11	5	0	0	0	2	2.2	j k m n p r s t w ɸ ʔ eː i oː u ɑ
eggo1239-873	Eggon	eggo1239	Atlantic-Congo	Africa	8.71442	8.45686	37	30	7	0	0	0	0	4.285714285714286	b d dz f h j k kp l m n p s t ts v w x z ŋ ɓ g gb ɲ ɽ ɾ ʂ ʃ ʒ β a e i o u ɔ ɛ
endo1242-875	Endo	endo1242	Nilotic	Africa	1.15018	35.5866	33	13	20	0	0	0	10	0.65	c j k l m n p r s t w ŋ ɲ a aː e eː i iː o oː u uː ɑ ɑː ɔ ɔː ɛ ɛː ɪ ɪː ʊ ʊː
esim1238-876	Esimbi	esim1238	Atlantic-Congo	Africa	6.50094	9.86936	37	29	8	0	0	0	0	3.625	b d dz f h j k kp l m ⁿb n ⁿd ⁿdz p r s t ts v w z ŋ ⁿgb ⁿg g gb ɲ β a e i o u ɔ ə ɛ
fang1246-877	Fang (Equatorial Guinea)	fang1246	Atlantic-Congo	Africa	1.723965	11.61454	41	25	16	0	0	0	8	1.5625	b c d f j k kp l m ⁿb n ⁿd s t v w z ŋ ⁿgb ⁿg ɟ ⁿv ɲ ⁿɟ ʔ a aː e eː o oː u uː ɔ ɔː ə əː ɛ ɛː ɪ ɪː
furu1242-878	Furu	furu1242	Central Sudanic	Africa	4.485	20.6448	41	31	10	0	3	0	0	3.1	b d f h j k kp kʲ l m ⁿb n ⁿd ⁿz p s t v w z ŋ ⁿg ŋʲ ɓ ɗ g gb gʲ ɲ ɾ ʒ a e i o u ua ue ui ɔ ɛ
kara1476-879	Karadjeri	kara1476	Pama-Nyungan	Australia	-18.6771	122.334	20	17	3	0	0	1	0	5.666666666666667	b d dʲ j l lʲ m n nʲ r rː w ŋ ɗ g ɭ ɳ i u ɑ
gbar1246-880	Gbari	gbar1246	Atlantic-Congo	Africa	8.46411	7.10757	31	24	7	0	0	0	0	3.4285714285714284	b d dʒ f h j k kp kʼ l m n p s t ts tʃ v w z ɓ ɗ g gb a e i o u ɛ ɪ
goli1247-881	Golin	goli1247	Nuclear Trans New Guinea	Papunesia	-6.2249	144.8505	23	13	10	0	0	0	5	1.3	b d j k l m n p r s t w g ɑ ɑː ɔ ɔː ɛ ɛː ɪ ɪː ʊ ʊː
guaj1255-882	Guajajára	guaj1255	Tupian	South America	-4.69461	-45.7081	21	14	7	0	0	0	0	2.0	h k kʷ m n p ts t̪ w z ŋ ŋʷ ɾ ʔ a e i u ɔ ə ɨ
gunw1252-883	Bininj Kun-Wok	gunw1252	Gunwinyguan	Australia	-12.3398	133.358	24	19	5	0	0	0	0	3.8	b dʲ d̪ j l m n r w ŋ ɖ g ɭ ɲ ɳ ɻ ɽ ʎ ʔ a e i o u
haya1250-884	Haya	haya1250	Atlantic-Congo	Africa	-1.70878	31.4846	29	19	10	0	0	0	5	1.9	b d dʒ f h j k l m n p s t tʃ w z g ɲ ʃ a aː e eː i iː o oː u uː
huro1249-885	Lorette Huron	huro1249	Iroquoian	North America	44.33	-77.5	17	11	6	0	0	0	0	1.8333333333333333	h j k n r s t w x ʔ θ a e ẽ i o õ
huic1243-886	Huichol	huic1243	Uto-Aztecan	North America	21.954	-104.062	25	15	10	0	0	0	5	1.5	h j k kʷ l m n p ts tʃ t̪ w ɽ ʐ ʔ a aː e eː i iː u uː ɨ ɨː
huay1240-887	Huaylas Ancash Quechua	huay1240	Quechuan	South America	-9.38709	-77.7768	30	20	10	0	0	0	5	2.0	b d f h j k l lʲ m n p q r s t ts tʃ w g ʃ a aː e eː i iː o oː u uː
sanm1287-888	San Mateo del Mar Huave	sanm1287	Huavean	North America	16.2129	-95.0077	24	18	6	0	0	0	0	3.0	b d h j k l m n p r s t ts tʃ w g ɾ ʃ a e i o u ɨ
jauj1238-889	Jauja Wanca Quechua	jauj1238	Quechuan	South America	-11.6747	-75.2786	27	22	5	0	0	0	0	4.4	b d f h j k l lʲ m n p r s t ts tʃ w x ŋ g ɲ ʃ a e i o u
luya1241-890	Luyi	luya1241	Atlantic-Congo	Africa	-15.01	22.67	22	17	5	0	0	0	0	3.4	b dz dʒ d̪ j k l m n p s t̪ w ŋ g ɲ ʃ a e i o u
imon1245-892	Imonda	imon1245	Border	Papunesia	-3.31228	141.171	23	13	10	0	0	0	0	1.3	b d f h k l m n p r s t g a e i o u æ ɒ ɔ ə ɛ
ingu1240-893	Ingush	ingu1240	Nakh-Daghestanian	Eurasia	43.11	45.03	48	35	13	0	4	0	3	2.6923076923076925	b dz dʒ d̪ f h j k kʼ l m n p pʼ q qʼ s ts tsʼ tʃ tʃʼ t̪ t̪ʼ v x z ħ g ɢ ɾ ɾ̥ ʃ ʒ ʔ ʔˤ a aː e ea i ie iː o oa u uo uː ɨ
kris1246-894	I'saka	kris1246	Sko	Papunesia	-2.80084	141.303	14	9	5	0	0	0	0	1.8	b d j k p s t w ɸ a i u ɔ ɛ
yalu1240-895	Yalunka	yalu1240	Mande	Africa	9.97186	-11.2836	33	19	14	0	0	0	7	1.3571428571428572	b d f h j k l m n p s t w ŋ ɟ g ɲ ɾ χ e eː i iː o oː u uː ɑ ɑː ɔ ɔː ɛ ɛː
izer1241-896	Izere	izer1241	Atlantic-Congo	Africa	9.5	8.7	39	28	11	0	0	0	0	2.5454545454545454	b d dʒ f h j k kp l m n p r s t ts tʃ v w x z ŋ g gb ɲ ɾ ʃ ʒ a e i o o̤ u ṳ ɑ ɔ ə ɛ
jama1261-897	Madi	jama1261	Arawan	South America	-7.62223	-66.5662	15	11	4	0	0	0	0	2.75	b h̃ j k m n s t̪ w ɸ ɹ a e i ɯ
jeme1245-898	Towa	jeme1245	Kiowa-Tanoan	North America	35.5994	-106.766	61	39	22	0	0	0	11	1.7727272727272727	b c d f h j j̰ kʰ kʲʰ kʼʲ kʷ kʼ l l̰ m m̰ n n̰ p pʼ s t tsʼ tʰ tʼ tʃʰ v w w̰ z ɟ g gʲ ɦ ɬ ɸ ɾ ʃ ʔ e eː i iː ĩ ĩː o oː õ õː æ æː æ̃ æ̃ː ɑ ɑː ɑ̃ ɑ̃ː ɨ ɨː ɨ̃ ɨ̃ː
liji1238-899	Lijili	liji1238	Atlantic-Congo	Africa	8.52193	8.35562	45	29	16	0	0	0	0	1.8125	b c d dz f h j k kp l m n p r s t ts v w z ŋ ŋm ɟ g gb ɲ ʃ ʒ ʔ a ã e ẽ i ĩ o õ u ũ ɔ ɔ̃ ə ɛ ɛ̃ ʊ
kaby1243-900	Kabyle	kaby1243	Afro-Asiatic	Africa	36.4103	4.76137	30	27	3	0	0	0	0	9.0	b c d d̪ f h k kʷ m n q qʷ r s t ts tʃ t̪ z ħ ɟ g gʷ ɣ ɣʷ χ χʷ ɑ ɪ ʊ
gida1247-901	Gidar	gida1247	Afro-Asiatic	Africa	9.874715	14.07845	36	28	8	0	0	0	0	3.5	b d f h k kp l m ⁿb n ⁿd ⁿg p r s t v w z ŋ ɓ ɗ ɟ g gb ʂ ʐ ʔ a e i o u ø ə ʉ
kaya1329-902	Kayabí	kaya1329	Tupian	South America	-11.2747	-55.5479	24	14	10	0	0	0	0	1.4	j k kʷ m n p s t w ŋ g ɸ ɾ ʔ a ã e ẽ i ĩ o õ u ũ
kama1367-903	Kamasau	kama1367	Nuclear Torricelli	Papunesia	-3.8503	143.842	29	23	6	0	0	0	0	3.8333333333333335	b d dz j k m ⁿb n ⁿd ⁿdz s t tʃ w ŋ ⁿg g ɣ ɲ ɸ ɾ ʔ β a e i o u ɨ
kano1245-904	Kanoê	kano1245		South America	-12.1789	-64.5812	26	12	14	0	0	0	0	0.8571428571428571	h j k m n p r t ts v w ɲ a ã e ẽ i ĩ o õ u ũ y ỹ æ æ̃
kens1251-905	Kenswei Nsei	kens1251	Atlantic-Congo	Africa	6.01713	10.412	65	55	10	0	0	0	0	5.5	b bʲ bʷ c cʲ cʷ d f fʲ fʷ h j jʷ k kʲ kʷ l lʷ m ⁿb n ⁿd ⁿdʷ ⁿs ⁿsʷ ⁿt ⁿtʷ s sʲ sʷ t tʲ tʷ w z ŋ ⁿk ⁿg ⁿgʷ ŋʷ ɟ ɟʲ ɟʷ g gʲ gʷ ɣ ⁿf ɲ ⁿc ⁿcʲ ⁿɟ ɲʷ ʒ ʒʷ a e i o u æ ɔ ə ɛ ʉ
east2398-906	Eastern Karaboro	east2398	Atlantic-Congo	Africa	10.4987	-4.52253	23	16	7	0	0	0	0	2.2857142857142856	b d f j k l m n p r s t w ŋ g gb a e i o u ɔ ɛ
kari1301-907	Uaçá Creole French	kari1301	Indo-European	South America	3.42825	-51.6888	32	22	10	0	0	0	0	2.2	b dʒ d̪ f h j k l m n p s tʃ t̪ v w z ŋ g ɾ ʃ ʒ a ã e i o u ɔ ɔ̃ ɛ ɛ̃
keny1279-908	Kenyang	keny1279	Atlantic-Congo	Africa	5.58288	9.55918	41	21	20	0	0	0	0	1.05	b d dʒ f j k kp m n p r s t tʃ w ŋ g gb ɣ ɲ β a ã e ẽ i ĩ o õ u ũ ɔ ɔ̃ ə ə̃ ɛ ɛ̃ ɨ ɨ̃ ɯ ɯ̃
khar1287-909	Kharia	khar1287	Austroasiatic	Eurasia	22.3571	84.3922	47	37	10	0	4	0	0	3.7	b bʱ d̪ d̪ʱ f j k kʰ l m n p s ts tsʰ t̪ t̪ʰ w ŋ ɗ ɗʱ ɟ ɟʱ g gʱ ɦ ɲ ɳ ɸ ɽ ɽʱ ɾ ʈ ʈʰ ˀb ˀɗ ˀɟ a ao e i o oi ou u ui æ
chon1284-910	Chong of Chanthaburi	chon1284	Austroasiatic	Eurasia	12.5218	102.514	40	21	19	0	1	0	9	1.105263157894737	b c cʰ d h j k kʰ l m n p pʰ r s t tʰ w ŋ ɲ ʔ a aː e eː i iː o oː u uə uː ɔ ɔː ə əː ɛ ɛː ɨ ɨː
kiny1244-911	Kinyarwanda	kiny1244	Atlantic-Congo	Africa	-1.56771	29.6441	49	39	10	0	0	0	5	3.9	b d dz dʒ f h hʲ hʷ j k kʰ kʲ kʷ m n p pf pʰ r s t ts tʃ v w z ŋ ŋʷ ɗ g gʲ gʷ ɲ ɴ ɽ ɽʱ ʃ ʒ β a aː e eː i iː o oː u uː
kiri1254-912	Kirike	kiri1254	Ijoid	Africa	4.41126	6.98938	34	24	10	0	0	0	0	2.4	b d dʒ f h j k kp l m n p s t tʃ v w z ŋ ɓ g gb ɲ ɾ a e i o u ɔ ə ɛ ɪ ʊ
koko1269-913	Kokota	koko1269	Austronesian	Papunesia	-8.16481	159.191	27	22	5	0	0	0	0	4.4	b d f h k l l̥ m m̥ n n̥ p s t v z ŋ ŋ̊ g ɣ ɾ ɾ̥ a e i o u
bako1250-914	Bakole	bako1250	Atlantic-Congo	Africa	4.43654	8.97387	34	27	7	0	0	0	0	3.857142857142857	b bʷ d dʒ f j k kp l m ⁿb mʷ n ⁿd p r s t w ŋ ⁿgb ⁿg gb ɲ ⁿɟ ɸ β a e i o u ɔ ɛ
konn1242-915	Konni	konn1242	Atlantic-Congo	Africa	10.2368	-1.54376	49	31	18	0	0	7	9	1.7222222222222223	b d dʒ f h j k kp kː l lː m mː n nː p pː s t tː tʃ v w z ŋ ŋm ŋː g gb ɲ ɾ a aː e eː i iː o oː u uː ɔ ɔː ɛ ɛː ɪ ɪː ʊ ʊː
kuay1244-916	Kuay	kuay1244	Austroasiatic	Eurasia	14.6698	104.911	47	22	25	0	3	0	11	0.88	b c cʰ d f h j k kʰ l m n p pʰ r s t tʰ w ŋ ɲ ʔ a aː e eː i ia iː o oː u ua uː ɑ ɑː ɔ ɔː ə əː ɛ ɛː ɯ ɯa ɯː ʌ ʌː
kulu1253-917	Kulung (Nepal)	kulu1253	Sino-Tibetan	Eurasia	27.1606	87.5717	43	22	21	0	9	0	6	1.0476190476190477	b c cʰ d h j k kʰ l m n p pʰ r s t tʰ w ŋ ɟ g ʔ a ai au aː e ei eu eː i iu iː o oi ou oː u ui uː ə əi əː
kuot1243-918	Kuot	kuot1243		Papunesia	-3.06952	151.537	19	13	6	0	0	0	0	2.1666666666666665	b d f k l m n p r s t ŋ g a e i o u ə
kusu1250-919	Kusunda	kusu1250		Eurasia	28.33	82.6	38	32	6	0	0	0	0	5.333333333333333	b bʱ d dz dzʱ dʱ j k kʰ l m n p pʰ q qʰ r s t ts tsʰ tʰ tʃ w ŋ g gʱ ɢ ɲ ɴ ʔ χ a e i o u ə
kuvi1243-920	Kuvi	kuvi1243	Dravidian	Eurasia	18.8832	83.7552	37	22	15	0	0	0	5	1.4666666666666666	b dz d̪ h j k l m n p s ts t̪ v ŋ ɖ g ɳ ɽ ɾ ʈ ʔ a aː ã e eː ẽ i iː ĩ o oː õ u uː ũ
kwaz1243-921	Kwaza	kwaz1243		South America	-11.6667	-61.1833	45	29	16	0	0	0	0	1.8125	b c d f h j k l m n p s t ts tʃ t̪ v w z ð ŋ ɓ ɗ g ɲ ɾ ʃ ʒ ʔ a ã e ẽ i ĩ u ũ y œ ɔ ɔ̃ ɛ ɛ̃ ɨ ɨ̃
lada1244-922	Leh Ladakhi	lada1244	Sino-Tibetan	Eurasia	33.468	80.6013	38	33	5	0	0	0	0	6.6	b dz dʒ d̪ h j k kʰ l m n p pʰ r s ts tsʰ tʃ tʃʰ t̪ t̪ʰ w z ŋ ɗ g ɮ ɲ ʂ ʃ ʈ ʈʰ ʒ e i o u ə
lang1320-923	Langi	lang1320	Atlantic-Congo	Africa	-4.71413	35.9517	52	32	20	0	0	0	10	1.6	b d dʒ f h j k l m ⁿb ⁿp n ⁿd ⁿt ⁿdʒ ⁿtʃ p r s t tʃ v w z ŋ ⁿk ⁿg g ɥ ɲ ʃ ʔ a aː e eː i iː o oː u uː ɑ ɑː ɔ ɔː ɛ ɛː ɪ ɪː ʊ ʊː
laoo1244-924	Lao	laoo1244	Tai-Kadai	Eurasia	19.0	102.46	40	28	12	0	3	0	0	2.3333333333333335	b c cʷ d f h j k kʰ kʷ kʷʰ l lʷ m n p pʰ s sʷ t tʰ tʷʰ w ŋ ŋʷ ɲ ʔ ʔʷ a e i ia o u uə ɔ ɛ ɤ ɯ ɯə
lavu1241-925	Lavukaleve	lavu1241		Papunesia	-9.05569	159.119	20	15	5	0	0	0	0	3.0	b d f h kʰ l m n pʰ r s t ŋ ɰ β a e i o u
bafa1247-926	Bafaw-Balong	bafa1247	Atlantic-Congo	Africa	4.53307	9.522	43	27	16	0	0	0	8	1.6875	b d f j k kp l m ⁿb ⁿp n ⁿd ⁿt p s t w ŋ ⁿk ⁿg ɓ g ɲ ⁿɟ ʃ ʔ ʝ a aː e eː i iː o oː u uː ɔ ɔː ə əː ɛ ɛː
lund1266-927	Lunda	lund1266	Atlantic-Congo	Africa	-11.1793	23.8662	32	22	10	0	0	0	5	2.2	b d dʒ f h j k l m n p s t tʃ v w z ŋ g ɲ ʃ ʒ a aː e eː i iː o oː u uː
luch1239-928	Luchazi	luch1239	Atlantic-Congo	Africa	-14.0648	22.2437	42	32	10	0	0	0	5	3.2	f h j k l m ⁿb ⁿpʰ n ⁿd ⁿdz ⁿts ⁿtʰ ⁿdʒ ⁿtʃ p s t ts tʃ t̪ z ð ŋ ⁿkʰ ⁿg ɦ ɲ ʃ ʒ β θ a aː e eː o oː ɪ ɪː ʊ ʊː
orok1266-929	Oroko	orok1266	Atlantic-Congo	Africa	4.89504	9.15209	29	22	7	0	0	0	0	3.142857142857143	b d dʒ j k kp l m ⁿb n ⁿd ⁿdʒ p s t tʃ w ŋ ⁿgb ⁿg ɲ ɽ a e i o u ɔ ɛ
mace1250-930	Macedonian	mace1250	Indo-European	Eurasia	41.5957	21.7932	32	26	6	0	0	0	0	4.333333333333333	b c dz dʒ d̪ f j k l l̪ m n p r s ts tʃ t̪ v x z ɟ g ɲ ʃ ʒ a e i o u ə
mada1293-931	Mada (Cameroon)	mada1293	Afro-Asiatic	Africa	10.8806	14.1142	35	22	13	0	0	0	0	1.6923076923076923	b d dz f j k kp l m n p r s t ts v w z ŋ g gb ʍ a ã e i ĩ o u ũ ɔ ɔ̃ ə ɛ ɛ̃
madi1260-932	Ma'di	madi1260	Central Sudanic	Africa	3.62499	31.8471	54	45	9	0	0	0	0	5.0	b d dʷ dʒ f h j k kp kʷ l lʷ m ⁿb n ⁿd ⁿdʷ ⁿdʒ p r rʷ s t tʷ tʃ tʃʷ v w z ŋ ŋm ⁿgb ⁿg ⁿgʷ ɓ ɗ ɠɓ g gb gʷ ⁿv ɲ ʄ ʔ ʔʷ a e i o u ɔ ɛ ɨ ʊ
mana1295-933	Manam	mana1295	Austronesian	Papunesia	-4.07921	145.033	18	13	5	0	0	0	0	2.6	b d k l m n p s t z ŋ g ɾ a e i o u
bame1260-934	Bamenyam	bame1260	Atlantic-Congo	Africa	5.77049	10.3302	50	39	11	0	0	0	0	3.5454545454545454	f fʲ j k kʲ kʷ l lʷ m mʲ mʷ n nʷ p pf pʲ pʷ s sʲ sʷ t ts tʲ tʷ tʃ tʃʷ w wʲ z zʲ ŋ ŋʷ ɣ ɲ ʃ ʃʷ ʎ ʒ ʒʷ a e i o u ø ɑ ɔ ə ɛ ʉ
mana1288-935	Manange	mana1288	Sino-Tibetan	Eurasia	28.6416	84.0515	40	30	10	0	0	0	0	3.0	h j k kʰ kʷ kʷʰ l m mʷ n p pʰ pʷ pʷʰ s ts tsʰ tʃ tʃʰ t̪ t̪ʰ ŋ ŋʷ ɲ ɾ ʂ ʃ ʈ ʈʰ ʔ a ã e ẽ i ĩ o u ũ ʌ
ngem1255-936	Ngemba	ngem1255	Atlantic-Congo	Africa	5.97864	10.1469	38	29	9	0	0	0	0	3.2222222222222223	b d dz dʒ f j k kʷ l m ⁿb n ⁿd r s t ts tʃ v w z ŋ ŋʷ g gʷ ɣ ʃ ʒ ʔ a e i o u ɔ ə ɛ ɨ
mara1385-937	Marra	mara1385	Mangarrayi-Maran	Australia	-14.7927	134.865	24	19	5	0	0	0	0	3.8	b d d̪ j l l̪ m n n̪ w ŋ ɖ ɟ g ɭ ɲ ɳ ɽ ɾ a e i o u
maib1239-938	Maybrat-Karon	maib1239		Papunesia	-1.3679	132.591	16	11	5	0	0	0	0	2.2	f j k m n p r s t w x a e i o u
gbay1281-939	Gbaya-Mbodomo	gbay1281	Atlantic-Congo	Africa	4.800365	14.606865	35	28	7	0	0	0	0	4.0	b d f h j k kp l m ⁿb n ⁿd ⁿz p r s t v w z ŋ ⁿgb ⁿg ɓ ɗ g gb ɲ a e i o u ɔ ɛ
medu1238-940	Medumba	medu1238	Atlantic-Congo	Africa	5.10901	10.6118	25	16	9	0	0	0	0	1.7777777777777777	b d̪ f j k m n s ts t̪ v w z ŋ g ɲ a e i o u ɑ ɔ ə ʉ
ming1252-941	Mingrelian	ming1252	Kartvelian	Eurasia	42.5129	41.8719	35	30	5	0	0	0	0	6.0	b d dz dʒ h j k kʼ l m n p pʼ qʼ r s t ts tsʼ tʼ tʃ tʃʼ v x z g ɣ ʃ ʒ ʔ a i o u ɛ
mmen1238-942	Mmen	mmen1238	Atlantic-Congo	Africa	6.43213	10.2541	36	27	9	0	0	0	0	3.0	b bv d dz dʒ f j k l m n p pf s t ts tʃ v w z ŋ g ɣ ɲ ʃ ʒ ʔ a e i o u ɔ ə ɛ ɨ
moke1242-943	Moken	moke1242	Austronesian	Eurasia	10.1474	98.6765	32	22	10	0	0	0	4	2.2	b c cʰ d h j k kʰ l m n p pʰ s t tʰ w ŋ ɟ g ɲ ʔ a aː e eː i iː o u uː ə
mose1249-944	Mosetén-Chimané	mose1249		South America	-14.64448	-67.83756	38	26	12	0	0	0	2	2.1666666666666665	b d dʲ f j k kʰ l m n p pʰ r s t ts tsʰ tʲ tʃ tʃʰ w g ɲ ʃ ʔ χ a ã e ẽ i iː ĩ ĩː o õ ə ə̃
mpon1254-945	Mpongmpong	mpon1254	Atlantic-Congo	Africa	3.14015	14.866	36	29	7	0	0	0	0	4.142857142857143	b c cʰ d f j kp kpʰ kʰ l m ⁿb n ⁿd p pʰ s tʰ t̪ v w z ŋ ⁿgb ⁿg ɟ g gb ⁿɟ a e i o u ɔ ɛ
mung1266-946	Mungaka	mung1266	Atlantic-Congo	Africa	5.89752	10.0294	30	21	9	0	0	0	0	2.3333333333333335	b d dz f h j k l m n p s t ts v w ŋ g ɣ ɲ ʔ a e i o u ɔ ə ɛ ʉ
mvum1238-947	Mvumbo	mvum1238	Atlantic-Congo	Africa	2.39354	10.0812	55	47	8	0	0	0	0	5.875	b bv d dz dʒ f h jʷ k kʲ kʷ l m ⁿb ⁿbʷ n ⁿd ⁿz p pf pʲ pʷ r s t ts tʃ v w x z ŋ ⁿk ⁿkʷ ⁿg ⁿgʷ g gʲ gʷ ɥ ⁿv ɲ ɲʷ ʃʷ ʔ β βʷ a e i o u y ɔ ɛ
motl1237-948	Mwotlap	motl1237	Austronesian	Papunesia	-13.655015	167.706277	22	15	7	0	0	0	0	2.142857142857143	h j kpʷ l m ⁿb n ⁿd s t v w ŋ ŋmʷ ɣ a e i o u ɪ ʊ
nami1256-949	Namia	nami1256	Sepik	Papunesia	-3.85538	141.788	15	9	6	0	0	0	0	1.5	j k l m n p r t w a e i o u ə
ndem1249-950	Ndemli	ndem1249	Atlantic-Congo	Africa	4.58061	10.2197	48	30	18	0	0	0	9	1.6666666666666667	b c d dʒ f h j k l m ⁿb n ⁿd ⁿt ⁿɟ p r s t ts tʃ w ŋ ⁿk ⁿg ɟ g ɣ ɲ ʔ a aː e eː i iː o oː u uː ø øː ɔ ɔː ɛ ɛː ʉ ʉː
mesc1238-951	Mescalero-Chiricahua Apache	mesc1238	Athabaskan-Eyak-Tlingit	North America	33.1291	-105.566	47	31	16	0	0	0	8	1.9375	h j k kʰ kʼ l m ⁿb n ⁿd p s t ts tsʰ tsʼ tɬ tɬʰ tɬʼ tʰ tʼ tʃ tʃʰ tʃʼ x z ɣ ɬ ʃ ʒ ʔ a aː ã ãː e eː ẽ ẽː i iː ĩ ĩː o oː õ õː
quec1382-952	Quechan	quec1382	Cochimi-Yuman	North America	32.7859	-114.599	38	28	10	0	0	0	5	2.8	c cʷ c̟ j k kʷ l̥ l̪ l̪ʲ m n n̪ʲ p r s ts t̪ t̪ʲ v w ç çʷ ð ɬʲ ɳ ʂ ʈ ʔ a aː e eː o oː u uː ɪ ɪː
nank1250-953	Nankina	nank1250	Nuclear Trans New Guinea	Papunesia	-5.80804	146.464	20	14	6	0	0	0	0	2.3333333333333335	b d dz j k m n p t ts w ŋ g β i u ɑ ɔ ɛ ʌ
nand1266-954	Nandi	nand1266	Nilotic	Africa	0.793737	35.408478	23	13	10	0	0	0	5	1.3	c j k l m n p s t w ŋ ɲ ɾ a aː e eː i iː o oː u uː
kima1246-955	Kimaama	kima1246	Kolopom	Papunesia	-8.01899	138.355	40	20	20	0	2	0	9	1.0	b d f h j k kʰ l m n p pʰ s t tɕ tʰ w ŋ ɲ ʔ a aː e eː i iə iː o oː u uə uː ɔ ɔː ə əː ɛ ɛː ɯ ɯː
naki1238-956	Naki	naki1238	Atlantic-Congo	Africa	6.62784	10.2378	44	36	8	0	0	0	0	4.5	b bʲ bʷ d dz dʒ dʒʷ f fʲ fʷ j k kp kʷ l m mʷ n s t ts tsʲ tsʷ tʷ tʃ tʃʷ w ŋ g gb gʷ ɲ ʃ ʃʲ ʃʷ ʒ a e i o u ɔ ə ɛ
mich1245-957	Michoacán Nahuatl	mich1245	Uto-Aztecan	North America	18.3412	-103.361	25	20	5	0	0	0	0	4.0	b d h j k kʷ l m n p r s t ts tʃ w g ɲ ʃ ʔ a e i o u
naga1394-958	Naga Pidgin	naga1394	Indo-European	Eurasia	25.2508	93.4438	47	26	21	0	15	0	0	1.2380952380952381	b bʱ d dʱ dʒ dʒʱ h j k kʰ l m n p pʰ s t tʰ tʃ tʃʰ w z ŋ g gʱ ɾ a ae̞ ai ao au e ei eu eə i i̯a i̯u i̯ɔ o oe̞ oi ou u ui u̯ə ɔ
ngos1238-959	Ngoshie	ngos1238	Atlantic-Congo	Africa	6.04616	9.83193	32	26	6	0	0	0	0	4.333333333333333	b d dz dʒ f k m ⁿb n ⁿd p r s t ts tʃ v z ŋ ⁿg g gʱ ɲ ʃ ʒ ʔ a i u ɔ ɛ ɨ
ngal1293-960	Ngalakgan	ngal1293	Gunwinyguan	Australia	-14.4281	134.716	26	17	9	0	0	0	0	1.8888888888888888	c j k l m n p t w ŋ ɭ ɲ ɳ ɹ ɾ ʈ ʔ a e i o u ɔ ɛ ɪ ʊ
nang1259-961	Nangikurrunggurr	nang1259	Southern Daly	Australia	-14.268	131.237	28	20	8	0	0	0	4	2.5	b c d f j k l m n p r t w ŋ ɕ g ɲ ɾ ʂ ʎ a aː e eː i iː u uː
ngom1272-962	Ngomba	ngom1272	Atlantic-Congo	Africa	5.63067	10.237	28	21	7	0	0	0	0	3.0	bv cç d dz f j k m n p pf s t ts w ç ŋ ɟʝ g ɲ ʔ a i u ɔ ə ɛ ʉ
ngom1271-963	Ngombale	ngom1271	Atlantic-Congo	Africa	5.70306	10.1446	56	37	19	0	0	0	7	1.9473684210526316	b bv bʱ d dz dʱ dʒ f h j k kʰ l m n p pf pʰ r s t ts tʰ tʃ v w z ŋ g gʱ gʷ ɣ ɰ ɲ ʃ ʒ β a e eː i iː o oː u uː ũ ɔ ɔː ə əː ə̃ ɛ ʉ ʉː ʉ̃
nuuc1236-964	Nuu-chah-nulth	nuuc1236	Wakashan	North America	49.67	-126.67	47	37	10	0	0	0	5	3.7	h j j̰ k kʷ kʼʷ kʼ m m̰ n n̰ p pʼ q qʷ qʼʷ qʼ s ts tsʼ tɬ tɬʼ tʃ tʃʼ t̪ t̪ʼ w w̰ x xʷ ħ ɬ ʃ ʔ ʡ χ χʷ a aː eː iː uː ɔ ɔː ɛ ɪ ʊ
nort2684-965	Northern Khmer	nort2684	Austroasiatic	Eurasia	14.4674	103.863	43	24	19	0	3	0	13	1.263157894736842	b d h j k kʰ l m m̩ n n̩ p pʰ s t tɕ tɕʰ tʰ w ŋ ŋ̍ ɲ ɽ ʔ aː e eː ia iː oː ua uː ɑː ɔː əː ɛ ɛː ɤː ɪ ɪː ɯa ɯː ʌː
nort2954-966	Northern Paiute	nort2954	Uto-Aztecan	North America	40.0799	-119.536	24	14	10	0	0	0	5	1.4	h j k kʷ m n p s t ts tʃ w ŋ ʔ a aː i iː u uː ɔ ɔː ɨ ɨː
nubi1253-967	Nubi	nubi1253	Afro-Asiatic	Africa	-0.183215	34.7552	35	30	5	0	0	0	0	6.0	b d dʒ f h j k l m n p q r s t tʃ v w x z ð ħ ŋ g ɱ ɲ ɾ ʃ ʔ θ e i o u ɑ
nuer1246-968	Nuer	nuer1246	Nilotic	Africa	8.13911	32.3829	48	20	28	0	0	0	14	0.7142857142857143	b c d d̪ j k l m n n̪ p r t t̪ w ŋ ɟ g ɦ ɲ a aː a̤ a̤ː i iː i̤ i̤ː o oː o̤ o̤ː ṳ ṳː æ̤ æ̤ː ɔ ɔː ɔ̤ ɔ̤ː ɛ ɛː ɛ̤ ɛ̤ː ɵ̤ ɵ̤ː ʊ̤ ʊ̤ː
elip1238-969	Elip	elip1238	Atlantic-Congo	Africa	4.45694	11.193	26	19	7	0	0	0	0	2.7142857142857144	b dʒ f h j k l m ⁿb n ⁿd p s t tʃ w ŋ g ɲ a e i o u ɔ ɛ
nyam1276-970	Nyamwezi	nyam1276	Atlantic-Congo	Africa	-5.08559	32.94452	50	36	14	0	0	0	7	2.5714285714285716	b d dʒ f h j k l m ⁿb m̥ n ⁿd ⁿs ⁿz ⁿdʒ ⁿtʃ n̥ ⁿʃ p s t tʃ v w z ŋ ⁿg ŋ̊ g ⁿv ⁿf ɲ ɲ̊ ʃ β a aː e eː i iː o oː u uː ɪ ɪː ʊ ʊː
nyeu1238-971	Nyeu	nyeu1238	Austroasiatic	Eurasia	14.8817	104.33	40	20	20	0	0	0	10	1.0	b c d f h j k kʰ l m n p pʰ s t tʰ w ŋ ɲ ʔ a aː e eː i iː o oː u uː ɑ ɑː ɔ ɔː ə əː ɛ ɛː ɨ ɨː
obol1243-972	Obolo	obol1243	Atlantic-Congo	Africa	4.62851	7.81985	34	22	12	0	0	0	6	1.8333333333333333	b d dʒ f j k kp kʷ l m n nʷ r s t tʃ w ŋ g gb gʷ ɲ a aː e eː i iː o oː u uː ɔ ɔː
mian1257-973	Mianmin	mian1257	Nuclear Trans New Guinea	Papunesia	-4.70881	141.523	21	13	8	0	4	0	0	1.625	b d f h j k m n s t w ŋ g a ai au e ei i ou u
faiw1243-974	Faiwol	faiw1243	Nuclear Trans New Guinea	Papunesia	-5.4967	141.656	20	12	8	0	3	0	0	1.5	b d f j k l m n s t w g a ai au e ei i o u
okuu1243-975	Oku	okuu1243	Atlantic-Congo	Africa	6.23712	10.5096	25	18	7	0	0	0	0	2.5714285714285716	b d dʒ f j k l m n s t tʃ v w z ŋ g ɣ a e i u ɔ ə ɛ
osse1243-976	Modern Ossetic	osse1243	Indo-European	Eurasia	42.98	44.61	39	30	9	0	0	0	0	3.3333333333333335	b dz dʒ d̪ f j k kʼ l m n p pʼ q r s ts tsʼ tʼ tʃ tʃʼ t̪ v w z g ʁ ʃ ʒ χ e i o u ɑ ə ɛ ɨ ɪ
pala1344-977	Palauan	pala1344	Austronesian	Papunesia	7.34138	134.476678	22	10	12	0	0	0	6	0.8333333333333334	b d̪ k l m r s t̪ ŋ ʔ a aː e eː i iː o oː u uː ə əː
orok1269-978	Orokaiva	orok1269	Nuclear Trans New Guinea	Papunesia	-8.79019	148.09	17	12	5	0	0	0	0	2.4	b d dz h k m n p s t ŋ g a e i o u
yill1241-979	Yil	yill1241	Nuclear Torricelli	Papunesia	-3.46501	142.178	23	12	11	0	4	0	0	1.0909090909090908	j k l m n p r s t w ŋ g a ai au ay e ei i o u y ə
ning1273-980	Ningil	ning1273	Nuclear Torricelli	Papunesia	-3.49733	142.251	21	14	7	0	0	0	0	2.0	j k l m n p r s t w ŋ g ɸ ʔ a i u ɔ ɛ ɨ ʌ
dobu1241-981	Dobu	dobu1241	Austronesian	Papunesia	-9.63239	150.825	24	19	5	0	0	0	0	3.8	b bʷ d j k kʷ l m mʷ n p pʷ s t w g gʷ ʔ ʔʷ a i u ɔ ɛ
samo1303-982	Samo	samo1303	East Strickland	Papunesia	-6.15496	142.195	18	12	6	0	0	0	0	2.0	b d f h j k l m s t w g a e i o u ɔ
urii1240-983	Uri	urii1240	Nuclear Trans New Guinea	Papunesia	-6.41993	146.608	24	16	8	0	0	0	2	2.0	b d f j k kʷ m n p s t w ŋ g gʷ ɾ a i iː o u uː ɛ ʌ
boik1241-984	Boikin	boik1241	Ndu	Papunesia	-3.68297	143.474	25	17	8	0	0	0	0	2.125	f h j k l̪ m n n̪ p r s t ts w ŋ g ɺ a e i o u æ ɒ ɨ
phai1238-985	Prai	phai1238	Austroasiatic	Eurasia	19.0383	101.218	35	17	18	0	0	0	9	0.9444444444444444	c h j k l m n p r t w ç ŋ ɓ ɗ ɲ ʔ a aː e eː i iː o oː u uː æ æː ɔ ɔː ə əː ɯ ɯː
mall1246-986	Mal	mall1246	Austroasiatic	Eurasia	19.273	101.204	39	17	22	0	4	0	9	0.7727272727272727	b c d j k l m n p s t w ŋ ɰ ɲ ɸ ʔ a aː e eː i ia ie iː o oː u ua uː æ æː ɔ ɔː ə əː ɯ ɯa ɯː
rama1270-987	Rama	rama1270	Chibchan	North America	11.5007	-83.8571	28	19	9	0	0	0	4	2.111111111111111	b d h j k kʷ l m n p r s t ts w z ŋ ŋʷ g a aː e eː i iː o u uː
matb1237-988	Matbat	matb1237	Austronesian	Papunesia	-1.8801	130.075	20	15	5	0	0	0	0	3.0	b d f h j k l m n p s t w ŋ g a e i o u
rund1242-989	Rundi	rund1242	Atlantic-Congo	Africa	-2.94	29.97	27	22	5	0	0	0	0	4.4	b d dz f h j k m n p pf r s t ts v w z g ɲ ʃ ʒ a e i o u
nyan1307-990	Nyankole	nyan1307	Atlantic-Congo	Africa	-0.46364	30.548	28	20	8	0	3	0	0	2.5	b d dʒ f h k m n p r s t tʃ v z ŋ g ɲ ʃ ʒ a ai e ei i o oi u
marw1260-991	Marwari (India)	marw1260	Indo-European	Eurasia	27.002	75.0656	46	36	10	0	2	0	0	3.6	b bʱ dz dʒ d̪ d̪ʱ h k kʰ l m mʱ n nʱ p pʰ s ts tʃ t̪ t̪ʰ v vʱ ŋ ɖ ɖʱ g gʱ ɭ ɲ ɳ ɽ ɾ ʈ ʈʰ ʝ a ai au e i o u ə ɪ ʊ
samb1305-992	Samba Leko	samb1305	Atlantic-Congo	Africa	8.19236	11.7366	31	22	9	0	0	0	0	2.4444444444444446	b d dʒ f j k kp l m n p s t v w z ŋ g gb ɲ ʔ ʝ a e i o u ɔ ə ɛ ɪ
sout2844-993	Southern Samo	sout2844	Mande	Africa	12.713	-2.9052	26	18	8	0	0	0	0	2.25	b d dʲ f j k l m n p s t tʲ w z g gʲ ɲ a e i o u ɔ ə ɛ
samr1245-994	Samre of Siem Reap	samr1245	Bookkeeping	Eurasia	13.479	103.978	41	20	21	0	3	0	9	0.9523809523809523	b c cʰ d h j k l m n p pʰ s t tʰ w ŋ ɲ ɹ ʔ a aː e eː i iə iː o oː u uə uː ɔ ɔː ə əː ɛ ɛː ɯ ɯə ɯː
saba1268-995	Sabanê	saba1268	Nambiquaran	South America	-12.9857	-60.335	18	13	5	0	0	0	0	2.6	h j k l m n p s t w ɓ ɗ ʔ a e i o u
saan1246-996	Saanich	saan1246	Salishan	North America	48.51614	-123.757114	40	35	5	0	0	0	0	7.0	h j j̰ k kʷ k̰ʷ l l̰ m m̰ n n̰ p p̰ q qʷ q̰ q̰ʷ s s̰ t ts̰ tʃ tʃ̰ t̰ w w̰ xʷ ŋ ŋ̰ ɬ ʃ ʔ χ χʷ a e i u ə
sasa1249-997	Sasak	sasa1249	Austronesian	Papunesia	-8.58349	116.284	30	19	11	0	6	0	0	1.7272727272727273	b d dʒ h j k l m n p r t tʃ w ç ŋ g ɲ ʔ ae ai au e i ia o oe u uə ə
sora1254-998	Sora	sora1254	Austroasiatic	Eurasia	19.1213	84.19	30	19	11	0	0	0	0	1.7272727272727273	b b̻ d̪ d̻ j k k̻ l m n̪ p p̻ r s t̪ ŋ g ɲ ɾ e i o u æ ɑ ə ɛ ɪ ʊ ʌ
sayu1241-999	Sayula Popoluca	sayu1241	Mixe-Zoque	North America	17.8606	-94.9531	25	19	6	0	0	0	0	3.1666666666666665	b d dʒ f j l m n p q r s t ts tʃ v w g ʃ a e i o u ʉ
seco1241-1000	Secoya	seco1241	Tucanoan	South America	-0.459785	-75.5547	18	12	6	0	0	0	0	2.0	d h j k kʷ m p s t w z ʔ a e i o u ɨ
taro1264-1001	Seediq	taro1264	Austronesian	Papunesia	23.9032	121.358	43	33	10	0	0	0	0	3.3	b d dʲ h j k l m n p q r rʲ s t ts tsʲ tʲ w z ð ħ ŋ ɟ g ɣ ɦ ɮ ɲ ɹ ɾ ʂ ʃ e i o u ɑ ə ɨ ɪ ɯ ʌ
seim1238-1002	Seimat	seim1238	Austronesian	Papunesia	-1.2666667	144.25	28	11	17	0	7	0	0	0.6470588235294118	h k l m n p s t̪ w x ŋ a ai au ã ei eu i iu ĩ oi ou u ũ ɔ ɔ̃ ɛ ɛ̃
seme1247-1003	Semelai	seme1247	Austroasiatic	Eurasia	2.82799	102.806	51	33	18	0	0	0	0	1.8333333333333333	b c cʰ d h j k kʰ l m m̥ n n̥ p pʰ r s t tʰ w z ŋ ŋ̊ ɟ g ɲ ʔ ˀj ˀl ˀm ˀn ˀr ˀɲ a ã e ẽ i ĩ o õ u ũ ɒ ɔ ɔ̃ ə ə̃ ɛ ɛ̃ ʉ
serr1255-1004	Serrano	serr1255	Uto-Aztecan	North America	33.9479	-116.772	42	33	9	0	0	0	0	3.6666666666666665	b d f h hʷ j k kʷ l lʲ m n n̺ p q qʷ r̺ s s̺ t tʃ ts̺ w x xʷ ŋ ŋʷ g ɲ ʃ ʔ χ χʷ a a˞ e i o o˞ u ɨ ɨ˞
shab1252-1005	Shabo	shab1252		Africa	7.64407	35.223	41	28	13	0	0	0	5	2.1538461538461537	b c c̰ d f h j k k̰ l m n p p̰ s t t̰ w ŋ ɓ ɗ ɟ g ɲ ɾ ʃ ʄ ʔ a aː e eː i iː o oː u uː ɔ ɪ ʌ
yawa1260-1006	Yawanawa	yawa1260	Pano-Tacanan	South America	-8.87563	-71.8199	18	14	4	0	0	0	0	3.5	f h j k m n p s t ts tʃ w ɾ ʂ a i u ɨ
mako1251-1007	Makonde	mako1251	Atlantic-Congo	Africa	-10.9906	39.5133	23	18	5	0	0	0	0	3.6	b d dʒ j k l m n p s t tʃ v w ŋ g ɲ ʃ a e i o u
shon1251-1008	Shona	shon1251	Atlantic-Congo	Africa	-17.20849	29.75725	42	37	5	0	0	0	0	7.4	b d dʒ d̪ f h j k m n̪ p r sʷ s̪ t tʃ t̪ v w x zʷ z̪ ç ŋ ɓ ɗ g ɣ ɦ ɬ ɮ ɲ ʃ ʋ ʒ ʝ β a e i o u
bamu1253-1009	Bamun	bamu1253	Atlantic-Congo	Africa	5.49017	10.8477	38	28	10	0	0	0	0	2.8	b d dʒ f h j k kp kx l m n p s t v w x z ŋ g gb ɱ ɲ ɾ ʃ ʒ ʔ a e i o u ɔ ə ɛ ɨ ʉ
siar1238-1010	Siar-Lak	siar1238	Austronesian	Papunesia	-4.62059	152.892	22	15	7	0	0	0	0	2.142857142857143	b d j k l m n p r s t w ŋ g ɸ e e̝ i o o̝ u ɑ
sera1259-1011	Saraiki	sera1259	Indo-European	Eurasia	29.5534	71.906	83	48	35	0	17	0	0	1.3714285714285714	b bʱ c cʰ d̪ d̪ʱ f h j k kʰ l lʱ m mʱ n nʱ p pʰ s t̪ t̪ʰ v vʱ x z ŋ ɓ ɖ ɖʱ ɗ ɟ ɟʱ ɠ g gʱ ɣ ɲ ɳ ɳʱ ɽ ɽʱ ɾʱ ɾ̪ ʃ ʄ ʈ ʈʰ a ae ai ã e ea ẽ i ia iã ĩ o oi õ u ua uẽ ui ũ æ æe æ̃ ɪ ɪa ɪã ɪʌ ɪ̃ ʊ ʊa ʊe ʊi ʊ̃ ʌ ʌi ʌ̃
shaw1249-1012	Shawnee	shaw1249	Algic	North America	40.0	-83.0	19	13	6	0	0	1	2	2.1666666666666665	j k kː l m n p t tʃ w ʃ ʔ θ a aː e i iː o
nucl1634-1013	Skou	nucl1634	Sko	Papunesia	-2.64378	140.902	20	13	7	0	0	0	0	1.8571428571428572	b f h j k l m n p r t w ɟ a i u ø ɔ ɛ ʉ
aheu1239-1014	Thavung	aheu1239	Austroasiatic	Eurasia	17.7655	104.229	72	22	50	0	6	0	22	0.44	b c cʰ d f h j k kʰ l m n p pʰ s t tʰ w ŋ ɲ ɾ ʔ a aː a̤ a̤ː e eː e̤ e̤ː i ia iː i̤ i̤a i̤ː o oː o̤ o̤ː u ua uː ṳ ṳa ṳː ɑ ɑː ɑ̤ ɑ̤ː ɔ ɔː ɔ̤ ɔ̤ː ɛ ɛː ɛ̤ ɛ̤ː ɤ ɤː ɤ̤ ɤ̤ː ɯ ɯa ɯː ɯ̤ ɯ̤a ɯ̤ː ʌ ʌː ʌ̤ ʌ̤ː
sout2856-1015	South Efate	sout2856	Austronesian	Papunesia	-17.7006	168.377	20	15	5	0	0	0	0	3.0	f j k kp l m n ⁿdʳ p r s t w ŋ ŋm a e i o u
spok1245-1016	Spokane	spok1245	Salishan	North America	47.9087	-118.062	43	38	5	0	0	0	0	7.6	h j j̰ kʷ k̰ʷ l l̰ m m̰ n n̰ p p̰ q qʷ q̰ q̰ʷ r r̰ s t ts ts̰ tʃ tʃ̰ t̰ w w̰ xʷ ɬ ʃ ʔ ʕ ʕʷ ʕ̰ ʕ̰ʷ χ χʷ a e i o u
sata1237-1018	Satawalese	sata1237	Austronesian	Papunesia	7.36084	147.038	42	29	13	0	0	13	5	2.230769230769231	f fː j k kː m mʷˠ mʷˠː mː n nː p pʷˠ pʷˠː pː r rː s sː tʃ tʃː t̪ t̪ː w ŋ ŋː g ɻ ɻː a aː i iː oː u uː æ ɒ ɛ ɛː ɞ ʉ
ulwa1239-1019	Ulwa	ulwa1239	Misumalpan	North America	12.932292	-83.581467	28	22	6	0	0	0	3	3.6666666666666665	b d h j j̊ k l l̥ m m̥ n n̥ p r r̥ s t w w̥ ŋ ŋ̊ g a aː i iː u uː
hupd1244-1020	Hup	hupd1244	Naduhup	South America	0.58622	-69.8359	29	20	9	0	0	0	0	2.2222222222222223	b b̰ c d d̰ h j j̰ k p p̰ t w w̰ ç ɟ ɟ̰̩ g g̰ ʔ a e i o u æ ɔ ə ɨ
chim1300-1021	Chimalapa Zoque	chim1300	Mixe-Zoque	North America	16.6543	-94.6913	26	20	6	0	0	0	0	3.3333333333333335	b d f h j k l m n p r s t ts tʃ w ŋ g ʃ ʔ a e i o u ə
loxi1235-1022	Loxicha Zapotec	loxi1235	Otomanguean	North America	15.8442	-96.6997	30	23	7	0	0	0	0	3.2857142857142856	j k m n̪ p r̃ ts̪ t̪ w x z ð ŋ ɣ ɣʷ ɭ ɲ ɾ ʂ ʈʂ ʐ β θ a e i o u ɔ ɛ
yuki1243-1023	Northern Yukian	yuki1243	Yuki-Wappo	North America	39.8389	-123.296	30	24	6	0	0	0	0	4.0	c c̰ h j j̰ k k̰ l l̰ m m̰ n̰ p p̰ s s̰ t t̪ t̪ʼ t̰ w w̰ ç ʔ a e i o u ə
yape1248-1024	Yapese	yape1248	Austronesian	Papunesia	9.55811	138.125	44	28	16	0	0	0	8	1.75	f f̰ h j k k̰ l̰ m m̰ n n̰ p p̰ r s t tʃ t̰ w w̰ x ð ŋ ŋ̰ ʔ β θ θ̰ a aː eː iː æ æː œ œː ɑː ɔ ɔː ɛ ɪ ʊ ʊː ʌ
yuro1248-1025	Yurok	yuro1248	Algic	North America	41.3262	-123.824	35	23	12	0	0	0	6	1.9166666666666667	h j k kʷ k̰ k̰ʷ l m n̪ p p̰ r s tʃ tʃ̰ t̪ t̰ w x ɣ ɬ ʃ ʔ a aː e eː i iː o oː u uː ə əː
yura1255-1026	Yuracaré	yura1255		South America	-16.7479	-65.1224	25	18	7	0	0	0	0	2.5714285714285716	b d dʲ h j k l m n p s t tʃ w ɲ ɹ̝ ʃ ʔ a e i o u æ ɨ
sout2750-1027	Southern Yukaghir	sout2750	Yukaghir	Eurasia	64.218	154.375	33	21	12	0	0	0	6	1.75	dʒ d̪ j k l m n p q r tʃ t̪ w ŋ g ɲ ʁ ʃ ʎ ʒ ʔ a aː e eː i iː o oː u uː ø øː
wamb1259-1029	Wambon	wamb1259	Nuclear Trans New Guinea	Papunesia	-5.44334	140.48	26	16	10	0	5	0	0	1.6	dʒ h j k l m ⁿb n ⁿd p s t w ⁿg ɣ β a ai au e ei i o oi u ui
wash1253-1030	Washo	wash1253		North America	38.8184	-119.64	32	26	6	0	0	0	0	4.333333333333333	b d dz h j j̊ k k̰ l l̥ m m̥ n p p̰ s t t̰ ts̰ w w̥ ŋ ŋ̊ g ʃ ʔ a e i o u ɨ
waya1269-1031	Wayana	waya1269	Cariban	South America	2.77537	-54.4429	16	9	7	0	0	0	0	1.2857142857142858	h j k m n p t w ɽ a e i o u ə ɨ
woge1237-1032	Wogeo	woge1237	Austronesian	Papunesia	-3.20238	144.089	20	15	5	0	0	0	0	3.0	b d̪ f j k l̪ m n̪ r s t̪ v ŋ g ɲ a e i o u
huar1255-1033	Huarijio	huar1255	Uto-Aztecan	North America	27.8685	-108.437	26	12	14	0	9	0	0	0.8571428571428571	h j k m n p s t tʃ w ɾ ʔ a ai au e ei i ia ie o oi u ua ue ui
vaii1241-1034	Vai	vaii1241	Mande	Africa	7.05085	-11.3262	39	28	11	0	0	0	0	2.5454545454545454	b c d f h j k kp l m ⁿb n ⁿd p s t v w z ŋ ⁿgb ⁿg ɓ ɟ g gb ɲ ⁿɟ a ã e i ĩ o u ɔ ɔ̃ ɛ ɛ̃
ukra1253-1035	Ukrainian	ukra1253	Indo-European	Eurasia	49.796	29.945	30	24	6	0	0	0	0	4.0	b dʒ d̪ dz̪ f h j k l̪ m n̪ p r̪ s̪ tʃ t̪ ts̪ v w x z̪ g ʃ ʒ a i u ɔ ɛ ɪ
phal1254-1036	Palula	phal1254	Indo-European	Eurasia	35.5096	71.8421	40	30	10	0	0	0	5	3.0	b d̪ f h j k l m n̪ p q r s ts tɕ t̪ w x z ɕ ɖ g ɣ ɳ ɽ ʂ ʈ ʈʂ ʐ ʑ a aː e eː i iː o oː u uː
east2440-1037	East Makian	east2440	Austronesian	Papunesia	0.07337	127.423	24	19	5	0	0	0	0	3.8	b d dʒ f h j k l m n p r s t tʃ w ŋ g ʔ a e i o u
tapi1253-1038	Tapieté	tapi1253	Tupian	South America	-21.4169	-62.684	27	15	12	0	0	0	0	1.25	dʒ h k kʷ ⁿb ⁿd p s t tʃ w ⁿg ɾ ʃ ʔ a ã e ẽ i ĩ o õ u ũ ɨ ɨ̃
baru1269-1039	Baruga	baru1269	Nuclear Trans New Guinea	Papunesia	-9.40132	148.761	24	14	10	0	0	0	0	1.4	b d dʒ j k m n s t g ɣ ɸ ɾ β a ã e ẽ i ĩ o õ u ũ
tatu1247-1040	Tatuyo	tatu1247	Tucanoan	South America	0.55582	-70.5327	17	11	6	0	0	0	0	1.8333333333333333	b d h j k p r s t w g a e i o u ʉ
tagw1240-1041	Tagwana Senoufo	tagw1240	Atlantic-Congo	Africa	8.67053	-5.17372	45	23	22	0	0	0	11	1.0454545454545454	b c d f h j k kp l m n p s t v w z ŋ ŋm ɟ g gb ɲ ã ãː e eː i iː ĩ ĩː o oː u uː ũ ũː ɔ ɔː ɔ̃ ɔ̃ː ɛ ɛː ɛ̃ ɛ̃ː
maza1291-1042	Mazanderani	maza1291	Indo-European	Eurasia	36.241	52.3009	29	22	7	0	0	0	0	3.142857142857143	b d dʒ f h j k l̪ m n̪ p q r s t tʃ v x z g ʃ ʒ a e i o u ɑ ɛ
paok1235-1043	Pa'o Karen	paok1235	Sino-Tibetan	Eurasia	20.211	97.5969	31	20	11	0	2	0	0	1.8181818181818181	b c cʰ d h j k kʰ l m n p pʰ r s t tʰ w ŋ ʔ a ai au e i o u ɔ ə ɛ ʉ
tern1247-1044	Ternate	tern1247	North Halmahera	Papunesia	0.80562	127.333	25	20	5	0	0	0	0	4.0	b d dʒ f h j k l m n p s t tʃ w ŋ g ɲ ɾ ʔ a e i o u
toba1269-1045	Toba	toba1269	Guaicuruan	South America	-23.77	-61.96	28	21	7	0	0	0	3	3.0	b d dʒ h j kʰ l̪ m n̪ pʰ qʰ s tʰ tʃ w g ɲ ɾ ʃ ʎ ʔ a aː i o oː ɛ ɛː
east2295-1049	Eastern Yiddish	east2295	Indo-European	Eurasia	51.75	19.42	47	38	9	0	3	0	0	4.222222222222222	b d dz dzʲ dʲ dʒ dʒʲ f h j k l m n nʲ p r s sʲ t ts tsʲ tʲ tʃ tʃʲ v x z zʲ ŋ g ɣ ɾ ʀ ʃ ʎ ʒ ʔ a aɛ ɔ ɔɛ ɛ ɛɪ ɜ ɪ ʊ
dutc1256-1050	Dutch	dutc1256	Indo-European	Eurasia	52.0	5.0	39	24	15	0	3	0	5	1.6	b d f j k l m n p s t v w x z ŋ ɣ ɦ ɲ ʀ ʃ ʎ ʒ ʔ aː eː i oː u yː øː œy ɑ ɔ ɔu ɛ ɛi̯ ɪ ʏ
malo1243-1051	Tamambo	malo1243	Austronesian	Papunesia	-15.6835	167.16	21	16	5	0	0	0	0	3.2	k l m ⁿb ⁿbʷ mʷ n ⁿd ⁿɟ r s t x ŋ β βʷ a e i o u
gayo1244-1052	Gayo	gayo1244	Austronesian	Papunesia	4.3733	97.3456	27	19	8	0	0	0	0	2.375	b d dʒ h j k l m n p r s t tʃ w ŋ g ɲ ʔ a e i o u ɔ ə ɛ
jama1262-1053	Jamaican Creole English	jama1262	Indo-European	North America	18.13	-77.2612	33	21	12	0	4	0	3	1.75	b d dʒ f h j k l m n p s t tʃ v w z ŋ g ɹ ʃ a ai au aː e i ia iː o u ua uː
mamb1294-1054	Mambai	mamb1294	Atlantic-Congo	Africa	9.6121	14.0013	50	26	24	0	0	0	8	1.0833333333333333	b d f h j k kp l m n p s t v w z ŋ ɓ g gb ɽ ʔ ˀj̰ ˀw̰ ᶑ ⱱ̟ a aː ã ãː a̰ ã̰ e eː ḛ i iː ĩ ĩː ḭ ḭ̃ o oː o̰ u uː ũ ũː ṵ ṵ̃
ibib1240-1057	Ibibio	ibib1240	Atlantic-Congo	Africa	5.15279	7.86688	30	17	13	0	0	4	6	1.3076923076923077	b d f j k kp m mː n nː s t̪ w ŋ ŋː ɲ ɲː a aː e eː i iː o oː u uː ɔ ɔː ʌ
tami1289-1058	Tamil	tami1289	Dravidian	Eurasia	10.520219	78.825989	33	21	12	0	2	0	5	1.75	b dʒ d̪ j k l m n p s tʃ t̪ ɖ g ɭ ɲ ɳ ɻ ɾ ʈ ʋ a aɪ aʊ aː e eː i iː o oː u uː
zoog1238-1059	Zoogocho Zapotec	zoog1238	Otomanguean	North America	17.2016	-96.3433	60	28	32	0	12	0	0	0.875	b d dʒ f j k̚ k̚ʷ l l̚ m̚ n n̚ p̚ r s̚ tʃ̚ t̚ w x z g ɲ ɾ ʁ ʂ̚ ʃ̚ ʐ ʒ a ae ai ao aˀ a̤ a̰ e ea ei eo eˀ e̤ ḛ i ia ie io iˀ i̤ ḭ o oa oe oi oˀ o̤ o̰ u uˀ ṳ ṵ
baga1273-1060	Baga Koga	baga1273	Atlantic-Congo	Africa	10.1286	-13.947	25	17	8	0	0	0	0	2.125	b d f j k l m n p r s t ts w ŋ gb ɲ a e i o u ɔ ə ɛ
sout2895-1061	South Nuaulu	sout2895	Austronesian	Papunesia	-3.23411	129.148	17	12	5	0	0	0	0	2.4	h j k l m n p r s t w ʔ a e i o u
sela1259-1062	Selaru	sela1259	Austronesian	Papunesia	-8.18376	130.961	19	14	5	0	0	0	0	2.8	b d f h j k l m n r s t w ʔ a e i o u
tsuv1239-1063	Tsuvadi	tsuv1239	Atlantic-Congo	Africa	10.8421	5.22095	50	38	12	0	0	0	0	3.1666666666666665	b d dz dʒ f h hʲ hʷ j jˀ k kʲ kʷ l lʲ m n nʲ p s t ts tʲ tʃ v w wˀ z ɓ ɗ ɟ g gʲ gʷ ʃ ʒ ʔ β̞ a ã e ẽ i ĩ o õ u ũ ɔ ɔ̃
hang1263-1064	Hanga Hundi	hang1263	Ndu	Papunesia	-3.90364	142.849	23	16	7	0	0	0	0	2.2857142857142856	b d j k l m n s t w ɟ g ɣ ɲ ɸ ɾ a e i o u ə ɨ
blan1242-1065	Blang	blan1242	Austroasiatic	Eurasia	22.0092	99.7405	38	24	14	0	0	0	0	1.7142857142857142	c cʰ f h j j̊ k kʰ l l̥ m m̥ n n̥ p pʰ r s t tʰ w ŋ ɲ̊ ʔ a a̤ e e̤ i i̤ o o̤ u ṳ ɔ ɔ̤ ɯ ɯ̤
tata1257-1066	Tatana	tata1257	Austronesian	Papunesia	5.49808	115.553	21	17	4	0	0	0	0	4.25	b d dʒ j k l m n p r s t w ŋ g ɲ ʔ a i o u
tibe1272-1067	Tibetan	tibe1272	Sino-Tibetan	Eurasia	28.3681	90.1872	32	24	8	0	0	0	0	3.0	h j k kʰ l̥ l̪ m n̪ p pʰ r̪ s̪ tɕ tɕʰ t̪ ts̪ ts̪ʰ t̪ʰ w ŋ ɕ ʈ ʈʰ ʔ a e i o u y ø ɛ
chee1238-1068	Che	chee1238	Atlantic-Congo	Africa	10.0031	8.67024	54	30	24	0	8	0	8	1.25	b d dʒ f h hʲ hʷ j j̊ k kp l m n p s t tʃ v w̞ z ŋ ŋm g gb ɥ ɥ̥ ɲ ɾ ⱱ a au aɪ aː i iː u uː ɐ ɐi ɐu ɐː ɔ ɔɪ ɔː ɛ ɛʊ ɛː ɪ ɪː ʊ ʊu ʊɪ ʊː
tolo1259-1069	Tolowa-Chetco	tolo1259	Athabaskan-Eyak-Tlingit	North America	41.9192	-124.1	31	26	5	0	0	0	0	5.2	h j k kʼ l m n p pʰ s t tsʼ tʰ tʼ tʃ tʃʼ w x g ɣ ɬ ʂ ʃ ʈ ʈʼ ʔ i u æ ɐ ɑ
pagi1243-1070	Pagibete	pagi1243	Atlantic-Congo	Africa	3.15636	22.1212	49	42	7	1	0	0	0	6.0	b bʷ d f j k kp kʲ kʷ l m ⁿb ⁿbʷ ⁿp n ⁿd ⁿs ⁿt ⁿz p pʷ s t v w z ⁿk ⁿkʷ ⁿkp ⁿgb ⁿg ⁿgʲ ⁿgʷ ŋʷ ɓ ɗ g gb gʲ gʷ ⁿv ɲʲ a e i o u ɔ ɛ
choc1276-1071	Choctaw	choc1276	Muskogean	North America	32.25	-88.5	21	15	6	0	0	0	3	2.5	b f h j k l m n p s t tʃ w ɬ ʃ a aː i iː o oː
mich1243-1072	Michif	mich1243	Algic	North America	49.1681	-99.9119	41	25	16	0	0	0	0	1.5625	b d dʒ f h j k l m n p r s t tʃ v w z g ʃ ʒ ʰk ʰp ʰt ʰtʃ a ã e i ĩ o u y œ ɑ ɔ ɔ̃ ɛ ɛ̃ ɪ ʊ
pila1245-1073	Pilagá	pila1245	Guaicuruan	South America	-25.0058	-60.1537	22	18	4	0	0	0	0	4.5	d h j k l m n p q s t tʃ w g ɲ ʎ ʔ ʕ e i o ʌ
yuch1247-1074	Yuchi	yuch1247		North America	35.75	-86.75	49	38	11	0	0	0	0	3.4545454545454546	b d dz dʒ f fʼ h j j̰ k kʰ kʼ l l̰ n n̰ p pʰ pʼ s sʼ t ts tsʰ tsʼ tʰ tʼ tʃ tʃʰ tʃʼ w w̰ g ɬ ɬʼ ʃ ʃʼ ʔ e ẽ i ĩ o õ u æ æ̃ ɑ ɑ̃
bani1255-1075	Baniwa do Icana	bani1255	Arawakan	South America	2.17859	-67.7704	37	25	12	0	8	0	0	2.0833333333333335	b d̪ dz̪ h j k kʰ m n̪ p pʰ t̪ ts̪ t̪ʰ w g ɸ ɽ ɾ̪ ʂ ʃ ʰm ʱn̪ ʱɾ̪ β a ai au e i ia ie iu u ua ue ui
kari1311-1076	Karitiâna	kari1311	Tupian	South America	-9.37937	-64.1522	25	11	14	0	0	0	4	0.7857142857142857	h k m n p s t w ŋ ɲ ɾ a aː ã e eː ẽ i iː ĩ o oː õ ɨ ɨ̃
nort2943-1077	North Alaskan Inupiatun	nort2943	Eskimo-Aleut	North America	69.582	-143.77	27	24	3	0	0	0	0	8.0	h j k l l̥ m n p q s t tʃ v x ŋ ɣ ɲ ʁ ʃ ʎ ʎ̥ ʒ ʔ χ a i u
sanj1284-1078	Western Tlacolula Valley Zapotec	sanj1284	Otomanguean	North America	17.0332	-96.5967	47	29	18	0	0	4	0	1.6111111111111112	b d dʒ f h j k l lː m mː n nː p r s t ts tʃ w z ŋ ŋː g ɾ ʂ ʃ ʐ ʒ a a̤ a̰ e e̤ ḛ i i̤ ḭ o o̤ o̰ u ṳ ṵ ɯ ɯ̤ ɯ̰
tzot1259-1079	Tzotzil	tzot1259	Mayan	North America	16.6362	-92.7388	26	21	5	0	0	0	0	4.2	b h k kʼ l m n p pʼ r s t ts tsʼ tʼ tʃ tʃʼ x ɰ ʃ ʔ a e i o u
sida1246-1080	Sidamo	sida1246	Afro-Asiatic	Africa	6.74176	38.3729	35	25	10	0	0	0	5	2.5	b dʒ d̪ f h j k kʼ l̪ m n̪ pʼ s̪ tʃ tʃʼ t̪ t̪ʼ w z̪ ɗ g ɲ ɾ̪ ʃ ʔ a aː e eː i iː o oː u uː
west2560-1081	West Coast Bajau	west2560	Austronesian	Papunesia	6.00631	116.124	23	17	6	0	0	0	0	2.8333333333333335	b dʒ d̪ j k l̪ m n̪ p r s t̪ w ŋ g ɲ ʔ a e i o u ə
chim1301-1082	Chimariko	chim1301		North America	41.0	-123.0	42	33	9	0	4	0	0	3.6666666666666665	h j k kʰ kʼ l m n p pʰ pʼ q qʰ qʼ r s t ts tsʰ tsʼ tʰ tʼ tʃ tʃʰ tʃʼ w x ʃ ʈ ʈʰ ʈʼ ʔ χ a ai e ei i o oi u ui
hueh1236-1083	Huehuetla Tepehua	hueh1236	Totonacan	North America	20.6189	-97.9347	36	26	10	0	0	0	5	2.6	b d h j k kʼ l m n p q r s t ts tsʼ tʃ tʃʼ w ɓ ɗ g ɬ̪ ɾ ʃ ʔ a aː eː iː o oː u uː ɛ ɪ
utes1238-1084	Ute-Southern Paiute	utes1238	Uto-Aztecan	North America	40.0965	-110.305	37	19	18	0	0	0	9	1.0555555555555556	j k kʷ m n p q s t tʃ v w x gʷ ɣ ɾ ʁ ʔ χ i iː o oː u uː æ æː ø øː ɑ ɑː ɛ ɛː ɨ ɨː ɯ ɯː
dupa1235-1085	Dupaninan Agta	dupa1235	Austronesian	Papunesia	17.3748	122.188	20	15	5	0	0	0	0	3.0	b d h j k l m p s t w ŋ g ɾ ʔ a i o u ɛ
tong1325-1086	Tonga (Tonga Islands)	tong1325	Austronesian	Papunesia	-21.17	-175.25	17	12	5	0	0	0	0	2.4	f h k m n̪ p s t̪ v ŋ ɺ ʔ a e i o u
lake1258-1087	Lake Miwok	lake1258	Miwok-Costanoan	North America	39.0021	-122.621	39	29	10	0	0	0	5	2.9	b d f j k kʰ kʼ l m n p pʰ pʼ r s ts tsʼ tʃ t̪ t̪ʰ t̪ʼ w x ɬ ʂ ʈ ʈʰ ʈʼ ʔ a aː e eː i iː o oː u uː
lazz1240-1088	Laz	lazz1240	Kartvelian	Eurasia	41.5004	41.9096	32	27	5	0	0	0	0	5.4	b dʒ d̪ dz̪ f h k kʼ l̪ m n̪ p pʼ s tsʼ tʃ tʃʼ t̪ ts̪ t̪ʼ z ç g ɹ ʃ ʒ ʝ e i o u ɑ
juan1238-1089	Juang	juan1238	Austroasiatic	Eurasia	21.2606	85.5845	29	19	10	0	0	0	5	1.9	b cç d̪ k l m n p s t̪ ŋ ɖ ɟʝ g ɭ ɲ ɳ ɾ ʈ i iː u uː æ æː ɔ ɔː ɛ ɛː
adan1251-1090	Adang	adan1251	Timor-Alor-Pantar	Papunesia	-8.18958	124.448	40	18	22	0	10	0	5	0.8181818181818182	b c d f h k l m n p r s t ŋ ɟ g ɲ ʔ a ai aɛ aː e eu i iu iː o oi ou oː u ui uː ɔ ɔi ɔu ɔː ɛ ɛi
ambe1247-1091	Ambele	ambe1247	Atlantic-Congo	Africa	5.94043	9.62028	48	38	10	0	0	0	0	3.8	b bʲ d dʒ dʒʷ f h j k kp kpʷ kʷ l m ⁿb mʷ n ⁿd ⁿt ⁿtʃ p s sʲ sʷ t tʷ tʃ tʃʲ w ŋ ⁿk ⁿgb ⁿg g gb gʲ ɣ ɲ a e i o u ɔ ə ɛ ɨ ʉ
apur1254-1092	Apurinã	apur1254	Arawakan	South America	-8.21692	-66.7714	40	14	26	0	6	0	10	0.5384615384615384	h j k m n p s t ts tʃ ɰ ɲ ɾ ʃ a ai ao aː ã ãː e ei eo eː ẽ ẽː i io iː ĩ ĩː o oi oː õ õː ɨ ɨː ɨ̃ ɨ̃ː
achi1257-1093	Acehnese	achi1257	Austronesian	Eurasia	3.90757	96.6032	55	21	34	0	17	0	0	0.6176470588235294	b c d f h j k l m n p r s t w ŋ ɟ g ɲ ʃ ʔ a ai ã ãi e i iə ĩ ĩə o oi u ui uə ũ ũə ɔ ɔi ɔə ɔ̃ ə əi ɛ ɛə ɛ̃ ɛ̃ə ɯ ɯə ɯ̃ ɯ̃ə ʌ ʌi ʌə ʌ̃
anti1245-1094	Antigua and Barbuda Creole English	anti1245	Indo-European	North America	17.068263	-61.821863	37	24	13	0	4	0	3	1.8461538461538463	b c d dʒ f h j k l m n p r s t tʃ v w z ŋ ɟ g ʃ ʒ a ai aː e i ia iː o ou u ua uː ə
akla1241-1095	Aklanon	akla1241	Austronesian	Papunesia	11.5543	122.354	20	17	3	0	0	0	0	5.666666666666667	b d h j k l m n p r s t w ŋ g ɣ ʔ a i u
arhu1242-1096	Arhuaco	arhu1242	Chibchan	South America	10.7018	-73.6363	32	16	16	0	9	0	0	1.0	b d dʒ h k m n p s t tʃ z g ɾ ʔ β a e ei i ia iɨ o ou u ua ue ui uə uɨ ə ɨ
karo1306-1097	Karo	karo1306	Tupian	South America	-10.3342	-61.5691	25	14	11	0	0	0	0	1.2727272727272727	b c h j k m n p t w ŋ g ɾ ʔ a ã e ẽ i ĩ o õ u ə ɨ
liby1240-1098	Libyan Arabic	liby1240	Afro-Asiatic	Africa	22.0032	15.0014	50	34	16	0	8	0	0	2.125	b dˠ d̪ f h j k l̪ l̪ˠ m mˠ n̪ q sˠ s̪ tˠ t̪ v w zˠ z̪ ð ðˠ ħ g ɾ̪ ɾ̪ˠ ʁ ʃ ʒ ʔ ʕ θ χ a ai au e eu i o u ui æ æi æu ɪ ɪi ʊ ʊu
bata1289-1099	Batak Toba	bata1289	Austronesian	Papunesia	2.35498	99.1761	27	18	9	0	0	0	0	2.0	b d dʒ h j k l m n p r s t tʃ w ŋ g ʔ a e i o u æ ɔ ə ɛ
baou1238-1100	Baoulé	baou1238	Atlantic-Congo	Africa	5.42509	-4.76565	23	16	7	0	0	0	0	2.2857142857142856	b c d f j k kp l m p s t w ɟ g gb a e i o u ɔ ɛ
bond1245-1101	Bondo	bond1245	Austroasiatic	Eurasia	19.1512	83.8141	27	21	6	0	0	0	0	3.5	b d̪ j kʰ l̪ m n̪ pʰ r s t̪ʰ w z ŋ ɖ ɟ g ɲ ɳ ʈʰ ʔ a i o u ə ɛ
bike1242-1102	Bikele	bike1242	Atlantic-Congo	Africa	3.65994	12.8574	51	28	23	1	7	0	7	1.2173913043478262	b d dʒ f j k kp l m ⁿb ⁿp n ⁿd ⁿt ⁿdʒ ⁿtʃ p s t tʃ w ŋ ⁿk ⁿkp ⁿgb ⁿg g ɲ a aː e eː i ia iaː ie ieː iɔ iə iɛː iː o oː u uː ɔ ɔː ə ɛ ɛː ɨ
siks1238-1103	Siksika	siks1238	Algic	North America	49.0669	-113.109	25	13	12	0	0	0	5	1.0833333333333333	h j k l m n p s tʃ t̪ w x ʔ a aː i iː o oː u æː ø ɔ ɔː ɛ
bilo1248-1104	Biloxi	bilo1248	Siouan	North America	31.32	-89.1951	20	12	8	0	0	0	0	1.5	c d h j k m n p s t w x a ã e i ĩ o õ u
beli1260-1105	Belize Kriol English	beli1260	Indo-European	North America	17.3941	-88.6281	35	22	13	0	1	0	5	1.6923076923076923	b d dʒ f h j k l m n p s t tʃ v w z ŋ g ɹ ʃ ʒ e eː ẽ i iː o oː u uː ɑ ɑi ɑː ɑ̃
koas1236-1106	Koasati	koas1236	Muskogean	North America	30.4096	-92.709	21	15	6	0	0	0	3	2.5	b h j k l̪ m n̪ p tʃ t̪ w ɕ ɬ̪ ɸ ʔ a aː i iː u uː
como1259-1107	Comox	como1259	Salishan	North America	49.7233	-124.967	42	37	5	0	0	0	0	7.4	h j j̰ k kʷ k̰ k̰ʷ l l̰ m m̰ n n̰ p p̰ q qʷ q̰ q̰ʷ s t ts ts̰ tɬ tɬ̰ tʃ tʃ̰ t̰ w w̰ x xʷ ɬ ʃ ʔ χ χʷ a o ə ɛ ɪ
soch1239-1108	Sochiapam Chinantec	soch1239	Otomanguean	North America	17.7985	-96.6079	32	18	14	0	0	0	0	1.2857142857142858	h k l m n p s t ts ð ŋ ɣ ɸ ɾ ʐ ʔ β θ i ĩ u ũ ɐ ɐ̃ ɔ ɔ̃ ɛ ɛ̃ ɤ ɤ̃ ɯ ɯ̃
diml1238-1109	Dimli	diml1238	Indo-European	Eurasia	38.6147	39.6388	44	30	14	0	6	0	0	2.142857142857143	b dʒ d̪ f h j k l m n p q r s̪ s̪ˤ tʃ t̪ t̪ˤ v w x z̪ ħ g ɣ lˠ ɾ ʃ ʒ ʕ a ai au e i o oi u ə əi əu ɨ ʉ ʉi
yekh1238-1110	Yekhee	yekh1238	Atlantic-Congo	Africa	7.10204	6.44919	33	26	7	0	0	3	0	3.7142857142857144	b d dz f j k kp kpː l m mː n p r s t ts v w x g gb gbː ɣ β̞ θ a e i o u ɔ ɛ
nort2626-1111	Northern Frisian	nort2626	Indo-European	Eurasia	54.6409	8.58489	42	23	19	0	6	0	6	1.2105263157894737	b c d f h j k l m n p r s t v x ç ð ŋ g ɲ ʃ ʎ a ai au eː iː oː uː yː øː œ ɔ ɔi ɛ ɛə ɪ ʊ ʊa ʊɪ ʏ
guja1253-1112	Gujari	guja1253	Indo-European	Eurasia	33.7	75.11	50	32	18	0	0	0	14	1.7777777777777777	b dʒ d̪ f h j k kʰ l̪ m n̪ p pʰ r s̪ tʃ tʃʰ t̪ t̪ʰ w x z̪ ɖ g ɣ ɭ ɳ ɽ ɾ̪ ʃ ʈ ʈʰ aː ãː eː ẽː iː ĩː oː õː u uː ũː æ ɔː ɔ̃ː ə ɛː ɛ̃ː ɪ
guan1269-1113	Kotiria	guan1269	Tucanoan	South America	1.07554	-69.5705	22	16	6	0	0	0	0	2.6666666666666665	b d h j k kʰ p pʰ s t tʰ tʃ w g ɾ ʔ a e i o u ʉ
hung1278-1114	Hungana-Saamba	hung1278	Atlantic-Congo	Africa	-3.69695	18.4312	30	20	10	0	0	0	5	2.0	b d f h j k kʰ l m n pʰ r s t tʰ v w z ŋ g a aː i iː u uː ɔ ɔː ɛ ɛː
halk1245-1115	Halkomelem	halk1245	Salishan	North America	49.250402	-122.443668	44	32	12	0	0	0	6	2.6666666666666665	b h j k kʷʰ kʼʷ kʼ l m n pʰ pʼ qʰ qʷʰ qʼʷ qʼ s ts tsʼ tɬʼ tʰ tʼ tθʼ w xʷ çʲ ɬ ɹ ʔ θ χ χʷ a aː i iː o oː u uː ə əː ɛ ɛː
huas1242-1116	Huastec	huas1242	Mayan	North America	21.6153	-98.5028	36	26	10	0	0	0	5	2.6	b d f h j k kʷ kʼʷ kʼ l̪ m n̪ p s t tʼ tʃ tʃʼ t̪ t̪ʼ w g ɾ̪ ʃ ʔ θ a aː eː i iː oː uː ɔ ɛ ʊ
ilok1237-1117	Iloko	ilok1237	Austronesian	Papunesia	15.9361	120.993	21	17	4	0	0	0	0	4.25	b d̪ h j k l m n̪ p s tʃ t̪ w ŋ g ɾ ʔ a i o ɯ
kadi1248-1118	Kadiwéu	kadi1248	Guaicuruan	South America	-19.7222	-57.582	31	23	8	0	0	8	4	2.875	b bː dʒ d̪ d̪ː j jː k l lː m mː n nː p q tʃ t̪ w wː g gː ʁ a aː i iː o oː ɛ ɛː
kute1248-1119	Kutep	kute1248	Atlantic-Congo	Africa	7.07479	10.0916	41	28	13	0	0	0	0	2.1538461538461537	b d dʒ f h j k l m ⁿb n ⁿd ⁿdz ⁿdʒ p s t ts tʃ v w z ŋ ⁿg g ɲ ɾ ʃ a ã e ẽ i ĩ o õ u ũ æ æ̃ ɨ
awac1239-1120	Awa-Cuaiquer	awac1239	Barbacoan	South America	1.21652	-78.3401	21	14	7	0	0	0	0	2.0	j k l m n p s t̪ w z ŋ ɬ ʃ ʒ a i i̥ u u̥ ɨ ɨ̥
lisu1250-1121	Lisu	lisu1250	Sino-Tibetan	Eurasia	26.91	98.94	33	25	8	0	0	0	0	3.125	b d dz f j k kʰ l m n p pʰ s t ts tsʰ tʰ v w x z ŋ g ɣ ʔ a æ ø ɒ ɘ ɨ ɪ ʊ
loni1238-1122	Loniu	loni1238	Austronesian	Papunesia	-2.06124	147.35	23	16	7	0	0	0	0	2.2857142857142856	h j k l m mʷ n p pʷ r s t tʃ w ŋ ɲ a e i o u ɔ ɛ
mola1238-1123	Molale	mola1238		North America	44.556	-122.857	30	23	7	0	0	0	4	3.2857142857142856	h j k kʼ l m n p pʼ q qʼ s t ts tsʼ tɬ tʼ w x ŋ ɬ ʍ ʔ i iː æː ɑ ɑː ʊ ʊː
mats1244-1124	Matsés	mats1244	Pano-Tacanan	South America	-5.73914	-72.6281	21	15	6	0	0	0	0	2.5	b d j k m n p s t ts tʃ w ʂ ʃ ʈʂ a e i ɤ ɨ ɯ
mani1292-1125	Manipuri	mani1292	Sino-Tibetan	Eurasia	24.4409	93.3426	31	25	6	0	0	0	0	4.166666666666667	b bʱ d dʱ dʒ dʒʱ h j k kʰ l m n p pʰ r s t tʰ tʃ tʃʰ w ŋ g gʱ a e i o u ə
mand1436-1126	Mandinka	mand1436	Mande	Africa	12.8165233333	-15.6539466667	29	19	10	0	0	0	5	1.9	b d dʒ f h j k l m n p r s t tʃ w ŋ g ɲ a aː e eː i iː o oː u uː
moco1246-1127	Mocoví	moco1246	Guaicuruan	South America	-28.097	-60.4145	31	23	8	0	0	0	4	2.875	d dʒ h j k l m n p q s t tʃ w x ɣ ɲ ɸ ɾ ʁ ʃ ʎ ʔ a aː e eː i iː o oː
mamm1241-1128	Mam	mamm1241	Mayan	North America	14.8034	-91.7231	43	33	10	0	0	0	5	3.3	b c cʼ d f j k kʼ l m n p q qʼ r s t ts tsʼ tʼ tʃ tʃʼ w x ɓ g ɲ ʂ ʃ ʈʂ ʈʂʼ ʔ χ a aː e eː i iː o oː u uː
mund1330-1129	Mundurukú	mund1330	Tupian	South America	-8.41095	-57.691	37	17	20	0	0	0	0	0.85	b d dʒ h j k m n p s t tʃ w ŋ ɾ ʃ ʔ a ã a̰ ã̰ i ĩ ḭ ḭ̃ o õ o̰ õ̰ ə ə̃ ə̰ ə̰̃ ɛ ɛ̃ ɛ̰ ɛ̰̃
nisg1240-1130	Nisga'a	nisg1240	Tsimshian	North America	55.199	-129.192	42	32	10	0	0	0	5	3.2	b d̪ h j kʼʲ kʼ l̪ m n̪ s ts̪ w xʷ ç g gʲ gʷ ɢ ɬ ʔ ˀj̥ ˀkʷ ˀl̪̥ ˀm̥ ˀn̪̥ ˀp ˀq ˀt̪ ˀts̪ ˀtɬ̪ ˀw̥ χ a aː iː ɔ ɔː ɛ ɛː ɪ ʊ ʊː
nort2627-1131	Eastern Low German	nort2627	Indo-European	Eurasia	53.115373	12.391439	37	23	14	0	4	0	4	1.6428571428571428	b cʰ d f h kʰ l m n pʰ s tʰ v x z ç ŋ g ɲ ɾ ʃ ʒ ʝ a ai au eː iː oː uː æ æɪ ɑ ɑʊ ə ɪ ʊ
nort2984-1132	Northern Pame	nort2984	Otomanguean	North America	22.0968	-99.6434	52	40	12	0	0	0	0	3.3333333333333335	b d h j k kʰ kʼ l lʱ lʼ m mʱ mʼ n nʱ nʼ p pʰ s t ts tsʰ tsʼ tʰ tʼ tʃ tʃʰ tʃʼ w g ɲ ɲʱ ɲʼ ɾ ɾʲ ʃ ʎ ʎʱ ʎʼ ʔ e ẽ i ĩ u ũ æ æ̃ ɑ ɑ̃ ə ə̃
pana1305-1133	Panamint	pana1305	Uto-Aztecan	North America	36.0007	-117.901	36	23	13	0	1	9	6	1.7692307692307692	h j k kʷ kʷː kː m mː n nː p pː s t ts tː tsː w ŋ ŋʷ ŋʷː ŋː ʔ a ai aː eː i iː o oː u uː ɛ ɨ ɨː
nige1257-1134	Nigerian Pidgin	nige1257	Indo-European	Africa	9.65873	4.21068	30	23	7	0	0	0	0	3.2857142857142856	b d dʒ f h j k kp l m n p s t tʃ v w z ŋ g gb ɾ ʃ a e i o u ɔ ɛ
nort2966-1135	Northern Pomo	nort2966	Pomoan	North America	39.1084	-123.209	39	29	10	0	0	0	5	2.9	b d̪ h j k kʰ kʼ l m n p pʰ pʼ s t ts tsʰ tsʼ tʰ tʼ tʃ tʃʰ tʃʼ t̪ t̪ʰ t̪ʼ w ʃ ʔ e eː i iː o oː u uː ɑ ɑː
texi1237-1136	Texistepec Popoluca	texi1237	Mixe-Zoque	North America	17.8926	-94.8076	29	19	10	0	0	0	5	1.9	b d dʲ h j k l m n p r s t ts tʃ ŋ ɲ ʃ ʔ a aː u uː ɔ ɔː ɛ ɛː ɨ ɨː
khan1273-1137	Kazym-Berezover-Suryskarer Khanty	khan1273	Uralic	Eurasia	62.4308	66.1218	31	18	13	0	0	0	0	1.3846153846153846	c j k l m n p q r s t tʃ w ŋ ɣ ɬ ɲ ʎ e i o u y æ ø œ ɑ ɔ ɛ ɯ ʌ
stan1289-1138	Catalan	stan1289	Indo-European	Eurasia	41.453	1.569	39	23	16	0	8	0	0	1.4375	b dʒ d̪ f j k l m n p r s tʃ t̪ w z ŋ g ɲ ɾ ʃ ʎ ʒ a e ei̯ i i̯a i̯ɛ o ou̯ u ui̯ u̯a u̯ə ɔ ə ɛ ɛu̯
croa1245-1139	Croatian Standard	croa1245	Indo-European	Eurasia	45.555	15.982	36	25	11	0	1	0	5	2.272727272727273	b dʑ dʒ d̪ f j k l m n p r s tɕ tʃ t̪ ts̪ x z g ɲ ʃ ʋ ʎ ʒ a aː e eː i ie iː o oː u uː
czec1258-1140	Czech	czec1258	Indo-European	Eurasia	49.873398	15.10437	38	25	13	0	3	0	5	1.9230769230769231	b c d f j k l m n p r r̝ s t ts tʃ v x z ɟ g ɦ ɲ ʃ ʒ a au aː iː o ou oː u uː ɛ ɛu ɛː ɪ
gali1258-1141	Galician	gali1258	Indo-European	Eurasia	42.2446	-7.5343	28	21	7	0	0	0	0	3.0	f j k l m n p r s̺ tʃ t̪ w ɹ̪ ŋ ɟ ɰ ɲ ɾ ʃ β̞ θ a e i o u ɔ ɛ
kabi1261-1142	Kabiyé	kabi1261	Atlantic-Congo	Africa	8.96816	0.495023	45	22	23	0	0	0	9	0.9565217391304348	b d dʒ f h j kpʰ kʰ l m n r s tʰ tʃ v w z ɖ g gb ɲ a̙ a̙ː a̙ˠ e eː eˠ i iː iˠ o oː u uː ɔ̙ ɔ̙ː ɛ̙ ɛ̙ː ɛ̙ˠ ɪ̙ ɪ̙ː ɪ̙ˠ ʊ̙ ʊ̙ː
mono1270-1143	Mono (Democratic Republic of Congo)	mono1270	Atlantic-Congo	Africa	4.57915	19.8264	41	33	8	0	0	0	0	4.125	b d dʒ f h j k kp l m ⁿb n ⁿd ⁿdʒ p r s t tʃ v w z ⁿgb ⁿg ɓ ɗ g gb ɲ ʃ ʒ ʔ ⱱ a e i o u ɔ ə ɨ
indo1316-1144	Indonesian	indo1316	Austronesian	Papunesia	-7.33458	109.716	31	22	9	0	3	0	0	2.4444444444444446	b d dʒ f h j k l m n p r s tʃ t̪ w z ŋ g ɲ ʃ ʔ a ai̯ au̯ e i o oi̯ u ə
ital1282-1145	Italian	ital1282	Indo-European	Eurasia	43.0464	12.6489	30	23	7	0	0	0	0	3.2857142857142856	b d dz dʒ f j k l m n p r s t ts tʃ v w z g ɲ ʃ ʎ e i o u ɐ ɔ ɛ
sala1272-1146	Tungurahua Highland Quichua	sala1272	Quechuan	South America	-1.35447	-78.3953	29	24	5	0	0	0	0	4.8	b d̪ j k kʰ l m n p pʰ s ts tʰ tʃ tʃʰ t̪ w x z g ɲ ɾ ʃ ʒ a e i o u
seri1257-1147	Seri	seri1257		North America	28.9877	-112.384	25	17	8	0	0	0	4	2.125	k kʷ l m n p s t̪ x xʷ ɬ ɸ ɾ ʃ ʔ χ χʷ i iː o oː ɑ ɑː ɛ ɛː
sind1272-1148	Sindhi	sind1272	Indo-European	Eurasia	26.0	69.0	54	44	10	0	0	0	0	4.4	b bʱ c cʰ d̪ d̪ʱ f h j k kʰ l lʱ m mʱ n nʱ p pʰ s t̪ t̪ʰ x z ŋ ɓ ɖ ɖʱ ɗ ɟ ɟʱ g gʱ ɣ ɲ ɳ ɳʱ ɽ ɽʱ ɾ ʃ ʈ ʈʰ ʋ e i o u ɑ ɔ ə ɛ ɪ ʊ
slov1268-1149	Slovenian	slov1268	Indo-European	Eurasia	46.2543	14.7766	37	21	16	0	0	0	8	1.3125	b dʒ d̪ f j k l m n p s ts tʃ t̪ x z g ɾ ʃ ʋ ʒ a aː e eː i iː o oː u uː ɔ ɔː ə əː ɛ ɛː
swed1254-1150	Swedish	swed1254	Indo-European	Eurasia	59.800634	17.389526	35	18	17	0	0	0	8	1.0588235294117647	b d̪ f h k l m n̪ p s̪ t̪ v ŋ ɕ g ɧ ɹ ʝ a eː iː oː uː yː øː œ ɑː ɔ ɛ ɛː ɪ ɵ ʉ̟ ʊ ʏ
east2440-1151	East Makian	east2440	Austronesian	Papunesia	0.07337	127.423	37	32	5	0	0	14	0	6.4	b bː d dː dʒ f fː h hː j k kː l lː m mː n nː p pː r s sː t tː tʃ tʃː w ŋ ŋː g gː a u ɔ ɛ ɨ
tuka1248-1152	Tukang Besi North	tuka1248	Austronesian	Papunesia	-5.30994	123.578	29	24	5	0	0	0	0	4.8	b dʒ h k l m ⁿb ⁿp n ⁿd ⁿs ⁿt p r s t ŋ ⁿk ⁿg ɓ ɗ g ʔ β a i o ɛ ɯ
yine1238-1153	Yine	yine1238	Arawakan	South America	-11.1086	-73.3087	26	16	10	0	0	0	5	1.6	cç h̃ j k l m n p s t ts tʃ w ç ɾ ʃ a aː e eː i iː o oː ɯ ɯː
kich1262-1154	K'iche'	kich1262	Mayan	North America	14.5278	-91.1696	32	22	10	0	0	0	5	2.2	j k kʼ l m n p pʼ q qʼ r s t ts tsʼ tʼ tʃ tʃʼ w x ʃ ʔ a aː e eː i iː o oː u uː
huam1248-1155	Huamalíes-Dos de Mayo Huánuco Quechua	huam1248	Quechuan	South America	-9.15718	-76.3372	31	21	10	0	0	0	5	2.1	b d f h j k l m n p q s t tʃ w z g ɲ ɾ ʃ ʎ a aː e eː i iː o oː u uː
sipa1247-1156	Sipacapense	sipa1247	Mayan	North America	15.23054	-91.7041	32	22	10	0	0	0	5	2.2	b̰ j k k̰ l m n p q q̰ r s t ts ts̰ tʃ tʃ̰ t̰ w ʃ ʔ χ a aː e eː i iː o oː u uː
chim1302-1157	Bolivar-North Chimborazo Highland Quichua	chim1302	Quechuan	South America	-1.36727	-78.8521	36	31	5	0	0	0	0	6.2	b dʲ d̪ h j k kʰ l m n nʲ p pʰ r s s̪ t ts tʰ tʲ tʲʰ t̪ t̪ʰ w x z z̪ g ʂ ʐ ʔ a e i o u
tlac1235-1158	Tlachichilco Tepehua	tlac1235	Totonacan	North America	20.704	-98.1947	34	24	10	0	0	0	5	2.4	h j k k̰ l m n p p̰ q q̰ r s t ts ts̰ tʃ tʃ̰ t̰ w z ɬ ɾ ʔ a aː e eː i iː o oː u uː
ambu1247-1159	Ambulas	ambu1247	Ndu	Papunesia	-3.7801	143.059	24	17	7	0	0	0	1	2.4285714285714284	j k l m ⁿb n ⁿd p r s t v w ŋ ⁿg ɲ ⁿɟ a aː e i o u ɨ
abau1245-1160	Abau	abau1245	Sepik	Papunesia	-3.97222	141.324	14	9	5	0	0	0	0	1.8	h j k m n p s w ɾ e i o u ɑ
qima1242-1161	Qimant	qima1242	Afro-Asiatic	Africa	12.8119	37.0542	35	28	7	0	0	0	0	4.0	b d dz̪ dʒ f j k kʷ l̪ m n̪ p q qʷ r̪ s̪ ts̪ tʃ t̪ w z̪ ŋ ŋʷ g gʷ ɢ ɢʷ ʃ a e i o u æ ə
akha1245-1162	Akha	akha1245	Sino-Tibetan	Eurasia	21.2309	100.964	41	28	13	0	0	0	0	2.1538461538461537	b cç cçʰ d dz dʒ h j k kʰ l m n p pʰ s t ts tsʰ tʰ tʃʰ x z ŋ g ɣ ɲ ʔ a ã e i o u ũ ø ɔ ɔ̃ ə ɛ ɯ
alya1239-1163	Alyawarr	alya1239	Pama-Nyungan	Australia	-21.0427	136.835	32	25	7	0	0	0	3	3.5714285714285716	c cⁿ k kⁿ l l̪ m n n̪ p pⁿ r t tⁿ t̪ t̪ⁿ w ŋ ɭ ɲ ɳ ɽ ʈ ʈⁿ ʎ i iː u uː y ɐ ɐː
aman1265-1164	Amanab	aman1265	Border	Papunesia	-3.51516	141.178	19	14	5	0	0	0	0	2.8	b f h j k m n p r s t w ŋ g a e i o u
anua1242-1165	Anuak	anua1242	Nilotic	Africa	7.57714	34.0267	43	19	24	0	4	0	10	0.7916666666666666	b c d d̪ j k l m n n̪ p r t t̪ w ŋ ɟ g ɲ a aː e eː i ie iː o oː u uo uː ɔ ɔː ɛ ɛː ɪ ɪɛ ɪː ʊ ʊɔ ʊː ʌ ʌː
aran1237-1166	Dombano	aran1237	South Bird's Head Family	Papunesia	-2.08016	132.983	18	13	5	0	0	0	0	2.6	b d k m n p t ð ɟ g ɣ ɾ β a e i o u
bumb1241-1167	Bumbita Arapesh	bumb1241	Nuclear Torricelli	Papunesia	-3.65508	142.859	22	15	7	0	0	0	0	2.142857142857143	b dz d̪ h kʰ l m n pʰ s t̪ʰ g ɲ ʃ ʔ a e i o u y ø
tana1290-1168	Tanacross	tana1290	Athabaskan-Eyak-Tlingit	North America	63.4046	-143.338	49	35	14	0	0	0	4	2.5	h j j̊ k kʰ kʼ l m n n̥ s t tɬ ts tsʰ tsʼ tɬʰ tɬʼ tʰ tʼ tʃ tʃʰ tʃʼ tθ tθʰ tθʼ x z ð ɣ ɬ ʃ ʒ ʔ θ a aː ã e eː ẽ i iː ĩ o u uː ũ ɛ
auuu1241-1169	Au	auuu1241	Nuclear Torricelli	Papunesia	-3.53277	142.105	17	10	7	0	0	0	1	1.4285714285714286	j k m n p s t w ɣ ɾ i o u ɐ ɐː ə ɨ
tinp1237-1170	Tinputz	tinp1237	Austronesian	Papunesia	-5.58358	154.972	26	12	14	0	1	0	6	0.8571428571428571	h j k l m n p s t w ʔ β a ai aː e eː i iː o oː u uː æ ɔ ɔː
peta1245-1171	Petats	peta1245	Austronesian	Papunesia	-5.34068	154.593	30	15	15	0	4	0	3	1.0	b h j k l m n p r s t tʃ w ŋ g a ai au aː e ei e̝ i iː o ou o̝ u uː ø
pate1247-1172	Patep	pate1247	Austronesian	Papunesia	-6.91988	146.639	44	30	14	0	0	0	7	2.142857142857143	h j k kʷ l m ⁿb ⁿbʲ ⁿbʷ mʲ mʷ n ⁿd ⁿdz ⁿdʲ nʲ p pʲ pʷ s t tʲ w ŋ ⁿg ⁿgʷ ŋʷ ɣ β βʲ a aː e eː i iː o oː u uː ɔ ɔː ɛ ɛː
kela1255-1173	Kela (Papua New Guinea)	kela1255	Austronesian	Papunesia	-7.47103	147.173	30	16	14	0	4	0	0	1.1428571428571428	b d dz j k l m n p r s t w z ŋ g a ae ai au ã e ẽ i ĩ o oi õ u ũ
surs1246-1174	Sursurunga	surs1246	Austronesian	Papunesia	-3.99078	152.768	21	15	6	0	0	0	0	2.5	b d h j k l m n p r s t w ŋ g e i o u ɐ ə
awar1248-1175	Awara	awar1248	Nuclear Trans New Guinea	Papunesia	-6.16986	146.372	25	19	6	0	0	0	0	3.1666666666666665	b d h j k kʷ l m n p s t ŋ ŋʷ g gʷ ɣ ʔ β e i o u ɐ ʌ
awin1248-1176	Awing	awin1248	Atlantic-Congo	Africa	5.88362	10.264	56	39	17	0	0	0	8	2.2941176470588234	d f j k kʲ kʷ l lʷ m ⁿb ⁿbʷ mʲ n ⁿd ⁿdʒ p pʲ s t ts tʲ tʷ tʃ w x z ŋ ⁿg ⁿgʲ ⁿgʷ ŋʷ ɣ ɲ ʃ ʃʷ ʒ ʒʷ ʔ β a aː e eː i iː o oː u ɔ ɔː ə əː ɛ ɛː ɨ ɨː
awtu1239-1177	Awtuw	awtu1239	Sepik	Papunesia	-3.53129	141.928	18	11	7	0	0	0	0	1.5714285714285714	d j kʰ l m n pʰ tʰ w ŋ ɾ a e i o u æ ə
baba1264-1178	Baba	baba1264	Atlantic-Congo	Africa	6.11222	10.5216	30	23	7	0	0	0	0	3.2857142857142856	dz dʒ f j k l m n p r s t ts v w x ŋ ŋm g ɣ ɲ ʃ ʒ a e i o u ə ɨ
baba1266-1179	Babanki	baba1266	Atlantic-Congo	Africa	5.97863	10.2869	33	26	7	0	0	0	0	3.7142857142857144	b bv d dz dʒ f j k l m n pf s t ts tʃ v w z ŋ g ɣ ɲ ʃ ʒ ʔ a e i o u ə ɨ
bako1249-1180	Bakoko	bako1249	Atlantic-Congo	Africa	3.56518	9.99905	33	26	7	0	0	0	0	3.7142857142857144	b bʷ d dʒ f j k kʷ l m ⁿb ⁿbʷ n ⁿd p s t tʃ w ŋ ⁿg ⁿgʷ ɣ ɦ ɲ ɾ a e i o u ɔ ɛ
nyon1241-1181	Nyong	nyon1241	Atlantic-Congo	Africa	7.274185	11.061485	37	23	14	0	0	0	6	1.6428571428571428	b d̪ f h j k kp l̪ m ⁿd̪ n̪ p s t̪ v w z ŋ ⁿg ŋʷ g gb ɲ a aː e eː i iː o u uː ɔ ɔː ə ɛ ɛː
bamu1256-1182	Bamunka	bamu1256	Atlantic-Congo	Africa	6.00203	10.5127	32	23	9	0	0	0	0	2.5555555555555554	b dʒ d̪ f h j k kp l m n s tʃ t̪ v w ŋ g ɣ ɲ ʃ ʒ ʔ a e i o u ɔ ə ɛ ɨ
bang1356-1183	Bangolan	bang1356	Atlantic-Congo	Africa	6.0125	10.667	36	27	9	0	0	0	0	3.0	b d dz dʒ f h j k l m n p s t ts tʃ v w z ŋ g ɣ ɾ ʃ ʒ ʔ θ a e i o u ɔ ə ɛ ɨ
bata1285-1184	Batanga	bata1285	Atlantic-Congo	Africa	1.397041	9.51011	28	20	8	0	0	0	0	2.5	c f k l m ⁿb n ⁿd p s t̪ v w ŋ ⁿg ɓ ɗ ɲ ⁿʄ ʄ a e i o u y ɔ ɛ
bari1286-1185	Bariai	bari1286	Austronesian	Papunesia	-5.5087	148.666	17	12	5	0	0	0	0	2.4	b d k l m n p r s t ŋ g e i o u ɑ
befa1241-1186	Befang	befa1241	Atlantic-Congo	Africa	6.27562	10.0342	57	43	14	0	0	0	6	3.0714285714285716	b bʲ bʷ d dz dʒ f fʲ fʷ h j k kp kʲ kʷ l lʲ m mʷ n ⁿd ⁿdz p s t ts tʲ tʷ tʃ v w z ŋ ŋʷ g gb gʲ gʷ ɣ ɲ ʒ ʔ ʝ e eː i iː o oː u uː ɑ ɑː ɔ ə əː ɛ
idaa1241-1187	Ida'an	idaa1241	Austronesian	Papunesia	5.29059	118.515	23	17	6	0	0	0	0	2.8333333333333335	b d dʒ j k l m n p r s t tʃ w ŋ g ʔ a e i o u ə
bemb1257-1188	Bemba (Zambia)	bemb1257	Atlantic-Congo	Africa	-10.6122	29.2993	25	15	10	0	0	0	5	1.5	f j k l m n p s t tʃ w ŋ ɲ ʃ β a aː e eː i iː o oː u uː
berb1259-1189	Berbice Creole Dutch	berb1259	Indo-European	South America	5.3829	-58.0002	26	20	6	0	0	0	0	3.3333333333333335	b d f h j k l m n p r s t v w x z ç g ʃ a e i o u ɛ
bett1235-1190	Betta Kurumba	bett1235	Dravidian	Eurasia	11.6385	76.6064	37	22	15	0	3	0	6	1.4666666666666666	b d dʒ d̪ f j k l m n p t t̪ ŋ ɗ g ɭ ɳ ɾ ʃ ʈ ʋ ai i iː u ui uː ɑ ɑː ɔ ɔː ə əi əː ɛ ɛː
biak1248-1191	Biak	biak1248	Austronesian	Papunesia	-0.9523	135.879	24	14	10	0	0	0	5	1.4	b d f j k l m n p r s t w β a aː e eː i iː o oː u uː
bili1250-1192	Bilinarra	bili1250	Pama-Nyungan	Australia	-16.868771	130.533991	23	17	6	0	0	0	3	2.8333333333333335	j k l m n p t w ŋ ɟ ɭ ɲ ɳ ɻ ɾ ʈ ʎ a aː i iː u uː
bina1277-1193	Binandere	bina1277	Nuclear Trans New Guinea	Papunesia	-8.37433	147.884	35	11	24	0	14	0	0	0.4583333333333333	b d j k m n p t g ɾ β e ei eo ẽ ẽĩ i iu ĩ o oe oi ou õ õũ u ũ ɑ ɑe ɑi ɑo ɑu ɑ̃ ɑ̃ĩ ɑ̃õ
sout2840-1194	Southern Bobo Madaré	sout2840	Mande	Africa	11.5409	-4.26497	38	19	19	0	0	0	7	1.0	b d f h k kp l m n p r s t v z ŋ g gb ɲ a aː ã e eː i iː ĩ o oː u uː ũ ɔ ɔː ɔ̃ ɛ ɛː ɛ̃
nucl1695-1195	Bole	nucl1695	Afro-Asiatic	Africa	11.4839	11.2322	38	28	10	0	0	0	5	2.8	b d dʒ h j k l m ⁿb n ⁿd ⁿz ⁿdʒ p r s t tʃ w z ⁿg ɓ ɗ g ɲ ʃ ʄ ʔ a aː e eː i iː o oː u uː
bong1285-1196	Bongo	bong1285	Central Sudanic	Africa	7.4145	27.9918	29	18	11	0	0	0	5	1.6363636363636365	b d f h k l m n p pf r s t ts tʃ w g ɲ a aː e eː i iː u uː y ɔ ɔː
boro1277-1197	Boro (Ethiopia)	boro1277	Ta-Ne-Omotic	Africa	10.6596	35.345	22	16	6	0	0	0	0	2.6666666666666665	b d h j kʰ l m n pʰ r s tʰ w z ŋ g a e i o u ɵ
brok1247-1198	Brokskat	brok1247	Indo-European	Eurasia	34.5308	76.6026	41	31	10	0	0	0	5	3.1	b c d dʱ d̪ f h j k l m n p pʰ q s t ts tʰ t̪ t̪ʰ v x̥ z z̥ ç ŋ g ɣ̊ ʂ ʝ a aː e eː i iː o oː u uː
baga1272-1199	Baga Sitemu	baga1272	Atlantic-Congo	Africa	10.4793	-14.4756	26	18	8	0	0	0	0	2.25	b d̪ f h j k l m n p r s tʃ t̪ w ŋ g gb a e i o u ɔ ɛ ɨ
bubi1249-1200	Bubia	bubi1249	Bookkeeping	Africa	4.02178	9.22304	39	25	14	0	0	0	7	1.7857142857142858	b bʷ d dʒ j k kp l m ⁿb n ⁿd ⁿdʒ s t tʃ w ŋ ⁿg ŋʷ gb ɲ ɸ ʒ β a aː e eː i iː o oː u uː ɔ ɔː ɛ ɛː
buku1249-1201	Bukusu	buku1249	Atlantic-Congo	Africa	0.68043	34.7719	30	20	10	0	0	0	5	2.0	f j k l m ⁿb n ⁿd ⁿdʒ p r s t tʃ w x ŋ ⁿg ɲ β a aː e eː i iː o oː u uː
subi1246-1202	Subiya	subi1246	Atlantic-Congo	Africa	-17.5696	24.8867	51	46	5	0	0	0	0	9.2	b bʷ d dʷ dʒ dʒʷ f fʷ h hʲ hʷ j k kʷ lʷ m mʲ mʷ n nʷ p pʷ s sʷ t tʷ tʃ t̪ t̪ʷ v vʷ w z zʷ ŋ g gʷ ɱ ɲ ɻ ɻʲ ɻʷ ʃ β βʲ βʷ a i u ɔ ɛ
tote1238-1203	Totela	tote1238	Atlantic-Congo	Africa	-16.9575	24.3751	54	44	10	0	0	0	5	4.4	b bʷ cʷ dʒ f fʷ h hʲ hʷ j k kʷ m mʲ mʷ n nʷ p pʲ pʷ s sʷ t ts tʲ tʷ tʃʷ v vʷ w z zʷ ŋ ŋʷ g gʷ ɣ ɣʷ ɲ ɻ ɻʲ ɻʷ ʃ β a aː i iː u uː ɔ ɔː ɛ ɛː
bamb1265-1204	Bambalang	bamb1265	Atlantic-Congo	Africa	5.861	10.544	52	34	18	0	0	0	8	1.8888888888888888	dʒ dʒʷ f fʷ h j k kʷ l m ⁿb n ⁿd nʷ ⁿdʒ p pʰ pʷ r t ts tʷ tʃ tʃʷ w ŋ ⁿg ⁿgʷ g ɣ ɲ ʃ ʃʷ ʔ a aː e eː i iː o oː u uː ɔ ɔː ə əː ɛ ɨ ɨː ʉ
nort2845-1205	North Marquesan	nort2845	Austronesian	Papunesia	-8.89412	-140.108	22	12	10	0	0	0	5	1.2	f h k m n p r s t v ç ʔ a aː e eː i iː o oː u uː
onge1236-1206	Önge	onge1236	Jarawa-Onge	Eurasia	10.6926	92.4707	24	16	8	0	0	0	0	2.0	b cç d j k l m n r t w ŋ ɟʝ g ɲ ʔ a e i o u ɔ ɛ ɤ
olut1240-1207	Oluta Popoluca	olut1240	Mixe-Zoque	North America	17.8937	-94.8863	32	20	12	0	0	0	6	1.6666666666666667	b d f h j k l m n p r s t ts tʃ w g ɾ ʃ ʔ a aː e eː i iː o oː u uː ə əː
jiar1240-1208	Northern Gyalrong	jiar1240	Sino-Tibetan	Eurasia	31.60295	102.22875	57	49	8	0	0	0	0	6.125	b c cʰ dʑ d̪ dz̪ j k kʰ l̪ m ⁿb ⁿdʑ n̪ ⁿd̪ ⁿdz̪ p pʰ q qʰ s̪ tɕ tɕʰ t̪ ts̪ ts̪ʰ t̪ʰ w x z ŋ ⁿg ɕ ɖʐ ɟ g ɣ ɬ̪ ɲ ⁿɟ ⁿɖʐ ⁿɢ ɻ ʁ ʂ ʈʂ ʈʂʰ ʑ χ a e i o u y ɤ ɯ
suri1267-1209	Tirma-Chai	suri1267	Surmic	Africa	6.03205	35.0823	29	22	7	0	0	0	0	3.142857142857143	b c d j k l m n s t w x z ŋ ɓ ɗ ɟ ɠ g ɲ ɾ ʄ a e i o u ɔ ɛ
bilu1245-1210	Bilua	bilu1245		Papunesia	-7.92388	156.663	41	16	25	0	20	0	0	0.64	b d dʒ k l m n p r s t z ŋ g ɲ β a aɔ aɛ aɪ aʊ e ea eɔ eɪ eʊ i ia iɔ iɛ iʊ o oa oɛ oɪ oʊ u ua uɔ uɛ uɪ
hoav1238-1211	Hoava	hoav1238	Austronesian	Papunesia	-8.19679	157.595	21	16	5	0	0	0	0	3.2	b d dʒ h k l m n p r s t ŋ g ɣ β a i u ɔ ɛ
fili1244-1212	Filipino	fili1244	Austronesian	Papunesia	12.265	123.464	27	17	10	0	0	0	5	1.7	b d̪ f h j k l m n̪ p s t̪ w ŋ g ɾ ʔ a aː e eː i iː o oː u uː
ngad1261-1213	Ngad'a	ngad1261	Austronesian	Papunesia	-8.79508	120.976	27	21	6	0	0	0	0	3.5	b dʒ d̪ f k l m n p s t v x z ŋ ɓ g ɣ ɾ ʔ ᶑ a e i o u ə
muna1247-1214	Muna	muna1247	Austronesian	Papunesia	-5.40419	122.541	33	28	5	0	0	0	0	5.6	b c d d̪ f h j k l m ⁿb ⁿp n ⁿd ⁿs ⁿt p r s t w ŋ ⁿk ⁿg ɓ ɟ g ʁ a i u ɔ ɛ
keoo1238-1215	Kéo	keoo1238	Austronesian	Papunesia	-8.8704	121.256	30	24	6	0	0	0	0	4.0	b d dʒ f h k l m ⁿb n ⁿd p r s t tʃ w x ŋ ⁿg g ʔ ˀb ˀd a e i o u ə
saki1248-1217	Mekens	saki1248	Tupian	South America	-13.054	-62.0927	35	15	20	0	0	0	10	0.75	b j k kʷ m n p s t w ŋ ŋʷ g ɾ ʔ a aː ã ãː e eː ẽ ẽː i iː ĩ ĩː o oː õ õː ɨ ɨː ɨ̃ ɨ̃ː
tiwi1244-1218	Tiwi	tiwi1244		Australia	-11.6308	130.949	18	14	4	0	0	0	0	3.5	j k l m n n̪ p t t̪ w ŋ ɣ ɻ ɾ a i o u
torw1241-1219	Torwali	torw1241	Indo-European	Eurasia	35.3101	72.5316	51	38	13	0	0	0	0	2.923076923076923	b bʱ dʒ d̪ d̪ʱ j k kʰ l̪ m n̪ p pʰ r̪ s̪ tʃ tʃʰ t̪ ts̪ t̪ʰ w x z̪ ŋ ɖ ɖʐ ɖʱ g gʱ ɣ ɰ ʂ ʃ ʈ ʈʂ ʈʂʰ ʈʰ ʐ e ẽ i ĩ o õ u ũ æ æ̃ ɑ ɑ̃ ə
thul1246-1220	Thulung	thul1246	Sino-Tibetan	Eurasia	27.5389	87.6063	38	30	8	0	0	0	0	3.75	b bʱ d dz dzʱ dʱ h j k kʰ l m n p pʰ r s t ts tsʰ tʰ w ŋ ɖ ɖʱ g gʱ ʈ ʈʰ ʔ a e i o u y ɔ ɯ
tsha1245-1221	Tshangla	tsha1245	Sino-Tibetan	Eurasia	27.3694	91.7741	37	32	5	0	0	0	0	6.4	b d dz dʑ h j k kʰ l m n p pʰ s t ts tsʰ tɕ tɕʰ tʰ w z ŋ ɕ ɖ g ɬ ɲ ɾ ʈ ʈʰ ʑ a e i o u
colo1256-1222	Tsafiki	colo1256	Barbacoan	South America	-0.21181	-79.2347	25	16	9	0	0	0	0	1.7777777777777777	b d̪ h j k l m n p s tʃ t̪ w ɸ ɹ ʔ a ã e ẽ i ĩ o u ũ
tzut1248-1223	Tz'utujil	tzut1248	Mayan	North America	14.6351	-91.2012	35	25	10	0	0	0	5	2.5	b d j k kʼ l m n p pʼ q qʼ r s t ts tsʼ tʼ tʃ tʃʼ w g ʃ ʔ χ a aː e eː i iː o oː u uː
pwon1235-1224	Pwo Northern Karen	pwon1235	Sino-Tibetan	Eurasia	18.016	98.2709	47	23	24	0	7	0	0	0.9583333333333334	b d h j k kʰ l m n p pʰ r s t tɕ tɕʰ tʰ w x ɰ ɲ ʃ ʔ a ai au a̰ a̰ḭ a̰ṵ e ḛ i o o̰ u ṵ ɔ ɔ̃ ɔ̰ ə əi əu ə̃ ə̰ ɛ ɨ ɨi
tuvi1240-1225	Tuvinian	tuvi1240	Turkic	Eurasia	51.7	94.36667	37	21	16	0	0	0	8	1.3125	f j k l m n p pʰ r s t ts tʰ tʃ x z ŋ g ʃ ʋ ʒ a aː e eː i iː o oː u uː y yː ø øː ɯ ɯː
kinn1249-1226	Kinnauri	kinn1249	Sino-Tibetan	Eurasia	31.3688	78.3148	46	31	15	0	0	0	6	2.066666666666667	b cç cçʰ d̪ d̪ʱ f h j k kʰ l̪ n̪ p pʰ r s̪ t̪ t̪ʰ v w z̪ ŋ ɖ ɟʝ g ɭ ɳ ʂ ʈ ʈʰ ʐ a aː e eː i iː o oː u uː æ æː ɔ ə ɨ
mewa1250-1227	Mewati	mewa1250	Indo-European	Eurasia	27.736	76.947	50	30	20	0	0	0	0	1.5	b bʱ dʒ dʒʱ d̪ d̪ʱ h j k kʰ l̪ m n̪ p pʰ r̪ s̪ tʃ tʃʰ t̪ t̪ʰ w ɖ ɖʱ g gʱ ɳ ɽ ʈ ʈʰ a ã e ẽ i ĩ o õ u ũ ɔ ɔ̃ ə ə̃ ɛ ɛ̃ ɪ ɪ̃ ʊ ʊ̃
anei1239-1228	Aneityum	anei1239	Austronesian	Papunesia	-20.1864	169.825	26	21	5	0	0	0	0	4.2	cç f h j k l m mʷ n p pʷ s t v w ŋ ɣ ɲ ɾ ʔ θ a ɔ ɛ ɪ ʊ
zaiw1241-1229	Zaiwa	zaiw1241	Sino-Tibetan	Eurasia	24.1726	98.3643	29	21	8	0	3	0	0	2.625	h j k kʰ l m n p pʰ s t ts tsʰ tʰ tʃ tʃʰ w ŋ ɹ ʃ ʔ a ai au e i o u ui
chic1270-1230	Chickasaw	chic1270	Muskogean	North America	34.0	-88.0	25	16	9	0	0	0	6	1.7777777777777777	b f h j k l m n p s t tʃ w ɬ ʃ ʔ a aː ãː i iː ĩː o oː õː
friu1240-1231	Friulian	friu1240	Indo-European	Eurasia	46.1473	13.0493	39	25	14	0	0	0	7	1.7857142857142858	b c dʒ d̪ dz̪ f j k l m n p r s tʃ t̪ ts̪ v w z ɟ g ɲ ʃ ʒ a aː e eː i iː o oː u uː ɔ ɔː ɛ ɛː
jica1244-1232	Jicarilla Apache	jica1244	Athabaskan-Eyak-Tlingit	North America	36.8079	-107.007	53	34	19	0	0	0	8	1.7894736842105263	d̪ h j k kʰ kʷ kʷʰ kʼ l̪ m n̪ p s̪ tʃ tʃʰ tʃʼ t̪ ts̪ ts̪ʰ ts̪ʼ tɬ̪ tɬ̪ʰ tɬ̪ʼ t̪ʰ t̪ʼ x xʷ z̪ ɣ ɣʷ ɬ̪ ʃ ʒ ʔ a aː ã ãː i iː o oː õ õː ə ɛ ɛː ɛ̃ ɛ̃ː ɪ ɪ̃ ɪ̃ː ʊ
egaa1242-1233	Ega	egaa1242	Atlantic-Congo	Africa	5.56081	-5.41732	36	27	9	0	0	0	0	3.0	b c d f j k kp l m n p s t v w x z ŋ ɓ ɗ ɟ ɠ ɠɓ g gb ɲ ʄ a e̘ e̙ i̘ i̙ o̘ o̙ u̘ u̙
adam1253-1234	Adamawa Fulfulde	adam1253	Atlantic-Congo	Africa	8.140326	13.077338	36	27	9	0	0	0	4	3.0	b d dʒ h j k l m ⁿb n ⁿd ⁿdʒ p r s t tʃ w ŋ ⁿg ɓ ɗ g ɲ ɸ ʔ β a aː e eː i iː o u uː
west2441-1235	Western Arrarnta	west2441	Pama-Nyungan	Australia	-24.05052	133.24621	29	26	3	0	0	0	0	8.666666666666666	j k kⁿ l l̠ l̪ m n n̠ n̪ p pⁿ t tⁿ t̠ t̠ⁿ t̪ t̪ⁿ w ŋ ɭ ɳ ɻ ɾ ʈ ʈⁿ a i ə
sanu1240-1236	Sanumá	sanu1240	Yanomamic	South America	4.5	-64.5	24	11	13	0	0	0	0	0.8461538461538461	h k l m n p s t ts tʰ w a ã e ẽ i ĩ o õ u ũ ə ɨ ɨ̃
wari1268-1237	Wari'	wari1268	Chapacuran	South America	-10.69948	-64.56152	20	14	6	0	0	0	0	2.3333333333333335	h hʷ k kʷ m mˀ n nˀ p tʃ t̺ w ɾ ʔ a e i o y ø
crow1244-1238	Crow	crow1244	Siouan	North America	45.368	-107.874	20	10	10	0	0	0	5	1.0	h k p s̪ tʃ t̪ w x ɹ ʃ a aː e eː i iː o oː u uː
barb1263-1239	Barbareño	barb1263	Chumashan	North America	34.462	-119.699	44	38	6	0	0	0	0	6.333333333333333	h j jˀ k kʰ kʼ l lˀ m mˀ n nˀ p pʰ pʼ q qʰ qʼ s sʰ sʼ t ts tsʰ tsʼ tʰ tʼ tʃ tʃʰ tʃʼ w wˀ ʃ ʃʰ ʃʼ ʔ χ χʼ a e i o u ɨ
lyel1241-1240	Lyélé	lyel1241	Atlantic-Congo	Africa	12.4305	-2.59229	31	21	10	0	0	0	5	2.1	b d h j k kp l ⁿb mʷ ⁿd p r s t ŋ ⁿgb ɓ ɗ g gb ɲ a aː e eː i iː o oː u uː
adam1253-1241	Adamawa Fulfulde	adam1253	Atlantic-Congo	Africa	8.140326	13.077338	47	37	10	0	0	10	5	3.7	b bː d dː dʒ f h j k kː l lː m ⁿb mː n ⁿd nː ⁿdʒ q r s t tʃ tʃː w ŋ ⁿg ɓ ɓː ɗ ɗː g gː ɲ ʒ ʔʲ a aː e eː i iː o oː u uː
anyi1245-1242	Anyin	anyi1245	Atlantic-Congo	Africa	6.31781	-3.30532	35	19	16	0	0	0	0	1.1875	b c d f h j k kp l m n p s t w ɟ g gb ɥ a ã e i ĩ o u ũ ɔ ɛ ɪ ɪ̃ ʊ ʊ̃ ʌ ʌ̃
anyi1245-1243	Anyin	anyi1245	Atlantic-Congo	Africa	6.31781	-3.30532	31	17	14	0	0	0	0	1.2142857142857142	b c d f h j k m n p r s t w ɟ g ʃ a ã e i ĩ o u ũ ɔ ɛ ɪ ɪ̃ ʊ ʊ̃
anyi1244-1244	Anyin Morofo	anyi1244	Atlantic-Congo	Africa	6.1627	-4.64232	45	31	14	0	0	3	0	2.2142857142857144	b c d f h j k kp m ⁿb mː n ⁿd ⁿz nː p s t v w z ⁿgb ⁿg ɟ g gb ɥ ⁿv ɲ ⁿɟ ɲː a ã e i ĩ o u ũ ɔ ɛ ɪ ɪ̃ ʊ ʊ̃
akan1250-1245	Akan	akan1250	Atlantic-Congo	Africa	6.34756	-1.33254	58	28	30	0	0	0	10	0.9333333333333333	b d dz dʑ dʑᶣ f h kʷ l m n p r s sᶣ t ts tɕ tɕᶣ w ŋ ŋʷ ɕ ɕᶣ gʷ ɥ ɲ ɲᶣ a aː ã e eː ẽ i iː ĩ o oː õ u uː ũ æ æː æ̃ ɔ ɔː ɔ̃ ɛ ɛː ɛ̃ ɪ ɪː ɪ̃ ʊ ʊː ʊ̃
anuf1239-1246	Anufo	anuf1239	Atlantic-Congo	Africa	10.2839	0.56021	57	45	12	0	0	0	0	3.75	b bʲ bʷ c cʲ d dʲ f fʲ fʷ h j k kp kpʲ kʷ l lᶣ m mʲ n p pʲ pʷ r s t tʲ w z ŋ ŋm ŋmʲ ɕᶣ ɟ ɟʲ g gb gbʲ gʷ ɥ ɥ̥ ɲ ʃ ʑᶣ a ã e i ĩ o u ũ ɔ ɔ̃ ɛ ɛ̃
dibo1245-1247	Dibole	dibo1245	Atlantic-Congo	Africa	1.07773	17.2305	27	21	6	0	0	0	0	3.5	b dz h j k l m ⁿb ⁿp n ⁿdz ⁿs ⁿt ⁿts p s t ts w ⁿk ⁿg a e i u ɔ ɛ
bana1305-1248	Bana	bana1305	Afro-Asiatic	Africa	10.3535	13.6131	40	37	3	0	0	0	0	12.333333333333334	b d dz f j k kʷ m ⁿb n ⁿd ⁿdz p s t ts v w z ŋ ⁿg ⁿgʷ ŋʷ ɓ ɗ g gʷ ɬ ɮ ɾ ʁ ʁʷ ʔ ʔʷ χ χʷ ⱱ ə ɛ ɨ
baka1274-1249	Baka (Sudan)	baka1274	Central Sudanic	Africa	4.65943	29.59	46	36	10	0	0	0	0	3.6	b bʳ d dʑ f h j k kp l m n p r s t ts tɕ v w x ħ ŋ ɓ ɖ ɗ g gb ɣ ɲ ɾ ʃ ʒ ʕ θ ⱱ a e i o u ɐ ɔ ɛ ɪ ʊ
ajas1235-1250	Aja (Sudan)	ajas1235	Kresh-Aja	Africa	8.58003	25.6122	48	38	10	0	0	0	0	3.8	b c d dʑ f h j k kp l m n p r s t ts tɕ v w x ħ ŋ ɓ ɖ ɗ ɟ g gb ɣ ɲ ɾ ʃ ʈ ʒ ʕ θ ⱱ a e i o u ɐ ɔ ɛ ɪ ʊ
bila1255-1251	Bila	bila1255	Atlantic-Congo	Africa	1.16839	28.7626	28	19	9	0	0	0	0	2.111111111111111	h j k kp l ⁿb ⁿd ⁿdʒ p s t tʃ w ⁿgb ⁿg ɓ ɗ ɲ ɸ a e i o u ɔ ɛ ɪ ʊ
busa1253-1252	Busa	busa1253	Mande	Africa	9.91074	4.39929	28	16	12	0	0	0	0	1.3333333333333333	b d f j k kp m n p s t v w z g gb a ã e i ĩ o u ũ ɔ ɔ̃ ɛ ɛ̃
adam1253-1253	Adamawa Fulfulde	adam1253	Atlantic-Congo	Africa	8.140326	13.077338	39	29	10	0	0	0	5	2.9	b d dʒ f h j k l m ⁿb n ⁿd ⁿdʒ p q r s t tʃ v w ŋ ⁿg ɓ ɗ g ɲ ʔ ʔʲ a aː e eː i iː o oː u uː
nige1253-1254	Hausa States Fulfulde	nige1253	Atlantic-Congo	Africa	10.9972	11.1188	57	47	10	0	0	20	5	4.7	b bː d dː dʒ dʒː f h j k kː l lː m ⁿb ⁿbː mː n ⁿd ⁿdː nː ⁿdʒ p pː r rː s t tː tʃ tʃː w ŋ ⁿg ⁿgː ŋː ɓ ɓː ɗ ɗː g gː ɲ ɲː ʔ ʔʲ ʔʲː a eː iː oː uː ɑː ɔ ɛ ɪ ʊ
here1253-1255	Herero	here1253	Atlantic-Congo	Africa	-21.0231	20.5655	24	19	5	0	0	0	0	3.8	h j k ⁿb n ⁿdʑ ⁿd̪ n̪ p t t̪ v w ð ⁿg ɕ ɲ ɾ θ a e i o u
ceba1235-1256	Senari	ceba1235	Atlantic-Congo	Africa	9.50768	-6.15264	35	22	13	0	0	0	5	1.6923076923076923	b d dʒ f k kp l m n p r s t tʃ v z ŋ g gb ʃ ʒ ʔ a aː ã ãː e o ɔ ɔː ɔ̃ ɔ̃ː ɛ ɛː ɛ̃
koyr1240-1257	Koyra Chiini Songhay	koyr1240	Songhay	Africa	16.192	-3.73962	37	23	14	0	0	0	7	1.6428571428571428	b d f h j̃ k l m n p r s t tʃ w z ŋ ŋʷ g gᶣ ɲ ʃ ʔ a aː e eː i iː o oː u uː ɔ ɔː ɛ ɛː
bafi1243-1258	Bafia	bafi1243	Atlantic-Congo	Africa	4.72603	11.0982	43	25	18	0	0	0	7	1.3888888888888888	b d dʒ f j k kp l m n p r s t tʃ v w z ŋ ɓ ɗ g gb ɣ ɲ a aː e eː i iː o oː u uː ɑ ɔ ɔː ə ɛ ɛː ɨ ʌ
limb1268-1260	Limbum	limb1268	Atlantic-Congo	Africa	6.58608	10.9802	52	37	15	0	0	0	6	2.466666666666667	b d dz dʒ f h j k kʷ l m ⁿb n ⁿd ⁿl ⁿr ⁿt r s t ts tʃ v w z ŋ ⁿkʷ ⁿgʷ ŋʷ g gʷ ɣ ⁿf ɲ ʃ ʒ ʔ a aː i iː u uː ũ ɔ ɔː ɛ ɛː ɛ̃ ɨ ɨː ɨ̃
limb1268-1261	Limbum	limb1268	Atlantic-Congo	Africa	6.58608	10.9802	41	23	18	0	0	0	7	1.2777777777777777	b d dʒ f h j k l m n r s t tʃ v w ŋ g ɣ ɲ ʃ ʒ ʔ a aː e eː iː o oː u uː ũ ɔ ɔː ɔ̃ ɛ ɛː ɛ̃ ɨ ɨ̃
limb1268-1262	Limbum	limb1268	Atlantic-Congo	Africa	6.58608	10.9802	33	23	10	0	0	0	5	2.3	b d dʒ f h j k l m n r s t tʃ v w ŋ g ɣ ɲ ʃ ʒ ʔ a aː e eː i iː o oː u uː
myen1241-1263	Myene	myen1241	Atlantic-Congo	Africa	-1.48741	9.50247	36	29	7	0	0	0	0	4.142857142857143	dʒ f j k l m ⁿb ⁿp n ⁿd ⁿt ⁿdʒ ⁿtʃ p r s t tʃ w z ŋ ⁿk ⁿg ɓ ɗ g ɲ ʙ β a e i o u ɔ ɛ
ntch1242-1264	Ntcham	ntch1242	Atlantic-Congo	Africa	9.23971	0.599275	40	21	19	0	0	0	12	1.105263157894737	b c d f j k kp l m n p s t w ŋ ŋm ɟ g gb ɱ ɲ a aː ãː e eː ẽː i iː ĩ ĩː o oː õː u uː ũː ɔ ɔː ɔ̃ː
tune1261-1265	Tunen	tune1261	Atlantic-Congo	Africa	4.75	10.67	24	17	7	0	0	0	0	2.4285714285714284	b f j k l m ⁿb n ⁿd ⁿdʒ s t w x ŋ ⁿg ɲ a i o u ɔ ə ɛ
matu1259-1266	Matumbi	matu1259	Atlantic-Congo	Africa	-8.53734	39.0409	20	15	5	0	0	0	0	3.0	b d dʒ j l m n p s t tʃ w ŋ g ɲ a e i o u
yaoo1241-1267	Yao	yaoo1241	Atlantic-Congo	Africa	-13.6119	35.2387	25	18	7	0	0	0	0	2.5714285714285716	b d dʒ f j k l m n p s t tʃ w ŋ g ɲ β a e i o u ɪ ʊ
umbu1257-1268	Umbundu	umbu1257	Atlantic-Congo	Africa	-12.4763	14.4148	30	20	10	0	0	0	0	2.0	c f h h̃ j j̃ k l l̃ m n p s t v ṽ w w̃ ŋ ɲ a ã e ẽ i ĩ o õ u ũ
ndon1254-1269	Ndonga	ndon1254	Atlantic-Congo	Africa	-17.22	17.35	30	25	5	0	0	0	0	5.0	b d f h j k l m n p s t ts v w x z ð g ɣ ɲ ʃ ʒ ʔ θ a e i o u
mbuk1240-1270	Mbukushu	mbuk1240	Atlantic-Congo	Africa	-17.6827	22.5026	29	22	7	0	0	0	0	3.142857142857143	b d dʒ f h j k m n p r t tʃ t̪ v w ð ŋ ɣ ɲ ʃ θ a e i o u ɔ ɛ
diri1252-1271	Diriku	diri1252	Atlantic-Congo	Africa	-18.1681	20.6678	28	23	5	0	0	0	0	4.6	b d dʒ f h j k l m n p r t tʃ t̪ v w ŋ g ɣ ɲ ʃ β a ɔ ɛ ɪ ʊ
kwan1273-1272	Kwangali	kwan1273	Atlantic-Congo	Africa	-17.9026	19.256	27	22	5	0	0	0	0	4.4	b d dʒ f h j k l m n p r s t tʃ v w ŋ g ɲ ʃ β a ɔ ɛ ɪ ʊ
soni1259-1273	Soninke	soni1259	Mande	Africa	13.1273	-11.7178	43	28	15	0	0	10	5	1.8666666666666667	b bː c d h j jː k kː l lː m mː n nː p q r s t tː x ŋ ŋː g gː ɲ ɲː a aː ã e eː ẽ i iː ĩ o oː õ u uː ũ
koyr1242-1274	Koyraboro Senni Songhai	koyr1242	Songhay	Africa	16.9634	-0.55187	37	23	14	0	0	0	5	1.6428571428571428	b d dʒ f h j k l m n p r s t tʃ w z ŋ g ɲ ʃ ʒ ʔ a aː ã e eː ẽ i iː ĩ o oː õ u uː
lele1276-1275	Lele (Chad)	lele1276	Afro-Asiatic	Africa	9.158	15.81149	33	23	10	0	0	0	5	2.3	b d h j k kp l m ⁿb n ⁿd p r s t w ŋ ⁿgb ɓ ɗ g gb ɲ a aː e eː i iː o oː u uː
ikal1242-1276	Ikalanga	ikal1242	Atlantic-Congo	Africa	-21.2887	27.401	67	62	5	0	0	0	0	12.4	b bˢ bg bʱ d dz dzʷ dʷ dʒ dʒʱ dʱ dzʱ d̪ f j k kʰ kʷ kʷʰ l m ⁿb n ⁿd ⁿdʒ p pkʰ pˢ pʰ r s sʷ ts tsʰ tsʷʰ tʰ tʲ tʷʰ tʃ tʃʼ t̪ t̪ʰ v w wʱ z zʷ ŋ ⁿg ⁿgʷ ŋʷ g gʷ gʷʱ ɦ ɲ ʃ ʃʷ ʋ ʒ ʔ β a e i o u
mong1338-1277	Mongo	mong1338	Atlantic-Congo	Africa	-1.54228	20.4259	52	45	7	0	0	0	0	6.428571428571429	b bʲ bʷ d dʒ dʒʷ f fʲ fʷ h j jʷ k kʲ kʷ l m ⁿb ⁿp mʲ mʷ ⁿd ⁿs ⁿt ⁿts nʷ ⁿdʒ p pʲ pʷ r s sʲ sʷ t ts tsʷ w ŋ ⁿk ⁿg g ɲ ɲʷ ʔ a e i o u ɔ ɛ
long1387-1278	Longto	long1387	Atlantic-Congo	Africa	8.33313	13.0568	27	20	7	0	0	0	0	2.857142857142857	b c d j k kp m n t w ŋ ŋm ɕ ɟ g gb ɲ ɸ ɽ β a i u ɔ ɛ ɪ ʊ
xwel1235-1279	Xwela Gbe	xwel1235	Atlantic-Congo	Africa	6.41342	2.02985	42	29	13	0	0	0	0	2.230769230769231	b d dʒ f j k kp l̃ m n r r̃ s t tʃ v w w̃ z ɖ g gb ɥ ɥ̃ ɲ ʁ ʁʷ χ χʷ a ã e i ĩ o u ũ ɔ ɔ̃ ə ɛ ɛ̃
west2456-1280	Western Xwla Gbe	west2456	Atlantic-Congo	Africa	6.33455	2.03904	42	29	13	0	0	0	0	2.230769230769231	b d dʒ f j k kp l̃ m n r r̃ s t tʃ v w w̃ z ɖ g gb ɥ ɥ̃ ɲ ʁ ʁʷ χ χʷ a ã e i ĩ o u ũ ɔ ɔ̃ ə ɛ ɛ̃
kota1272-1281	Kotafon Gbe	kota1272	Atlantic-Congo	Africa	6.64027	1.72346	42	29	13	0	0	0	0	2.230769230769231	b d dʒ f j k kp l̃ m n r r̃ s t tʃ v w w̃ z ɖ g gb ɥ ɥ̃ ɲ ʁ ʁʷ χ χʷ a ã e i ĩ o u ũ ɔ ɔ̃ ə ɛ ɛ̃
gbes1238-1282	Gbesi Gbe	gbes1238	Atlantic-Congo	Africa	6.55911	2.0269	44	31	13	0	0	0	0	2.3846153846153846	b d f j k kp l̃ m n r r̃ s t v w w̃ z ɖ g gb ɥ ɥ̃ ɲ ɸ ʁ ʁʷ ʃ ʒ β χ χʷ a ã e i ĩ o u ũ ɔ ɔ̃ ə ɛ ɛ̃
mach1266-1283	Machame	mach1266	Atlantic-Congo	Africa	-3.29385	37.0703	43	33	10	0	0	0	5	3.3	b d dʒ f j k l lʲ m ⁿb ⁿp n ⁿd ⁿs ⁿt ⁿz ⁿdʒ ⁿtʃ p s t tʃ w ŋ ⁿk ⁿg g ⁿv ɲ ɽ ɾ ʃ β a aː e eː i iː o oː u uː
mada1282-1284	Mada (Nigeria)	mada1282	Atlantic-Congo	Africa	9.02294	8.34119	36	23	13	0	1	0	0	1.7692307692307692	b d dz f j kp kʰ l m n pʰ r s ts tʰ v w ŋ g gb ɽ ɾ ʍ a ã ei i ĩ o u ũ ɔ ɔ̃ ə ɛ ɛ̃
mbee1249-1285	Mbe	mbee1249	Atlantic-Congo	Africa	6.57067	8.82998	33	26	7	0	0	0	0	3.7142857142857144	b d dz dʒ f h j k kp kʷ l m n p r s t ts tʃ w ŋ ŋʷ g gb ɲ ʃ a e i o u ɔ ɛ
ngwe1238-1286	Ngwe	ngwe1238	Atlantic-Congo	Africa	5.49787	9.9028	38	24	14	0	0	0	0	1.7142857142857142	d dʒ f h k kp m n p r s t tʳ tʃ v w z ŋ g gb ɲ ʋ ʔ β a e i o u y æ ø œ ɔ ə ɛ ɤ ɯ
jowu1238-1287	Jowulu	jowu1238	Mande	Africa	10.7691	-5.47873	41	20	21	0	0	0	7	0.9523809523809523	b c d f j k kp l m n p s t w ŋ ŋm ɟ gb ɲ ʃ a aː ã e eː ẽ i iː ĩ o oː õ u uː ũ ɔ ɔː ɔ̃ ɛ ɛː ɛ̃
yala1263-1288	Yala	yala1263	Atlantic-Congo	Africa	6.73852	8.60748	35	28	7	0	0	0	0	4.0	b c d f j k kp kʷ l m ⁿb n p r s t w wʲ x ŋ ⁿgb ŋʷ ɟ g gb gʷ ɲ ʃ a e i o u ɔ ɛ
kete1252-1290	Kete	kete1252	Atlantic-Congo	Africa	-7.15104	22.9027	21	16	5	0	0	0	0	3.2	b d f j k l m n p s t v w z g ɲ a e i o u
kwes1244-1291	Kwese	kwes1244	Atlantic-Congo	Africa	-5.60445	18.5759	22	16	6	0	0	0	0	2.6666666666666665	b d dʒ f h kʰ l m n pʰ s tʰ v w z g a e i o u y
sout2828-1292	Southern Ma'di	sout2828	Central Sudanic	Africa	2.8735	31.25	56	47	9	0	0	0	0	5.222222222222222	b d dʷ dʒ f h j k kp kʷ l lʷ m ⁿb n ⁿd ⁿdʷ ⁿdʒ p r rʷ s sʷ t tʷ tʃ tʃʷ v w z zʷ ŋ ŋm ⁿgb ⁿg ⁿgʷ ɓ ɗ ɠɓ g gb gʷ ⁿv ɲ ʄ ʔ ʔʷ a e i o u ɔ ɛ ɪ ʊ
moru1253-1293	Moru	moru1253	Central Sudanic	Africa	5.1232	30.3287	35	26	9	0	0	0	0	2.888888888888889	b dz d̪ h j k kp l m n p r s ts t̪ w z ŋ ɓ ɖʳ ɗ g gb ɲ ʈʳ ʔ a e i o u ɔ ɛ ɪ ʊ
logo1259-1294	Logo	logo1259	Central Sudanic	Africa	3.32608	29.8866	36	27	9	0	0	0	0	3.0	b dz d̪ h j k kp l m n p r s ts t̪ w z ŋ ɓ ɖʳ ɗ g gb ɲ ɺ ʈʳ ʔ a e i o u ɔ ɛ ɪ ʊ
afit1238-1295	Afitti	afit1238	Nyimang	Africa	12.446	30.7611	23	17	6	0	0	0	0	2.8333333333333335	b c d f j k l m n r s t w ŋ ɟ g ɲ e i o u ɑ ə
avat1244-1296	Avatime	avat1244	Atlantic-Congo	Africa	6.8688	0.41314	46	28	18	0	0	0	0	1.5555555555555556	b d dz f h hʷ j k kp l m n p s t ts v w z ŋ ŋʷ g gb ɦ ɦʷ ɲ ɸ β a ã e ẽ i ĩ o õ u ũ ɔ ɔ̃ ɛ ɛ̃ ɪ ɪ̃ ʊ ʊ̃
anyi1245-1298	Anyin	anyi1245	Atlantic-Congo	Africa	6.31781	-3.30532	35	21	14	0	0	0	0	1.5	b d dʒ f h j k kp m n p s t tʃ w ŋ gb gʷ ɲ ʃ ʔ a ã e i ĩ o u ũ ɔ ɛ ɪ ɪ̃ ʊ ʊ̃
dghw1239-1299	Dghwede	dghw1239	Afro-Asiatic	Africa	11.05751	13.77847	36	33	3	0	0	0	0	11.0	b c d f j k kʷ l m ⁿb n ⁿd p r s t v w x xʷ z ⁿg ⁿgʷ ɓ ɗ ɟ g gʷ ɣ ɣʷ ɬ ɮ ⁿɟ a i u
eloy1241-1300	Eloyi	eloy1241	Atlantic-Congo	Africa	8.24696	7.97061	48	41	7	0	0	0	0	5.857142857142857	b bʲ bʷ d dʒ f fʲ j k kp kʷ m ⁿb ⁿbʷ mʲ mʷ n ⁿd ⁿz ⁿdʒ p pʲ pʷ r s t tɕ v vʲ w z ŋ ⁿgb ⁿg ⁿgʷ ŋʷ g gb gʷ ɲ ʃ a e i o u ɔ ɛ
nige1253-1301	Hausa States Fulfulde	nige1253	Atlantic-Congo	Africa	10.9972	11.1188	38	28	10	0	0	0	5	2.8	b d dʒ f h j jˀ k l m ⁿb n ⁿd ⁿdʒ p r s t tʃ w ŋ ⁿg ɓ ɗ g ɲ ʃ ʔ a aː e eː i iː o oː u uː
giky1238-1302	Gikyode	giky1238	Atlantic-Congo	Africa	8.39478	0.56975	51	29	22	0	0	0	0	1.3181818181818181	b bʷ c d f fʷ h hʷ j k kp kʷ l m n p pʷ r s sʷ sᶣ t w ŋ ŋm ɟ g gb ɲ a ã e ẽ i ĩ o õ u ũ ɔ ɔ̃ ə ə̃ ɛ ɛ̃ ɪ ɪ̃ ʊ ʊ̃ ʌ ʌ̃
giny1241-1303	Ginyanga	giny1241	Atlantic-Congo	Africa	8.2327	0.98348	53	31	22	0	0	0	0	1.4090909090909092	b bʷ d dʒ f fʷ h j k kp kʷ l lʷ m n p pʷ r s sʷ sʲʷ t tʷ tʃ w wʲ ŋ ŋm g gb ɲ a ã e ẽ i ĩ o õ u ũ ɔ ɔ̃ ə ə̃ ɛ ɛ̃ ɪ ɪ̃ ʊ ʊ̃ ʌ ʌ̃
huba1236-1304	Huba	huba1236	Afro-Asiatic	Africa	10.3544	13.139	29	24	5	0	0	0	0	4.8	b dz d̪ f j k l m n p r s ts t̪ v w x z ɓ ɗ g ɣ ɬ̪ ɮ̪ a i ə ɨ ɯ
kofy1242-1305	Pan	kofy1242	Afro-Asiatic	Africa	8.79947	9.15279	33	23	10	0	0	0	5	2.3	b d dʒ f j k l m n p r s t tʃ v w z ŋ ɓ ɗ g ʃ ʒ a aː i iː u uː ɔ ɔː ɛ ɛː
krac1238-1306	Krache	krac1238	Atlantic-Congo	Africa	7.93475	0.01925	41	17	24	0	0	0	0	0.7083333333333334	b d dʒ f j k kp l m n p s t tʃ w ŋ ɲ a ã e ẽ i ĩ o õ u ũ ɔ ɔ̃ ə ə̃ ɛ ɛ̃ ɜ ɜ̃ ɪ ɪ̃ ʊ ʊ̃ ʌ ʌ̃
krim1238-1307	Krim	krim1238	Atlantic-Congo	Africa	7.24116	-11.8393	38	22	16	0	0	0	7	1.375	b d dʒ f h j k l m ⁿp n ⁿt ⁿt̪ p s t tʃ t̪ w ŋ gb ɲ a aː e eː e̝ i iː o oː o̝ u uː ɔ ɔː ɛ ɛː
west2458-1308	West Central Banda	west2458	Atlantic-Congo	Africa	6.81435	24.1012	41	31	10	0	2	0	0	3.1	c f h j k kp l m ⁿb n ⁿd ⁿz p s t v w z ⁿgb ⁿg ɟ g gb ⁿv ɲ ⁿɟ ɾ ʃ ʒ ʔ ⱱ a e ea i o oa u ɔ ə ɨ
sout2833-1309	South Central Dinka	sout2833	Nilotic	Africa	6.7307	30.3021	57	20	37	0	0	0	26	0.5405405405405406	b c d j k l m n p r t w ð ŋ ɟ g ɣ ɱ ɲ θ a̤ a̤ː a̤ˑ a̰ a̰ː a̰ˑ e̤ e̤ː e̤ˑ ḛ ḛː ḛˑ i̤ i̤ː i̤ˑ ḭ ḭː ḭˑ o̤ o̤ː o̤ˑ o̰ o̰ː o̰ˑ ṳ ṳː ṳˑ ɔ̤ ɔ̤ː ɔ̤ˑ ɔ̰ ɔ̰ː ɔ̰ˑ ɛ̤ː ɛ̤ˑ ɛ̰ː ɛ̰ˑ
food1238-1310	Foodo	food1238	Atlantic-Congo	Africa	9.56489	1.40486	41	23	18	0	0	0	9	1.2777777777777777	b d dʒ f h j k kp l m n p r s t tʃ v w z ŋ ŋm g gb a aː e eː i iː o oː u uː ɔ ɔː ɛ ɛː ɪ ɪː ʊ ʊː
jola1262-1311	Jola-Esulalu	jola1262	Atlantic-Congo	Africa	12.5089	-16.5539	51	31	20	0	0	12	10	1.55	b bː d dʒ f h j k kː l lː l̥ l̥ː m mː n nː s sː t tː w ŋ ŋː g gː ɲ ɲː ʃ ʃː ʔ a aː e eː i iː o oː u uː ɔ ɔː ə əː ɛ ɛː ɪ ɪː ʊ ʊː
jumj1238-1312	Jumjum	jumj1238	Nilotic	Africa	10.4349	33.7494	36	20	16	0	0	0	8	1.25	b c d j k l m n p r t w ð ŋ ɟ g ɱ ɲ ʔ θ a aː i iː u uː ɔ ɔː ɛ ɛː ɪ ɪː ʊ ʊː ʌ ʌː
buru1301-1313	Burun	buru1301	Nilotic	Africa	10.725	33.921	35	19	16	0	0	0	8	1.1875	b j k l m n p r t w z ð ŋ ɗ g ɲ ʃ ʔ θ a aː i iː u uː ɔ ɔː ɛ ɛː ɪ ɪː ʊ ʊː ʌ ʌː
olub1238-1314	Olu'bo	olub1238	Central Sudanic	Africa	4.6242	31.9103	43	34	9	0	0	0	0	3.7777777777777777	b dʒ f j k kp l m ⁿb n ⁿdʒ p r s tʃ v w z ð ŋ ⁿgb ⁿg ɓ ɖ ɗ g gb ⁿd̟ ɲ ⁿɖ ʄ ʈ ʔ θ a e i o u ɔ ɛ ɪ ʊ
maay1238-1315	Maay	maay1238	Afro-Asiatic	Africa	3.22288	43.6182	32	22	10	0	0	0	5	2.2	b d dʒ f h j k l m n p r s t w ɗ ɠ g ɲ ʃ ʄ ʔ a aː e eː i iː o oː u uː
maba1273-1316	Mabaan	maba1273	Nilotic	Africa	9.81455	33.5404	41	19	22	0	8	0	7	0.8636363636363636	b c d j k l m n p r t w ð ŋ ɟ g ɲ ʔ θ a aː e eː i ie iɛ iː iːe iːɛ u ua uʌ uː uːa uːʌ ɔ ɔː ɛ ɛː ʌ ʌː
suga1248-1317	Nizaa	suga1248	Atlantic-Congo	Africa	7.12906	12.3779	81	58	23	0	0	0	18	2.5217391304347827	b d dʷ dʒ dʒʷ f h j k kp kʷ l lʷ m ⁿb mʷ n ⁿd ⁿdʷ ⁿz ⁿzʷ nʷ ⁿdʒ ⁿdɹ̠˔ʷ p s sʷ t tʷ tʃ tʃʷ v w w̃ x z zʷ ⁿgb ⁿg ⁿgʷ ɓ ɓʷ ɗ ɗʷ g gb gʷ ɥ ɰ̃ ⁿv ɲ ɲʷ ɾ ɾʷ ʃ ʃʷ ʔ ʔʷ a aː ãː e eː iː ĩː o oː uː ũː ɔː ɔ̃ː ɛː ɛ̃ː ɤː ɤ̃ː ɪ ɯː ɯ̃ː ʊ ʌː ʌ̃ː
copi1238-1318	Copi	copi1238	Atlantic-Congo	Africa	-24.8327	34.1097	66	61	5	0	0	0	0	12.2	bʱ bvʱ bˢʱ dʱ dzʱ dɮʱ dʒʱ f j k ǃ ǃʰ kʰ l m ⁿb ⁿbv ⁿbˢ mʱ ⁿbʱ n ⁿd ⁿdɮ ⁿz ⁿg ⁿdʒ nʱ ⁿdʱ ⁿdɮʱ ⁿgʱ p pf pfʰ pˢ pˢʰ pʰ rʱ s sʷ t tɬ tɬʰ ts tsʰ tʰ tʃ tʃʰ w ŋ ŋǃ ⁿŋǃʱ ɓ ɗ gʱ gǃʱ ɦʱ ɬ ɲ ʃ ʄ ʋ a e i o u
siwu1238-1320	Siwu	siwu1238	Atlantic-Congo	Africa	7.23811	0.44362	34	20	14	0	0	0	0	1.4285714285714286	b dʒ f j k kp l m n p r s t tʃ w ɖ g gb ɲ ʕ a ã e ẽ i ĩ o õ u ũ ɔ ɔ̃ ɛ ɛ̃
sher1258-1321	Sherbro	sher1258	Atlantic-Congo	Africa	7.77585	-12.7405	31	24	7	0	0	0	0	3.4285714285714284	b d dʒ f h j k l m n p s t tʃ t̪ v z ŋ g gb ɲ ɽ ʃ ʔ a i u ɔ ɛ ɪ ʊ
mman1238-1322	Mmani	mman1238	Atlantic-Congo	Africa	9.0	-13.16	36	22	14	0	0	0	0	1.5714285714285714	b d dʒ f j k m n p s t ts tʃ v z ŋ g gbʷ ɲ ɽ ʃ ʔ a ã e ẽ i ĩ o õ u ũ ɔ ɔ̃ ɛ ɛ̃
cher1271-1323	Cherepon	cher1271	Atlantic-Congo	Africa	6.05387	-0.10955	36	26	10	0	0	0	0	2.6	b dʷ d̪ f h hʷ kp kʰ kʲ kʷ l̪ l̪ʷ m n̪ s̪ tʷ t̪ʰ w ç ŋ ŋʷ g gʲ gʷ ɲ ɲʷ e ẽ i ĩ o õ u ũ æ æ̃
fraf1238-1325	Frafra	fraf1238	Atlantic-Congo	Africa	11.0918	-0.81109	28	20	8	0	0	0	0	2.5	b d f h j kp l m n p r s t v w ŋ g gb ɲ ʔ a e i o u ɔ ɛ ɪ
sekp1241-1326	Sekpele	sekp1241	Atlantic-Congo	Africa	7.16751	0.5886	30	21	9	0	0	0	0	2.3333333333333335	b d dʒ f j k kp l m n p s t tʃ w ŋ g gb ɲ ʃ ʔ ã e i ĩ õ ũ œ ɔ̃ ɛ
mamp1244-1327	Mampruli	mamp1244	Atlantic-Congo	Africa	10.3884	-0.74675	34	24	10	0	0	0	5	2.4	b d dʒ f h j k kp l m n p r s t tʃ v w z ŋ ŋm g gb ɲ a aː e eː i iː o oː u uː
tong1318-1328	Tonga (Zambia)	tong1318	Atlantic-Congo	Africa	-17.422325	27.103495	38	33	5	0	0	0	0	6.6	dʒ f h j k l m ⁿb ⁿp n ⁿd ⁿs ⁿt ⁿz ⁿdʒ ⁿtʃ ⁿʃ p s t tʃ v w z ŋ ⁿk ⁿg g ⁿf ⁿv ɲ ʃ β a e i o u
bady1239-1329	Jaad-Badyara	bady1239	Atlantic-Congo	Africa	12.6425	-13.4759	43	25	18	0	0	0	6	1.3888888888888888	b d dʒ f h j k l m ⁿb ⁿp n ⁿd ⁿt p r s t tʃ w ç ŋ ⁿk ɲ β a ã ãː e ẽ ẽː i ĩ ĩː o õ õː u ũ ũː ə ə̃ ə̃ː
sele1249-1330	Selee	sele1249	Atlantic-Congo	Africa	7.17462	0.42458	30	18	12	0	0	0	0	1.5	b f j k kp m n pʰ s t tʃ w ŋ ŋm ŋʷ ɖ ɱ ɲ a ã e i ĩ o u ũ ɔ ɔ̃ ɛ ɛ̃
tivv1240-1331	Tiv	tivv1240	Atlantic-Congo	Africa	6.88039	9.26287	37	31	6	0	0	0	0	5.166666666666667	b d dz dʒ f h j k kp l m ⁿb n ⁿd ⁿdz ⁿdʒ p s t ts tʃ v w ŋ ⁿgb ⁿg g gb ɣ ɲ ʃ a e i o u ɔ
bili1260-1332	Bilin	bili1260	Afro-Asiatic	Africa	15.7833	38.3917	38	31	7	0	0	0	0	4.428571428571429	b d dʒ f h j k kʷ kʼʷ kʼ l m n r s t tʼ tʃ tʃʼ w x xʷ z ħ ŋ ŋʷ g gʷ ʃ ʔ ʕ a e i o u ə ɨ
xamt1239-1333	Xamtanga	xamt1239	Afro-Asiatic	Africa	12.4479	38.8352	30	23	7	0	0	0	0	3.2857142857142856	b d f h k kʷ kʼ q qʷ r s sʼ t tʼ tʃ tʃʼ w z g gʷ ʃ χ χʷ a e i o u ə ɨ
lika1243-1334	Liko	lika1243	Atlantic-Congo	Africa	2.13777	27.6088	42	33	9	0	0	0	0	3.6666666666666665	b c d f h k kp l m ⁿb n ⁿd ⁿz p s t v w z ⁿgb ⁿg ɓ ɗ ɟ g gb ⁿv ɲ ⁿɟ ⁿʒ ʃ ʎ ʒ a e i o u ɔ ɛ ɪ ʊ
budu1250-1336	Budu	budu1250	Atlantic-Congo	Africa	2.00501	27.951	40	31	9	0	0	0	0	3.4444444444444446	b d dʑ f h j k kp kʲ m ⁿb n ⁿd p s t tɕ v w ⁿgb ⁿg ⁿgʲ ɓ ɗ g gb gʲ ⁿv ɲ ⁿdʑ ʄ a e i o u ɔ ɛ ɪ ʊ
kele1255-1337	Kele-Foma	kele1255	Atlantic-Congo	Africa	0.36906	24.3098	28	21	7	0	0	0	0	3.0	b d f j k kp l m ⁿb n ⁿd p s t w ŋ ⁿk ⁿg gb ɲ χ a e i o u ɔ ɛ
leng1258-1338	Lengola	leng1258	Atlantic-Congo	Africa	-1.95874	25.3343	29	24	5	0	0	0	0	4.8	b d dʒ f j k kp l m n p s t tʃ v w ɓ ɗ g gb ɲ ʄ ⱱ ⱱ̟ a e i o u
keli1248-1339	Keliko	keli1248	Central Sudanic	Africa	3.56039	30.556	42	36	6	0	0	0	0	6.0	b d dʒ f h j jˀ k kp l m ⁿb n ⁿd ⁿz p r s t tʃ v w z ŋ ⁿgb ⁿg ɓ ɖʳ ɗ g gb ⁿv ɲ ⁿɖʳ ʈʳ ʔ a e i o u ɛ
wong1247-1340	Wongo	wong1247	Atlantic-Congo	Africa	-5.73837	20.5054	22	15	7	0	0	0	0	2.142857142857143	b d dz j k m n p s t ts w ŋ ɰ ɲ a e i o u ɔ ɛ
mwal1237-1341	Mwali Comorian	mwal1237	Atlantic-Congo	Africa	-12.3164	43.741	24	19	5	0	0	0	0	3.8	b d dz dʒ f j k m n p tʳ ts v w ɓ ɗ g ɲ ʃ a e i o u
afar1241-1342	Afar	afar1241	Afro-Asiatic	Africa	12.2281	41.8083	27	17	10	0	0	0	4	1.7	b d f h j k l m n r s t w ħ ɖ g ʕ a e eː i iː o oː u uː ʌ
mund1325-1343	Mundang	mund1325	Atlantic-Congo	Africa	9.83195	14.4751	64	37	27	0	0	0	15	1.3703703703703705	b d dʒ f h j jˀ k kp l m ⁿb mˀ n ⁿd nˀ ⁿdʒ p r s t tʃ v w wˀ z ŋ ⁿgb ⁿg ɓ ɗ g gb ʃ ʒ ʔ ⱱ a aː ã ãː e eː i iː ĩ ĩː o oː u uː ũː ɔ ɔː ɔ̃ː ə ɛː ɪ ɪː ɪ̃ ɪ̃ː ʊ ʊː ʊ̃ː
mono1269-1344	Mono (Cameroon)	mono1269	Atlantic-Congo	Africa	8.78372	14.2254	59	35	24	0	0	0	13	1.4583333333333333	b d dʒ f h j jˀ k kp l m ⁿb mˀ n ⁿd nˀ ⁿdʒ p r s t tʃ v w wˀ z ŋ ⁿgb ⁿg ɓ ɗ g gb ʔ ⱱ a aː ã ãː e eː ẽ ẽː i iː ĩ ĩː o oː õ u uː ũ ũː ɔ ɔː ɔ̃ː ɛː ɛ̃ː
tupu1244-1345	Tupuri	tupu1244	Atlantic-Congo	Africa	10.0144	14.8697	52	28	24	0	0	0	13	1.1666666666666667	b d dʒ f h j k l m ⁿb n ⁿd ⁿdʒ p r s t tʃ v w z ŋ ⁿg ɓ ɗ g ʔ ⱱ a aː ã ãː e eː ẽ ẽː i iː ĩ ĩː o oː õ u uː ũ ũː ɔ ɔː ɔ̃ː ɛː ɛ̃ː
kuoo1238-1346	Kuo	kuoo1238	Atlantic-Congo	Africa	7.97771	15.4843	53	29	24	0	0	0	13	1.2083333333333333	b d f h j jˀ k kp l m ⁿb n ⁿd ⁿdʒ p r s t v w z ŋ ⁿgb ⁿg ɓ ɗ g gb ⱱ a aː ã ãː e eː ẽ ẽː i iː ĩ ĩː o oː õ u uː ũ ũː ɔ ɔː ɔ̃ː ɛː ɛ̃ː
kare1338-1347	Kare (Central African Republic)	kare1338	Atlantic-Congo	Africa	7.05641	15.2207	54	30	24	0	0	0	13	1.25	b d dʒ f h j k kp l m ⁿb n ⁿd ⁿdʒ p r s t v w z ŋ ⁿgb ⁿg ɓ ɗ g gb ʔ ⱱ a aː ã ãː e eː ẽ ẽː i iː ĩ ĩː o oː õ u uː ũ ũː ɔ ɔː ɔ̃ː ɛː ɛ̃ː
ndai1238-1348	Ndai	ndai1238	Atlantic-Congo	Africa	8.09039	14.2888	54	32	22	0	0	0	11	1.4545454545454546	b d dʒ f h j k kp l m ⁿb n ⁿd ⁿdʒ p r s t tʃ v w z ŋ ⁿgb ⁿg ɓ ɗ g gb ʃ ʔ ⱱ a aː ã ãː e eː ẽ i iː ĩ ĩː o oː õ u uː ũ ũː ɔ ɔː ɔ̃ː ɛː
bamb1262-1349	Bambassi	bamb1262	Blue Nile Mao	Africa	9.82554	34.6522	33	23	10	0	0	0	5	2.3	b d h j k kʼ l m n p pʼ r s t tsʼ tʼ tʃ w z ŋ g ʃ ʔ a aː e eː i iː o oː u uː
tigr1271-1350	Tigrinya	tigr1271	Afro-Asiatic	Africa	15.3359	38.9266	39	32	7	0	0	0	0	4.571428571428571	b cʼ d dʒ f h j k l m n p pʼ q qʼ s sʼ t tʼ tʃ v w x z ħ g ɲ ɾ ʃ ʒ ʔ ʕ a e i o u ɨ ʌ
kara1483-1351	Karamojong	kara1483	Nilotic	Africa	2.45157	34.2761	60	21	39	0	0	0	13	0.5384615384615384	b d dz j k l m n p r s t ts w z ð ŋ g ɣ ɲ ʔ a aː a̤ e eː e̤ i iː i̤ o oː o̤ u uː ṳ y yː y̤ œ œː œ̤ ɑ ɑː ɑ̤ ɔ ɔː ɔ̤ ɛ ɛː ɛ̤ ɪ ɪː ɪ̤ ɵ ɵː ɵ̤ ʊ ʊː ʊ̤
gwan1268-1352	Gwandara	gwan1268	Afro-Asiatic	Africa	9.20464	7.49931	38	28	10	0	0	0	0	2.8	b bʷ d dʒ h hʷ j k kp kʲ kʷ l m n p pʲ s t tʃ tʃʷ w z g gb gʲ gʷ ɾ ʃ a ã e ẽ i ĩ o õ u ũ
gwan1268-1353	Gwandara	gwan1268	Afro-Asiatic	Africa	9.20464	7.49931	44	32	12	0	0	0	0	2.6666666666666665	b bʷ d dʒ f h hʷ j k kp kʲ kʷ l m n p s t tʷ tʃ tʃʷ w z ç ŋ g gb gʲ gʷ ɾ ʃ ʔ a ã e ẽ i ĩ o õ u ũ ə ɨ
gwan1268-1354	Gwandara	gwan1268	Afro-Asiatic	Africa	9.20464	7.49931	40	28	12	0	0	0	0	2.3333333333333335	b bʷ d f fʷ h j k kp kʲ kʷ l m mʷ n p s sʷ t w z g gb gʲ gʷ ɾ ʃ ʒ a ã e ẽ i ĩ o õ u ũ ə ə̃
gwan1268-1355	Gwandara	gwan1268	Afro-Asiatic	Africa	9.20464	7.49931	56	35	21	0	0	0	10	1.6666666666666667	b bʲ bʷ d dʒ f fʷ h j k kp kʲ kʷ l m mʷ n p pʷ s t ts tsʷ tʃ w x xʷ z ŋ g gb gʲ gʷ ɾ ʃ a aː ã ãː e eː ẽː i iː ĩ ĩː o oː õ u uː ũ ə əː ə̃ː ɨ
gwan1268-1356	Gwandara	gwan1268	Afro-Asiatic	Africa	9.20464	7.49931	40	28	12	0	0	0	0	2.3333333333333335	b d dʒ f h j k kp kʲ kʷ l m mʷ n p s t ts tsʷ tʃ w z g gb gʲ gʷ ɾ ʃ a ã e ẽ i ĩ o õ u ũ ə ə̃
gwan1268-1357	Gwandara	gwan1268	Afro-Asiatic	Africa	9.20464	7.49931	57	43	14	0	0	0	0	3.0714285714285716	b bʲ bʷ d dʒ f fʲ fʷ j k kp kʲ kʷ kᶣ l m mʷ n p pʷ rᶣ s t ts tsʷ tʷ tʃ tʃʷ w x xʷ ç ŋ g gb gʲ gʷ gᶣ ɣ ɥ ɾ ʃ ʔ a ã e ẽ i ĩ o õ u ũ ə ə̃ ɨ ɨ̃
avik1243-1358	Avikam	avik1243	Atlantic-Congo	Africa	5.15838	-5.2529	31	25	6	0	0	0	0	4.166666666666667	b d dʒ f kp l m n p r s t tʃ v w z ŋ ŋm ɓ g gb ɣ ɲ ʃ ʒ a e i o u ɔ
shil1265-1359	Shilluk	shil1265	Nilotic	Africa	9.85472	31.7926	51	25	26	0	4	0	11	0.9615384615384616	b cç d d̪ f h j k l m n n̪ p t t̪ w x ð ŋ ɟʝ g ɣ ɲ ɹ θ a au aɪ aː e eɪ eː e̥ e̥ː i iː o oː u uː ɑ ɑː ɔ ɔɪ ɔː ɛ ɛː ɪ ɪː ʊ ʊː
haio1238-1360	Hai//om-Akhoe	haio1238	Khoe-Kwadi	Africa	-19.7637	17.0299	29	24	5	0	0	0	0	4.8	b d dʒ h j k ǀ ǁ ǂ ǃ l m n p r s t tʃ w x z ħ g ʔ a e i o u
pero1241-1361	Pero	pero1241	Afro-Asiatic	Africa	9.62092	11.044	28	18	10	0	0	0	5	1.8	b c d j k l m n p r t w ŋ ɓ ɗ ɟ g ʔ a aː e eː i iː o oː u uː
bora1271-1362	Borana-Arsi-Guji Oromo	bora1271	Afro-Asiatic	Africa	1.05676	37.882	36	26	10	0	0	0	5	2.6	b c cʼ d f h j k kʼ l m n p pʼ r s t tʼ w z ɟ g ɲ ʃ ʔ ᶑʼ a aː e eː i iː o oː u uː
hadi1240-1363	Hadiyya	hadi1240	Afro-Asiatic	Africa	7.57377	37.7577	56	46	10	0	0	23	5	4.6	b bː c cʼ cʼː cː d dː f fː h hː j jː k kʼ kʼː kː l lː m mː n nː pʼ pʼː r rː s sː t tʼ tʼː tː w wː ɟ ɟː g gː ʃ ʃː ʔ ʔː ᶑʼ ᶑʼː a aː e eː i iː o oː u uː
wola1242-1364	Wolaytta	wola1242	Ta-Ne-Omotic	Africa	6.32668	37.7537	48	38	10	0	0	15	5	3.8	bʷ c cʼ cʼː cː d dː fʷ h hʷ hː k kʷ kʼʷ kʼ kʼː kː mʷ p pʼ pʼː pː s sː t tʼ tʼː tː z zː ɟ ɟː gʷ ʃ ʃː ʔ ʔː ᶑʼ a aː e eː i iː o oː u uː
kuny1238-1365	Kunyi	kuny1238	Atlantic-Congo	Africa	-3.69702	12.5197	51	44	7	0	0	0	0	6.285714285714286	bʲ bʷ d dʷ dʒ f h j k kʷ m ⁿb ⁿbʷ ⁿp mʲ mʷ n ⁿd ⁿdʷ ⁿs ⁿt ⁿtʷ ⁿdʒ ⁿtʃ ⁿtʃʷ p r rʲ rʷ s sʷ t tʷ tʃ w ⁿk ⁿg ⁿgʷ g gʷ ɲ ʃ ʃʷ β a e i o u ɪ ʊ
otuh1238-1366	Otuho	otuh1238	Nilotic	Africa	4.16379	32.6641	53	33	20	0	0	4	10	1.65	b d f h j jː k l lː m n nː p r s tʃ t̪ v w wː x ŋ ɟ g ɣ ɦ ɲ ɸ ɺ ɾ ʔ β θ a aː e eː i iː o oː u uː ɔ ɔː ɛ ɛː ɪ ɪː ʊ ʊː ʌ ʌː
masa1299-1367	Masaaba	masa1299	Atlantic-Congo	Africa	1.05906	34.2829	63	51	12	0	0	0	5	4.25	b d dʒ f fʷ h j k kʲ kʷ l m ⁿb ⁿp mʲ mʷ n ⁿd ⁿs ⁿsʷ ⁿt ⁿz nʲ p pʷ r rʲ rʷ s sʲ sʷ t tʲ tʷ tʃ tʃʲ v vʲ vʷ w z ŋ ⁿk ⁿkʷ ⁿg g gʷ ⁿf ⁿv ɲ ɲʷ a aː ã e eː i iː o oː u uː ɛ̃
kamw1239-1368	Kamwe	kamw1239	Afro-Asiatic	Africa	10.646	13.5136	33	26	7	0	0	0	0	3.7142857142857144	b d dz f j k l m n p r s t ts v w x z ŋ ɓ ɗ g ɣ ɬ ɮ ʔ a e i o u ɘ ɛ
many1261-1369	Manya	many1261	Mande	Africa	8.56186	-9.44257	25	18	7	0	0	0	0	2.5714285714285716	b dʒ f j k l m n p s t v w z ɖ g gb ɲ a e i o u ɔ ɛ
saya1246-1370	Saya	saya1246	Afro-Asiatic	Africa	9.69441	9.71748	51	39	12	0	0	0	6	3.25	b d dz dʒ f j k kʲ l m ⁿb m̩ n ⁿd ⁿdz ⁿdʒ n̩ p r s t ts tʃ v w z ŋ ⁿg ⁿgʲ ŋ̍ ɓ ɗ g gʲ ɬ ɮ ɳ ʃ ʒ a aː e eː i iː o oː u uː ɘː ə
njeb1242-1371	Njebi	njeb1242	Atlantic-Congo	Africa	-2.18115	12.7063	32	24	8	0	0	0	0	3.0	b d f j k l m ⁿb n ⁿd ⁿz p pf s t ts x ŋ ⁿg ⁿv ɲ ɾ ʃ β a e i o u ɔ ə ɛ
tada1238-1372	Tadaksahak	tada1238	Songhay	Africa	16.685	2.32653	70	59	11	0	0	25	5	5.363636363636363	b bː d dː dˤ dˤː dʒ dʒː f h hː j jː k kː l lː lˤ lˤː m mː n nː nˤ nˤː q qː r rˤ s sˤ sˤː t tː tˤ tˤː tʃ tʃː w wː x xː z zː zˤ zˤː ħ ŋ ŋː g gː ɣ ɾ ɾˤ ʃ ʃː ʒ ʒː ʕ a aː e eː i iː o oː u uː ə
kamb1316-1373	Kambaata	kamb1316	Afro-Asiatic	Africa	7.37582	37.9088	59	49	10	0	0	22	5	4.9	b bː d dː dʒ dʒː f fː h j jː k kʼ kʼː kː l lʼ lʼː lː m mː n nː pʼ pʼː r rʼ rʼː rː s sː t tʼ tʼː tː tʃ tʃʼ tʃʼː tʃː w wː z zː g gː ɲ ʃ ʒ ʔ a aː e eː i iː o oː u uː
otor1240-1374	Otoro	otor1240	Heibanic	Africa	11.1187	30.573	44	30	14	0	5	2	0	2.142857142857143	b c d dʳ d̪ j k kʷ l lː m n p r rː t tʳ t̪ v w ð ŋ ŋʷ ɗ ɟ g gʷ ɲ ɽ β a ai au ei e̝ i o ou u ɔ ɔi ə ɛ ɜ
tira1254-1375	Tira	tira1254	Heibanic	Africa	11.0963	30.8092	42	26	16	0	6	0	0	1.625	b c d dʳ d̪ j k l m n p r t tʳ t̪ v w ð ŋ ɟ g ɲ ɽ ʂ ʈ θ a ai au e ei e̝ i o oi ou u ɔ ɔi ə ɛ ɜ
nyam1285-1376	Nyam	nyam1285	Afro-Asiatic	Africa	9.18024	10.83652	53	39	14	0	0	0	7	2.7857142857142856	b d dʲ dʒ f h hʷ j k kp kʲ kʷ l m ⁿb ⁿɓ n ⁿd ⁿz ⁿɗ ⁿdʒ p r t tʃ w x ŋ ⁿg ⁿgʷ ɓ ɗ g gb ɠɓ gʷ ɲ ʃ ʔ a aː e eː i iː o oː u uː ɔ ɔː ɛ ɛː
mawa1270-1378	Mawa (Chad)	mawa1270	Afro-Asiatic	Africa	11.7461	18.2999	30	24	6	0	0	0	0	4.0	b c d f h j k l m n p s t w z ŋ ɓ ɗ ɟ g ɲ ɾ ʔ ˀw a e i o u ɘ
huaa1248-1379	East Taa	huaa1248	Tuu	Africa	-24.20022	20.79583	147	119	28	44	3	0	0	4.25	b d dʶ dʱ dʼkxʼ d̪ d̪ʶ d̪ʱ d̪ʼkxʼ f h k kxʼ ǀ ǀh ǀkxʼ ǀx ǀʔ ǀʰ ǁ ǁh ǁkxʼ ǁx ǁʔ ǁʰ ǂ ǂh ǂkxʼ ǂx ǂʔ ǂʰ ǃ ǃh ǃkxʼ ǃx ǃʔ ǃʰ ʘ ʘh ʘkxʼ ʘx ʘʔ ʘʰ kʰ kʼ l m n̪ p pʰ pʼkxʼ q ǀʼ ǂʼ ǃʼ ʘʼ qʰ qʼ s t tʶ tʰ tʼ tʼkxʼ t̪ t̪ʶ t̪ʰ t̪ʼ t̪ʼkxʼ x ŋǀ ŋǁ ŋǂ ŋǃ ŋʘ ŋ̊ǀ ŋ̊ǁ ŋ̊ǂ ŋ̊ǃ ŋ̊ʘ ɟ g gǀ gǀkxʼ gǀkʰ gǀx gǁ gǁkxʼ gǁkʰ gǁx gǂ gǂkxʼ gǂkʰ gǂx gǃ gǃkxʼ gǃkʰ gǃx gʘ gʘkxʼ gʘkʰ gʘx gʱ gʼkxʼ ɢ gǀqʰ gǁqʰ gǃqʰ ɢʱ ɲ ɸ ʔ ˀŋǀ ˀŋǁ ˀŋǂ ˀŋǃ ˀŋʘ ˀm ˀn a aˤ ã a̤ a̰ aɛ e eˤ ẽ e̤ ḛ i iˤ ĩ i̤ ḭ o oˤ õ o̤ o̰ oɛ u uˤ ũ ṳ ṵ uɛ
koal1240-1380	Koalib-Rere	koal1240	Heibanic	Africa	11.69648	30.47166	45	29	16	0	0	0	8	1.8125	b c d̪ f j k kʷ l̪ m ⁿb n̪ ⁿd̪ p r̪ t̪ w ŋ ⁿg ⁿgʷ ŋʷ ɗ ɟ g ɲ ⁿɟ ⁿɖ ɽ ʃ ʈ a aː e eː i iː o oː u uː ɐ ɐː ɔ ɔː ɛ ɛː
kagu1239-1381	Kagulu	kagu1239	Atlantic-Congo	Africa	-6.38204	37.0534	31	26	5	0	0	0	0	5.2	b d dʒ f h j k l m ⁿb m̥ n ⁿd ⁿdʒ n̥ p s t tʃ w ŋ ⁿg ŋ̊ g ɲ ʃ a e i o u
okoo1245-1382	Oko	okoo1245	Atlantic-Congo	Africa	7.53908	6.15725	25	18	7	0	0	0	0	2.5714285714285716	b d dʒ f h j kp l m n p r s t tʃ v w gb a e i o u ɔ ɛ
ghom1247-1384	Ghomálá'	ghom1247	Atlantic-Congo	Africa	5.39619	10.352	54	36	18	0	0	0	8	2.0	b bv bβ d dz dʒ dð f h j k l m n p pf pɸ s t ts tʃ tθ v w x z ŋ ɕ g ɣ ɥ ɲ ʃ ʒ ʔ χ a aː e i iː o oː u uː ɐ ɐː ɔ ɔː ə ɛ ɛː ʉ ʉː
teee1242-1386	Tee	teee1242	Atlantic-Congo	Africa	4.73213	7.37553	35	23	12	0	0	0	0	1.9166666666666667	b d j j̊ k kp kʷ l l̥ n n̥ p s t w z ŋʷ g gb gʷ ɲ ɹ ʍ a ã e ẽ i ĩ o õ u ũ ɔ ɛ
kips1239-1387	Kipsigis	kips1239	Nilotic	Africa	-0.35774	35.258532	33	14	19	0	0	0	9	0.7368421052631579	h kʰ l m n p r s tʰ tʃ w ç ŋ ɲ a aː e eː i o oː u uː ɑ ɑː ɔ ɔː ɛ ɛː ɪ ɪː ʊ ʊː
pang1287-1388	Pangwa	pang1287	Atlantic-Congo	Africa	-9.96782	34.8039	35	23	12	0	0	0	6	1.9166666666666667	f h j k l m ⁿb n ⁿd ⁿdʒ pʰ s tɕ tʰ tʃ x ŋ ⁿg ɓ ɗ ɲ ʃ β a aː e eː i iː o oː u uː ə əː
holo1240-1389	Holoholo	holo1240	Atlantic-Congo	Africa	-5.37545	28.3274	24	17	7	0	0	0	0	2.4285714285714284	b d dʒ f j k l̪ m n̪ p t̪ w ŋ g ɲ ɸ ʃ a e i o u ɪ ʊ
buli1254-1390	Buli (Ghana)	buli1254	Atlantic-Congo	Africa	10.5763	-1.26748	36	23	13	0	0	0	6	1.7692307692307692	b d dʒ f j k kp l m n p r s t tʃ v w z ŋ ŋm g gb ɲ a aː e eː i iː o oː u uː ø øː ɘ
bala1302-1391	Balanta-Ganja	bala1302	Atlantic-Congo	Africa	12.5382	-15.6658	47	33	14	0	0	0	7	2.357142857142857	b dʒ f j k kp l m ⁿb n ⁿd ⁿs ⁿt ⁿdʒ ⁿθ p r tʰ tʃ w ŋ ⁿgb ⁿg ŋʱ ŋʷ ɗ g gb ⁿf ɲ ʃ ʔ θ a aː e eː i iː o oː u uː ɔ ɔː ɛ ɛː
nyam1277-1392	Nyambo	nyam1277	Atlantic-Congo	Africa	-1.6096	30.9156	30	20	10	0	0	0	5	2.0	b d dʒ f h j k m n p r s t tʃ w z ŋ g ɱ ɲ a aː e eː i iː o oː u uː
dann1241-1393	Dan	dann1241	Mande	Africa	7.22812	-8.24535	84	44	40	0	0	0	20	1.1	b bʲ d dʲ f fʲ j k kp kpʲ kʲ kʷ l m mʲ n nʲ nʷ p pʲ s sʲ sʷ t tʲ v vʲ w wʲ z zʲ zʷ ŋ ɓ ɓʲ ɗ ɗʲ g gb gbʲ gʲ gʷ ɲ ᶑ a aː ã ãː e eː i iː ĩ ĩː o oː u uː ũ ũː æ æː æ̃ æ̃ː ɒ ɒː ɒ̃ ɒ̃ː ɔ ɔː ɔ̃ ɔ̃ː ə əː ə̃ ə̃ː ɛ ɛː ɛ̃ ɛ̃ː ɨ ɨː ɵ ɵː
poko1263-1394	Pökoot	poko1263	Nilotic	Africa	1.57023	35.2318	36	17	19	0	0	0	7	0.8947368421052632	b d j k l m n p r s t tʃ w x ŋ g ɲ a aː a̤ e eː e̤ i iː i̤ o oː o̤ u uː ɔ ɔː ə ɛ ɛː
afri1274-1395	Afrikaans	afri1274	Indo-European	Africa	-22.0	30.0	39	16	23	0	7	0	8	0.6956521739130435	b d f j k l m n p r s t v x ŋ ɦ a ai aː eɘ i iː oɘ u uː y yː øɘ œ œi œu œː ɔ ɔː ɘi ɛ ɛː ɪ̝ ɪ̝ː
argo1244-1396	Argobba	argo1244	Afro-Asiatic	Africa	10.6596	39.756	38	30	8	0	0	0	1	3.75	b d dʒ f h hʷ j kʰ kʷ kʼʷ kʼ l m n pʰ pʼ s tʰ tʼ tʃ tʃʼ w z g gʷ ɲ ɽ ʃ ʒ ʔ a aː e i o u ɨ ʌ
hara1271-1397	Harari	hara1271	Afro-Asiatic	Africa	9.30485	42.1332	34	25	9	0	0	0	4	2.7777777777777777	cç cçʼ d f hʼ j k l m n p q r s t tʼ w x z ɟʝ g ɣ ɲ ʃ ʔ a aː e eː i iː o oː u
dink1262-1398	Dinka	dink1262	Nilotic	Africa			46	20	26	0	0	0	13	0.7692307692307693	b c d d̪ j k l m n n̪ p t t̪ w ŋ ɟ g ɣ ɲ ɾ a aː a̤ a̤ː e eː e̤ e̤ː i iː i̤ i̤ː o oː o̤ o̤ː u uː ɔ ɔː ɔ̤ ɔ̤ː ɛ ɛː ɛ̤ ɛ̤ː
nzim1238-1399	Nzima	nzim1238	Atlantic-Congo	Africa	5.1785	-2.81123	38	24	14	0	0	0	0	1.7142857142857142	b cç cçʷ d̪ f h j k kp l m n s t̪ w ŋ ɟʝ ɟʝʷ g gʷ ɲ ɲʷ ʃ ʃʷ a ã e i ĩ o u ũ ɔ ɛ ɪ ɪ̃ ʊ ʊ̃
ahan1243-1400	Ahanta	ahan1243	Atlantic-Congo	Africa	4.85147	-1.94657	38	24	14	0	0	0	0	1.7142857142857142	b cç cçʷ d̪ f h j k kp l m n s t̪ w ŋ ɟʝ ɟʝʷ g gʷ ɲ ɲʷ ʃ ʃʷ a ã e i ĩ o u ũ ɔ ɛ ɪ ɪ̃ ʊ ʊ̃
besl1239-1401	Besleri	besl1239	Afro-Asiatic	Africa	10.38053	13.84054	48	39	9	0	0	0	3	4.333333333333333	b bʷ d dz f h j k kʷ l m ⁿb ⁿp n ⁿd ⁿdz ⁿt ⁿts p r s t ts v w z ŋ ⁿk ⁿkʷ ⁿg ⁿgʷ ɓ ɗ g gʷ ɬ ɮ ⁿv ʔ a aː i u uː ɔ ɘ ɛ ɛː
buwa1243-1402	Buwal	buwa1243	Afro-Asiatic	Africa	10.6151	13.8838	40	38	2	0	0	0	0	19.0	b d dz f j k kp kʷ l m ⁿb n ⁿd ⁿdz p r s t ts v w x xʷ z ŋ ⁿgb ⁿg ⁿgʷ ŋʷ ɓ ɗ g gb gʷ ɣ ɣʷ ɬ ɮ ɑ ə
hdii1240-1403	Hdi	hdii1240	Afro-Asiatic	Africa	10.942	13.6881	41	37	4	0	0	0	0	9.25	b d dz f fʷ j k l m ⁿb n ⁿd ⁿdz ⁿz p r s sʷ t ts v vʷ w z zʷ ⁿg ⁿgʷ ɓ ɗ g ɬ ɮ ʁ ʁʷ ʔ χ χʷ a i u ə
lama1288-1404	Lamang	lama1288	Afro-Asiatic	Africa	11.0243	13.7362	41	37	4	0	0	0	0	9.25	b d dz f j k kʷ l m ⁿb n ⁿd ⁿdz ⁿz p r s t ts v w x xʷ z ð ŋ ⁿg ⁿgʷ ŋʷ ɓ ɗ g gʷ ɣ ɣʷ ʔ θ a e i u
lagw1237-1406	Lagwan	lagw1237	Afro-Asiatic	Africa	11.5592	14.9884	39	34	5	0	0	0	0	6.8	b d dʒ f j k kʷ kʼʷ kʼ l m n p s sʼ t tʃ v w x xʷ z ɓ ɗ g gʷ ɬ ɬʼ ɮ ɾ ʁ ʁʷ ʃ ʔ a e i o u
gbay1281-1407	Gbaya-Mbodomo	gbay1281	Atlantic-Congo	Africa	4.800365	14.606865	35	28	7	0	0	0	0	4.0	b d f h j k kp l m ⁿb n ⁿd ⁿz p r s t v w z ŋ ⁿgb ⁿg ɓ ɗ g gb ɲ a e i o u ɔ ɛ
mbuk1243-1408	Mbuko	mbuk1243	Afro-Asiatic	Africa	10.7788	14.1677	42	34	8	0	0	0	0	4.25	b d dz f h hʷ j k kp kʷ l m ⁿb n ⁿd ⁿdz p r s t ts v w z ⁿgb ⁿg ⁿgʷ ɓ ɗ g gʷ ɬ ɮ ʔ a e i o u y œ ə
molo1266-1409	Moloko	molo1266	Afro-Asiatic	Africa	10.7933	14.2521	41	31	10	0	0	0	0	3.1	b d dz f h hʷ j k kʷ l m ⁿb n ⁿd ⁿz p r s t ts v w z ⁿg ⁿgʷ ɓ ɗ g gʷ ɬ ɮ a i u æ œ ɔ ɘ ɛ ɪ ʊ
muya1243-1410	Muyang	muya1243	Afro-Asiatic	Africa	10.86047	14.21246	41	27	14	0	0	0	0	1.9285714285714286	b d dz f j k l m ⁿb n ⁿd ⁿdz p r s t ts v w x z ⁿg ɓ ɗ g ɬ ɮ a e i o u y ø œ ɔ ə ɛ ɪ ʊ ʏ
ngom1272-1411	Ngomba	ngom1272	Atlantic-Congo	Africa	5.63067	10.237	23	17	6	0	0	0	0	2.8333333333333335	f j k l m n p pf s t ts v w z ŋ ɣ ʔ a i u ɔ ɛ ɨ
keme1240-1412	Kemezung	keme1240	Atlantic-Congo	Africa	6.69577	10.4984	28	20	8	0	0	0	0	2.5	b d dz f h j k kp kpʷ l m n s t ts w ŋ g gb ɲ e i o u ɔ ə ɛ ɜ
nate1242-1413	Nateni	nate1242	Atlantic-Congo	Africa	10.5191	1.21879	37	13	24	0	0	0	12	0.5416666666666666	b c d f h j k kp p s t w ɟ a aː ã ãː e eː i iː ĩ ĩː o oː u uː ũ ũː ɔ ɔː ɔ̃ ɔ̃ː ɛ ɛː ɛ̃ ɛ̃ː
silt1240-1414	Silt'e	silt1240	Afro-Asiatic	Africa	7.77004	38.1449	56	46	10	0	0	22	5	4.6	b bː d dː dʒ dʒː f fː h j jː k kʼ kʼː kː l lː m mː n nː r rː s sː t tʼ tʼː tː tʃ tʃʼ tʃʼː tʃː w wː z zː g gː ɲ ɲː ʃ ʃː ʒ ʒː ʔ aː e eː i iː o oː u uː ə
wehh1238-1415	Weh	wehh1238	Atlantic-Congo	Africa	6.46164	10.121	44	37	7	0	0	0	0	5.285714285714286	b bv d dz dʒ f j k kp kx l m ⁿb ⁿbv n ⁿd ⁿdz ⁿdʒ pf s t ts tʃ v w z ŋ ⁿgb ⁿg g gb gɣ ɲ ɹ ɾ ʃ ʒ a e i o u ɔ ɨ
tuli1249-1416	Tulishi	tuli1249	Kadugli-Krongo	Africa	11.4507	29.108	56	37	19	0	0	18	9	1.9473684210526316	b bː c f fː h j jː k kː l lː m mː n nː r rː s sː t̪ t̪ː w wː ŋː ɓ ɓː ɗ ɗː ɟ ɟː ɲ ɲː ʄ ʈ ʈː ʔː a aː e eː i iː o oː u ɔ ɔː ə əː ɛ ɛː ɪ ɪː ʊ ʊː
keig1242-1417	Keiga	keig1242	Kadugli-Krongo	Africa	11.2064	29.3889	57	37	20	0	0	18	10	1.85	b bː c cː f fː j jː k kː l lː m mː n nː p pː r rː s sː t̪ t̪ː w wː ŋ ŋː ɗ ɗː ɟ ɟː ɲ ɲː ʄ ʈ ʈː a aː e eː i iː o oː u uː ɔ ɔː ə əː ɛ ɛː ɪ ɪː ʊ ʊː
kron1241-1418	Krongo	kron1241	Kadugli-Krongo	Africa	10.514	30.003	60	40	20	0	0	19	10	2.0	b bː c cː f fː j jː k kː l lː m mː n nː p pː r rː s sː t̪ t̪ː w wː ŋ ŋː ɓ ɓː ɗ ɗː ɲ ɲː ʃ ʄ ʈ ʈː ʔ ʔː a aː e eː i iː o oː u uː ɔ ɔː ə əː ɛ ɛː ɪ ɪː ʊ ʊː
kang1288-1419	Kanga	kang1288	Kadugli-Krongo	Africa	11.0174	29.3463	74	54	20	0	0	26	10	2.7	b bː c cː d̪ d̪ː f fː j k kː l lː m mː n nː p pː r rː s sː t̪ t̪ː v vː w wː z zː ŋ ŋː ɓ ɓː ɖ ɖː ɗ ɗː ɟ ɟː g gː ɲ ɲː ʃ ʃː ʄ ʈ ʈː ʒ ʒː ʔ ʔː a aː e eː i iː o oː u uː ɔ ɔː ə əː ɛ ɛː ɪ ɪː ʊ ʊː
kang1288-1420	Kanga	kang1288	Kadugli-Krongo	Africa	11.0174	29.3463	73	53	20	0	0	26	10	2.65	b bː d̪ d̪ː f fː j jː k kː l lː m mː n nː p pː r rː s sː t̪ t̪ː v vː w wː z zː ŋ ŋː ɓ ɓː ɖ ɖː ɗ ɗː ɟ ɟː g gː ɲ ɲː ʃ ʃː ʄ ʈ ʈː ʒ ʒː ʔ ʔː a aː e eː i iː o oː u uː ɔ ɔː ə əː ɛ ɛː ɪ ɪː ʊ ʊː
katc1249-1421	Katcha-Kadugli-Miri	katc1249	Kadugli-Krongo	Africa	10.8423	29.4914	59	39	20	0	0	19	10	1.95	b bː f fː j jː k kː l lː m mː n nː p pː r rː s sː t̪ t̪ː w wː ŋ ŋː ɓ ɓː ɗ ɗː ɟ ɟː ɲ ɲː ʄ ʈ ʈː ʔ ʔː a aː e eː i iː o oː u uː ɔ ɔː ə əː ɛ ɛː ɪ ɪː ʊ ʊː
katc1249-1422	Katcha-Kadugli-Miri	katc1249	Kadugli-Krongo	Africa	10.8423	29.4914	61	41	20	0	0	20	10	2.05	b bː c cː f fː j jː k kː l lː m mː n nː r rː s sː t̪ t̪ː w wː z zː ŋ ŋː ɓ ɓː ɗ ɗː ɟ ɟː ɲ ɲː ʄ ʈ ʈː ʔ ʔː a aː e eː i iː o oː u uː ɔ ɔː ə əː ɛ ɛː ɪ ɪː ʊ ʊː
katc1249-1423	Katcha-Kadugli-Miri	katc1249	Kadugli-Krongo	Africa	10.8423	29.4914	59	39	20	0	0	18	10	1.95	b c cː f fː j jː k kː l lː m mː n nː p pː r rː s sː t̪ t̪ː w wː ŋ ŋː ɓ ɓː ɗ ɗː ɟ ɲ ɲː ʄ ʈ ʈː ʔ ʔː a aː e eː i iː o oː u uː ɔ ɔː ə əː ɛ ɛː ɪ ɪː ʊ ʊː
moro1284-1424	Morokodo	moro1284	Central Sudanic	Africa	5.5103	30.0229	52	42	10	0	0	0	0	4.2	b c d dʳ f h hʷ j k kp pʳ l m ⁿb n ⁿd ⁿdʳ ⁿz p r s t tʳ tʷ v w z ŋ ⁿgb ⁿg ɓ ɗ ɟ g gb bʳ ⁿv ɲ ⁿɟ ɾ ʄ ʔ e i u ɑ ɔ ə ɛ ɪ ɵ ʊ
arin1244-1425	Aringa	arin1244	Central Sudanic	Africa	3.56143	31.3071	44	35	9	0	0	0	0	3.888888888888889	b dz dʳ d̪ f k kp l m ⁿb n ⁿd ⁿdz ⁿdʳ p s ts tʳ t̪ v z ŋ ŋm ⁿgb ⁿg ɓ ɗ g gb ⁿv ɲ ɾ ʔ ˀj ˀw a e i o u ɔ ɛ ɪ ʊ
tese1238-1426	Tese	tese1238	Temeinic	Africa	11.3885	29.5803	42	24	18	0	0	5	8	1.3333333333333333	j k kʷ l lː m mː n nː p r s sː t tː w ŋ ŋʷ ɓ ɖ ɗ ɟ ɲ ʈ a aː e i iː o u uː ɔ ɔː ə əː ɛ ɛː ɪ ɪː ʊ ʊː
lumu1239-1427	Lumun	lumu1239	Narrow Talodi	Africa	10.8308	30.253	33	17	16	0	0	0	8	1.0625	c j k kʷ l m n p r t t̪ w ŋ ŋʷ ɲ ɽ ɾ a aː i iː u uː ɔ ɔː ə əː ɛ ɛː ɪ ɪː ʊ ʊː
ache1245-1428	Acheron	ache1245	Narrow Talodi	Africa	10.8827	30.3187	38	18	20	0	0	1	10	0.9	c j k kʷ l m n p r s t ts t̪ w ŋ ŋʷ ɲ ɲː a aː e eː i iː o oː u uː ɔ ɔː ə əː ɛ ɛː ɪ ɪː ʊ ʊː
toch1257-1429	Tocho	toch1257	Narrow Talodi	Africa	10.8828	30.1567	25	15	10	0	0	0	0	1.5	c j k l m n p r t t̪ w ŋ ŋʷ ɲ ɾ a e i o u ɔ ə ɛ ɪ ʊ
dagi1241-1430	Dagik	dagi1241	Narrow Talodi	Africa	10.583	29.9404	26	16	10	0	0	0	0	1.6	j k l m n p r s t t̪ w x ŋ ɸ ɽ ɾ a e i o u ɔ ə ɛ ɪ ʊ
didi1258-1431	Didinga	didi1258	Surmic	Africa	4.21489	33.6869	54	36	18	0	0	6	9	2.0	b d dʒ d̪ j k l lː m mː n nː p r tʃ t̪ t̺ v w ð ðː ŋ ŋː ɓ ɗ ɠ g ɣ ɲ ɲː ɾ ʄ ʈ ʒ ʝ β a aː e eː i iː o oː u uː ɔ ɔː ɛ ɛː ɪ ɪː ʊ ʊː
luwo1239-1432	Luwo	luwo1239	Nilotic	Africa	7.35089	28.1378	29	19	10	0	0	0	2	1.9	b c d d̪ j k l m n n̪ p t t̪ w ŋ ɟ g ɲ ɾ eː i oː u ɑ ɔ ə ɛ ɪ ʊ
acol1236-1433	Acoli	acol1236	Nilotic	Africa	3.57738	32.5147	26	17	9	0	0	0	0	1.8888888888888888	b c d d̪ j k l m n p t w ŋ ɟ g ɲ ɾ e o u ɑ ɔ ə ɛ ɪ ʊ
bela1256-1434	Belanda Bor	bela1256	Nilotic	Africa	6.6503	27.8232	35	25	10	0	0	0	0	2.5	b c d d̪ f j k kp l m ⁿb n ⁿd n̪ t w ŋ ⁿgb ɗ ɟ g gb ɲ ⁿɟ ɾ e i o u ɑ ɔ ə ɛ ɪ ʊ
bela1255-1435	Belanda Viri	bela1255	Atlantic-Congo	Africa	7.41311	27.6956	38	28	10	0	0	0	0	2.8	c d dʒ f j k kp l m n ⁿd ⁿz r s t v w z ŋ ⁿgb ⁿg ɓ ɗ ɟ g gb ⁿv ⁿɟ e i o u ɑ ɔ ɘ ɛ ɪ ʊ
ndog1248-1436	Ndogo	ndog1248	Atlantic-Congo	Africa	7.73028	27.5588	34	29	5	0	0	0	0	5.8	b c d f j k kp l m ⁿb n ⁿd ⁿg p r s t v w z ⁿgb ɓ ɗ ɟ g gb ⁿɟ ɾ ⱱ a ɔ ɛ ɪ ʊ
bade1248-1437	Bade	bade1248	Afro-Asiatic	Africa	12.789	10.6557	42	33	9	0	0	0	5	3.6666666666666665	b d dʒ f j k kʷ l m n p r s t tʃ v w z ħ ħʷ ŋ ɓ ɗ ɗʲ g gʷ ɬ ɮ ɲ ʃ ʄ ʕ ʕʷ a aː eː i iː oː u uː ɨ
fern1234-1438	Pichi	fern1234	Indo-European	Africa	3.74	8.78	28	21	7	0	0	0	0	3.0	b d dʒ f h j k l m n p s t tʃ v w ŋ g ɲ ʁ ʃ a e i o u ɔ ɛ
jita1239-1439	Jita	jita1239	Atlantic-Congo	Africa	-1.62681	33.9141	27	17	10	0	0	0	5	1.7	d dʒ f k l m ⁿb n ⁿd p s t tʃ ⁿg g ⁿɟ β a aː e eː i iː o oː u uː
dime1235-1440	Dime	dime1235	South Omotic	Africa	6.20951	36.3329	71	53	18	0	4	21	5	2.9444444444444446	b bː d dː dʒ f fː h j jː k kʼ kʼː kː l lː m mː n nː p pʼ pʼː pː s sː t ts tʼ tʼː tː tʃ tʃʼ tʃʼː tʃː w wː x z zː ŋ ɗ g gː ɣ ɾ ʁ ʃ ʃː ʒ ʒː ʔ χ a ai aː e ei eː i iː o oi oː u ui uː ɔ ə ɛ ɨ
tsot1241-1441	Tsotso	tsot1241	Atlantic-Congo	Africa	0.2975	34.6961	29	19	10	0	0	0	5	1.9	f h k l m n p r s t ts tʃ x ç ŋ ɲ ɺ ʃ β a aː e eː i iː o oː u uː
jams1239-1442	Jamsay Dogon	jams1239	Dogon	Africa	14.1794	-2.57999	45	24	21	0	0	0	14	1.1428571428571428	b d dʒ f h j j̃ kʰ l m n pʰ r r̃ s tʰ tʃ w w̃ ŋ g ɲ ʃ ʔ a aː ãː e eː ẽː i iː ĩː o oː õː u uː ũː ɔ ɔː ɔ̃ː ɛ ɛː ɛ̃ː
kamb1297-1443	Kamba (Kenya)	kamb1297	Atlantic-Congo	Africa	-1.60827	37.9532	27	13	14	0	0	0	7	0.9285714285714286	j k l m n s t w ð ŋ ɥ ɲ β a aː e eː i iː o oː u uː ɔ ɔː ɛ ɛː
bafi1243-1444	Bafia	bafi1243	Atlantic-Congo	Africa	4.72603	11.0982	47	27	20	0	0	0	10	1.35	b d dʒ f h j k kp l m n p r s t tʃ v w z ŋ ɓ ɗ g gb ɣ ɲ ʔ a aː e eː i iː o oː u uː ɔ ɔː ə əː ɛ ɛː ɜ ɜː ɨ ɨː
lang1324-1445	Lango (Uganda)	lang1324	Nilotic	Africa	2.13867	33.0553	38	18	20	0	0	0	10	0.9	b d dʒ j k l m n p r s tʃ t̪ w z ŋ g ɲ a aː e eː i iː o oː u uː æ æː ɔ ɔː ɛ ɛː ɪ ɪː ʊ ʊː
kisa1263-1446	Kisa	kisa1263	Atlantic-Congo	Africa	0.1529	34.5708	34	24	10	0	0	0	5	2.4	f h j k l m ⁿb n ⁿd ⁿz ⁿdʒ p r s t ts tʃ w x ŋ ⁿg ɲ ʃ β a aː e eː i iː o oː u uː
nyol1238-1447	Nyole	nyol1238	Atlantic-Congo	Africa	0.88072	33.9181	34	24	10	0	0	0	5	2.4	b d dʒ j k l m ⁿb n ⁿd ⁿdʒ p r s t tʃ w x ŋ ⁿg g ɲ ɸ β a aː e eː i iː o oː u uː
mwan1247-1448	Mwani	mwan1247	Atlantic-Congo	Africa	-12.5821	40.4601	26	21	5	0	0	0	0	4.2	b d dʒ f j k l m n p r s t tʃ v w z ⁿg g ɲ ʃ a e i o u
kgal1244-1449	Kgalagadi	kgal1244	Atlantic-Congo	Africa	-24.9208	22.72016	51	43	8	0	0	0	0	5.375	b c cʰ cʷ cʷʰ d dʒ h j k ǀ ʘ kʰ l m n p pʰ q qʰ r s t ts tsʰ tsʷ tsʷʰ tʰ tʃ tʃʰ tʃʷ tʃʷʰ w z ŋ ɟ g ɲ ʃ ʃʷ ʒ ʒʷ χ a e i u ɔ ɛ ɪ ʊ
tiey1235-1450	Tiéyaxo Bozo	tiey1235	Mande	Africa	14.1223	-5.08609	33	19	14	0	0	0	0	1.3571428571428572	b d f h j kʰ l m n pʰ s tʰ w x ŋ ɟ g ɲ ɾ a ã e ẽ i ĩ o õ u ũ ɔ ɔ̃ ɛ ɛ̃
alab1254-1451	Alaba-K'abeena	alab1254	Afro-Asiatic	Africa	7.39014	38.1732	62	52	10	0	0	26	5	5.2	b bː d dː dʒ dʒː f fː h hː j jː k kʼ kʼː kː l lː m mː n nː p pʼ pʼː pː r rː s sː t tʼ tʼː tː tʃ tʃʼ tʃʼː tʃː wː z zː g gː ɰ ɲ ɲː ʃ ʃː ʒ ʒː ʔ ʔː a aː iː uː ɔ ɔː ɛ ɛː ɪ ʊ
dege1246-1452	Degema	dege1246	Atlantic-Congo	Africa	4.73373	6.80991	34	24	10	0	0	0	0	2.4	b d dʒ f h j k kp l m n p r s t w ŋ ŋʷ ɓ ɗ g gb ɲ β a e i o u ɔ ə ɛ ɪ ʊ
ntch1242-1453	Ntcham	ntch1242	Atlantic-Congo	Africa	9.23971	0.599275	27	21	6	0	0	0	0	3.5	b d dʒ f h j kp kʰ l m n pʰ s tʰ tʃʰ w ŋ ŋm g gb ɲ a e i o u ɔ
prin1242-1454	Principense	prin1242	Indo-European	Africa	1.614	7.392	29	22	7	0	0	0	0	3.142857142857143	f j k kp l m n p r s t tʃ v w z ɓ ɗ g gb ɲ ʎ ʒ a e i o u ɔ ɛ
nkon1248-1455	Nkonya	nkon1248	Atlantic-Congo	Africa	7.20316	0.3209	34	20	14	0	0	0	0	1.4285714285714286	b f j k kp l m n nʷ p s t ts w ŋ ɖ ɟ ɦ ɲ ʝ e ẽ i ĩ o õ u ũ ɑ ɑ̃ ɔ ɔ̃ ɛ ɛ̃
sodd1242-1456	Soddo	sodd1242	Afro-Asiatic	Africa	8.33561	38.4763	41	34	7	0	0	0	0	4.857142857142857	b bʷ d f fʷ h hʲ hʷ j k kʲ kʼʲ kʷ kʼʷ kʼ l m mʷ n r s t tʼ tʃ tʃʼ w z g gʲ gʷ ɣ ɲ ʃ ʒ a e i o u œ ʌ
kist1241-1457	Kistane	kist1241	Afro-Asiatic	Africa	8.33561	38.4763	41	34	7	0	0	0	0	4.857142857142857	b bʷ d f fʷ h hʲ hʷ j k kʲ kʼʲ kʷ kʼʷ kʼ l m mʷ n r s t tʼ tʃ tʃʼ w z g gʲ gʷ ɣ ɲ ʃ ʒ a e i o u œ ʌ
mesq1240-1458	Mesqan	mesq1240	Afro-Asiatic	Africa	8.10617	38.3386	41	34	7	0	0	0	0	4.857142857142857	b bʷ d f fʷ h hʲ hʷ j k kʲ kʼʲ kʷ kʼʷ kʼ l m mʷ n r s t tʼ tʃ tʃʼ w z g gʲ gʷ ɣ ɲ ʃ ʒ a e i o u œ ʌ
seba1251-1459	Sebat Bet Gurage	seba1251	Afro-Asiatic	Africa	8.11879	37.9891	42	34	8	0	0	0	0	4.25	b bʷ d f fʷ h hʲ hʷ j k kʲ kʼʲ kʷ kʼʷ kʼ l m mʷ n r s t tʼ tʃ tʃʼ w z g gʲ gʷ ɣ ɲ ʃ ʒ a e i o u œ ɔ ʌ
ezha1238-1460	Ezha	ezha1238	Afro-Asiatic	Africa	8.11879	37.9891	39	33	6	0	0	0	0	5.5	b bʷ d f fʷ h hʲ hʷ j k kʲ kʼʲ kʷ kʼʷ kʼ l m mʷ n r s t tʼ tʃ tʃʼ w z g gʲ gʷ ɣ ʃ ʒ a e i o u ʌ
chah1248-1461	Chaha	chah1248	Afro-Asiatic	Africa	8.11879	37.9891	44	36	8	0	0	0	0	4.5	b bʷ d f fʷ h hʲ hʷ j k kʲ kʼʲ kʷ kʼʷ kʼ l m mʷ n p pʷ r s t tʼ tʃ tʃʼ w z g gʲ gʷ ɣ ʃ ʒ β a e i o u œ ɔ ʌ
gume1239-1462	Gumer	gume1239	Afro-Asiatic	Africa	8.11879	37.9891	42	35	7	0	0	0	0	5.0	b bʷ d f fʷ h hʲ hʷ j k kʲ kʼʲ kʷ kʼʷ kʼ l m mʷ n p pʷ r s t tʼ tʃ tʃʼ w z g gʲ gʷ ɣ ʃ ʒ a e i o u œ ʌ
seba1251-1463	Sebat Bet Gurage	seba1251	Afro-Asiatic	Africa	8.11879	37.9891	42	36	6	0	0	0	0	6.0	b bʷ d f fʷ h hʲ hʷ j k kʲ kʼʲ kʷ kʼʷ kʼ l m mʷ n p pʷ r s t tʼ tʃ tʃʼ w z g gʲ gʷ ɣ ʃ ʒ β a e i o u ʌ
seba1251-1464	Sebat Bet Gurage	seba1251	Afro-Asiatic	Africa	8.11879	37.9891	45	39	6	0	0	0	0	6.5	b bʷ d f fʷ h hʲ hʷ j k kʲ kʼʲ kʷ kʼʷ kʼ l m mʷ n p pʷ r r̃ s t tʼ tʃ tʃʼ w w̃ z g gʲ gʷ ɣ ʃ ʒ β β̃ a e i o u ʌ
inor1238-1465	Inoric	inor1238	Afro-Asiatic	Africa	7.94883	37.7968	47	40	7	0	0	0	0	5.714285714285714	b bʷ d f fʷ h hʲ hʷ j k kʲ kʼʲ kʷ kʼʷ kʼ l m mʷ n r r̃ s t tʼ tʃ tʃʼ w w̃ z g gʲ gʷ ɣ ɲ ʃ ʒ ʔ ʔʷ β β̃ a e i o u œ ʌ
inor1238-1466	Inoric	inor1238	Afro-Asiatic	Africa	7.94883	37.7968	45	39	6	0	0	0	0	6.5	b bʷ d f fʷ h hʲ hʷ j k kʲ kʼʲ kʷ kʼʷ kʼ l m mʷ n r r̃ s t tʼ tʃ tʃʼ w w̃ z g gʲ gʷ ɣ ɲ ʃ ʒ ʔ ʔʷ β̃ a e i o u ʌ
inor1238-1467	Inoric	inor1238	Afro-Asiatic	Africa	7.94883	37.7968	45	39	6	0	0	0	0	6.5	b bʷ d f fʷ h hʲ hʷ j k kʲ kʼʲ kʷ kʼʷ kʼ l m mʷ n r r̃ s t tʼ tʃ tʃʼ w w̃ z g gʲ gʷ ɣ ɲ ʃ ʒ ʔ ʔʷ β̃ a e i o u ʌ
dzuu1241-1468	Dzùùngoo	dzuu1241	Mande	Africa	11.3796	-4.92036	52	26	26	0	0	0	14	1.0	b c d dz f j k kp l m n p s t ts v w x ŋ ŋm ɟ g gb ɲ ʃ ʒ a aː ã ãː e eː ẽː i iː ĩ ĩː o oː õː u uː ũ ũː ɔ ɔː ɔ̃ ɔ̃ː ɛ ɛː ɛ̃ ɛ̃ː
bagi1246-1469	Bagirmi	bagi1246	Central Sudanic	Africa	11.52392	14.769495	45	29	16	0	0	0	5	1.8125	b c d̪ f h j k l m n̪ p r s t̪ v w z ŋ ɓ ɖ ɟ g ɲ ɸ ʃ ʄ ʈ ʔ ᶑ a aː e eː i iː o oː u uː ɔ ɘ ɛ ɪ ʊ ʌ
ngit1239-1470	Ngiti	ngit1239	Central Sudanic	Africa	1.30455	30.2242	49	44	5	0	0	0	0	8.8	b bv c d dz f h j k kp l m ⁿb n ⁿd ⁿz p pf r s t ts v w z ⁿgb ⁿg ɓ ɓ̥ ɖʳ ɗ ɗ̥ ɟ g gb ⁿv ɲ ⁿɟ ⁿɖʳ ʄ ʄ̥ ʈʳ ʔ β a e i o u
ndal1241-1471	Ndali	ndal1241	Atlantic-Congo	Africa	-9.88948	33.6118	27	17	10	0	0	0	5	1.7	f h j k l m n s tʃ w z ŋ g ɣ ɲ ʃ ʋ a aː e eː i iː o oː u uː
meen1242-1472	Me'en	meen1242	Surmic	Africa	6.63207	35.6255	40	26	14	0	0	0	7	1.8571428571428572	b cç cçʼ d h j k kʼ l m n p r s t tʼ w z ŋ ɓ ɗ ɟʝ g ɲ ʃ ʔ a aː e eː i iː o oː u uː ɔ ɔː ɛ ɛː
ngas1238-1473	Ngasa	ngas1238	Nilotic	Africa	-2.97716	37.528	31	22	9	0	0	3	0	2.4444444444444446	d̪ h j jː k l̪ m n̪ p r̪ r̪ː s̪ t̪ w wː ŋ ɓ g ɲ ɽ ʃ ʄ a e i o u ɔ ɛ ɪ ʊ
mbay1241-1474	Mbay	mbay1241	Central Sudanic	Africa	8.23066	15.7328	41	22	19	0	0	0	7	1.1578947368421053	b d dʒ h j k l m ⁿb n ⁿd ⁿdʒ p r s t w ⁿg ɓ ɗ g ɺ a aː ã e eː ẽ i iː ĩ o oː õ u uː ũ ɔ ɔː ə əː
gumu1244-1475	Northern Gumuz	gumu1244	Gumuz	Africa	11.05	35.93	44	34	10	0	0	0	5	3.4	b cç cçʼ d f h j k kʼ l m n p pʼ r s t ts tsʼ tʼ tʃ tʃʼ w z ŋ ɓ ɟʝ ɠ g ɲ ʃ ʒ ʔ ᶑ a aː e eː i iː o oː u uː
sooo1256-1476	Soo	sooo1256	Kuliak	Africa	2.58367	34.7595	28	18	10	0	0	0	0	1.8	j k l m n p r s t tʃ w ŋ ɓ ɗ ɠ ɲ ʄ ʔ a e i o u ɔ ɛ ɪ ʊ ʌ
benc1235-1477	Bench	benc1235	Ta-Ne-Omotic	Africa	7.04682	35.7673	51	46	5	0	0	0	0	9.2	b bʲ bʷ d dʲ h j k kʲ kʼʲ kʼ l m mʲ n nʲ pʰ pʲ pʷ pʼ r s sʲ sʷ t ts tsʼ tʲ tʼʲ tʼ tʃ tʃʼ z zʲ g gʲ gʷ ʂ ʃ ʈʂ ʈʂʼ ʐ ʒ ʔ ʔʲ ʔʷ a e i o u
benc1235-1478	Bench	benc1235	Ta-Ne-Omotic	Africa	7.04682	35.7673	34	29	5	0	0	0	0	5.8	b cç cçʼ d h j k kʼ l m n p pʼ r s t ts tsʼ tʼ w z g ʂ ʃ ʈʂ ʈʂʼ ʐ ʒ ʔ a e i o u
yems1235-1479	Yemsa	yems1235	Ta-Ne-Omotic	Africa	7.79821	37.4412	35	25	10	0	0	0	5	2.5	b d dʒ h j k kʼ l m n p pʼ s t tʼ tʃ tʃʼ w z ŋ g ɲ ɾ ʃ ʔ a aː e eː i iː o oː u uː
zays1236-1480	Zayse	zays1236	Ta-Ne-Omotic	Africa	5.83747	37.3409	32	27	5	0	0	0	0	5.4	b dz dʒ d̪ h j kʰ kʼ l m n pʰ r s tsʰ tsʼ tʃʰ tʃʼ t̪ʰ w z ɓ ɗ g ʃ ʒ ʔ a e i o u
gamo1243-1481	Gamo	gamo1243	Ta-Ne-Omotic	Africa	6.27645	37.23808	36	26	10	0	0	0	5	2.6	b dʒ d̪ f h j kʰ kʼ l m n pʰ s tsʰ tsʼ tʃʰ tʃʼ t̪ʰ w z ɓ̥ ɗ g ɾ ʃ ʔ a aː i̞ i̞ː u̞ u̞ː ɔ̝ ɔ̝ː ɛ̝ ɛ̝ː
koor1239-1482	Koorete	koor1239	Ta-Ne-Omotic	Africa	5.80545	37.8679	61	51	10	0	0	21	5	5.1	b bː d dz dzː dː dʒ dʒː h j jː kʰ kʼ kʼː kː l lː m mː n nː pʼ s sː tsʰ tsʼ tsʼː tsː tʰ tʼ tʃʰ tʃʼ tʃʼː tʃː w z zː ŋ ŋː ɓ ɗ g gː ɸʰ ɸː ɾ ʃ ʃː ʒ ʒː ʔ a aː i iː u uː ɔ ɔː ɛ ɛː
aari1239-1483	Aari	aari1239	South Omotic	Africa	5.95034	36.5721	36	26	10	0	0	0	5	2.6	b dʒ d̪ f j k l m n q r s ts tsʼ tʃ tʃʼ t̪ w z ɓ̥ ɗ g ɦ ʃ ʒ ʔ a aː e̞ː iː i̞ o̞ː u uː ɔ̝ ɛ
komo1258-1484	Komo (Sudan-Ethiopia)	komo1258	Koman	Africa	8.94162	34.0939	28	23	5	0	0	0	0	4.6	b d h j k kʼ l m n p pʼ r s sʼ t tʼ w ɓ ɗ ɠ g ʃ ʔ a e i o u
uduk1239-1485	Uduk	uduk1239	Koman	Africa	9.16012	34.2293	28	23	5	0	0	0	0	4.6	b d dʒ h j k kʼ l m n p pʼ r s t tʼ tʃʼ w ɓ ɗ g ʃ ʔ a e i o u
opuu1239-1486	Opo	opuu1239	Koman	Africa	8.47526	33.853	25	20	5	0	0	0	0	4.0	d dʒ h j k kʼ l m n p r s t tʼ tʃʼ w ɓ g ʃ ʔ a e i o u
kwam1249-1487	Gwama	kwam1249	Koman	Africa	9.50836	34.2457	25	20	5	0	0	0	0	4.0	b d h j k kʼ l m n p pʼ r s sʼ t tʼ w g ʃ ʔ a e i o u
mayo1261-1488	Mayogo	mayo1261	Atlantic-Congo	Africa	2.79827	27.8282	43	33	10	0	0	0	0	3.3	b d dʒ f j k kp l m ⁿb n ⁿd ⁿdʒ p r s t tʃ v w x z ⁿgb ⁿg ɓ ɗ ɗʲ g gb ɦ ⁿv ɲ ʔ a e i o u ɔ ɛ ɨ ɪ ʊ
saam1283-1489	Saamia	saam1283	Atlantic-Congo	Africa	0.3652	34.0335	30	20	10	0	0	0	5	2.0	b d dʒ f h j k l m n r s t tʃ w x ŋ g ɲ β a aː e eː i iː o oː u uː
sout2795-1490	Southern Nuni	sout2795	Atlantic-Congo	Africa	11.5186	-2.14385	56	38	18	0	0	0	0	2.111111111111111	b bʷ c cʷ d dʷ f fʷ h j jʷ k kʷ l lʷ m mʷ n p pʷ s sʷ t tʷ v vʷ w z zʷ ŋ ŋʷ ɟ ɟʷ g gʷ ɲ ɲʷ ɹ a ã e i ĩ o u ũ ɔ ə ə̃ ɛ ɛ̃ ɪ ɪ̃ ʉ ʊ ʊ̃
nort2795-1491	Zimbabwean Ndebele	nort2795	Atlantic-Congo	Africa	-20.2513	27.4096	66	61	5	0	0	0	0	12.2	b d dʒ f h j kx ǀ ǀʰ ǁ ǁʰ ǃ ǃʰ kʰ kʼ l m ⁿb ⁿp n ⁿd ⁿs ⁿt ⁿtsʼ ⁿz ⁿɬ ⁿɮ ⁿdʒ ⁿtʃʼ pʰ pʼ s tsʰ tsʼ tʰ tʼ tʃʰ tʃʼ v w z ŋ ⁿk ⁿkx ŋǀ ŋǁ ŋǃ ⁿg g gǀ gǁ gǃ ɣ ɦ ɬ ɮ ⁿf ⁿv ɲ ʒ β e i o u ɑ
saxw1241-1492	Saxwe Gbe	saxw1241	Atlantic-Congo	Africa	6.58269	1.92015	36	24	12	0	0	0	0	2.0	b dʒ d̪ f j k kp m s tʃ t̪ v w x xʷ z ɖ g gb ɦ ɦʷ ɭ ɲ ɳ a ã e i ĩ o u ũ ɔ ɔ̃ ɛ ɛ̃
nari1240-1493	Narim	nari1240	Surmic	Africa	4.80331	33.3312	31	22	9	0	0	0	0	2.4444444444444446	b c d̪ h j k kʷ l m n p r t̪ v w ð ŋ ɖ ɟ g gʷ ɲ a e i o u ɔ ɛ ɪ ʊ
bidy1244-1494	Kanyaki-Kagbaaga-Kajoko Bidyogo	bidy1244	Atlantic-Congo	Africa	11.1097	-16.1497	25	18	7	0	0	0	0	2.5714285714285716	b d j k kp m n p r s t w ŋ ɟ g gb ɲ ʈ a e i o u ɔ ɛ
domp1238-1495	Dompo	domp1238	Atlantic-Congo	Africa	8.182	-2.295	29	22	7	0	0	0	0	3.142857142857143	b c d f h j k l m n p r s t v w z ŋ ɟ g ʃ ʒ a e i o u ɔ ɛ
bamb1269-1496	Bambara	bamb1269	Mande	Africa	12.9	-7.65	56	32	24	0	0	0	10	1.3333333333333333	b bʷ c d f fʷ h j k kʷ l m ⁿp ⁿpʲ mʲ ⁿt p r s t v w z ŋ ⁿk ŋʷ ɟ g gʷ ɲ ⁿc ɲʷ a aː ã ãː e eː ẽ i iː ĩ o oː õ u uː ũ ũː ɔ ɔː ɔ̃ ɔ̃ː ɛ ɛː ɛ̃
heib1243-1497	Ebang	heib1243	Heibanic	Africa	11.2908	30.5282	34	27	7	0	0	0	0	3.857142857142857	b c d d̪ f h j k l m n p r s t t̪ v w x z ŋ ɓ ɗ ɟ g ɲ ɽ a e i o u ɔ ɘ
koya1253-1498	Koyaga	koya1253	Mande	Africa	8.29177	-6.23255	41	29	12	0	0	0	0	2.4166666666666665	b c d f h j k kp l m n p r s t v w w̃ z ŋ ŋm ɟ g gb ɣ ɦ ɲ ʃ ʒ a ã e i ĩ o u ũ ɔ ɔ̃ ɛ ɛ̃
shwa1239-1499	Shwai	shwa1239	Heibanic	Africa	11.2708	30.3533	35	25	10	0	0	0	0	2.5	b c d̪ f j k l m n p r s t̪ v w x ð ŋ ɗ ɟ g ɲ ɽ ʃ ʈ a e i o u ɔ ə ɛ ɪ ʊ
gaaa1245-1500	Gaa	gaaa1245	Atlantic-Congo	Africa	8.4809	11.9603	31	22	9	0	0	0	0	2.4444444444444446	b d dʒ f k kpⁿ kp l m n p s t v w ɓ ɗ ɟ g gb gbⁿ ⱱ a e i o u y œ ɔ ɛ
kuan1247-1501	Kuanyama	kuan1247	Atlantic-Congo	Africa	-17.7176	16.58	31	26	5	0	0	0	0	5.2	d dʒ f fʲ j k l lʲ m ⁿb m̥ n ⁿd ⁿdʲ ⁿdʒ n̥ p t v w x ⁿg ŋ̊ ɲ ʃ ʒ a i u ɔ ɛ
mbal1255-1502	Mbalanhu	mbal1255	Atlantic-Congo	Africa	-17.578884	16.027517	29	23	6	0	0	0	0	3.8333333333333335	f h k l lʲ m ⁿb m̥ n ⁿd ⁿdʒ n̥ p s t v w z ⁿg ŋ̊ ɲ ɲ̊ ʃ a i u y ɔ ɛ
kwam1251-1503	Kwambi	kwam1251	Atlantic-Congo	Africa	-18.0339	15.7294	35	29	6	0	0	0	0	4.833333333333333	h k m ⁿb ⁿp n ⁿd ⁿdʒ n̥ p r rʲ s t ts tʃ v w x z ð ⁿk ⁿg ɣ ⁿv ɲ ⁿʒ ʃ θ a i u y ɔ ɛ
ngan1300-1504	Ngandyera	ngan1300	Atlantic-Congo	Africa	-16.6359	21.1928	35	30	5	0	0	0	0	6.0	j k l lʲ m ⁿb m̥ n ⁿd ⁿdʲ ⁿdʒ n̥ p s t ts tʃ v w z ð ⁿg ŋ̊ ɣ ɲ ⁿʒ ɲ̊ ʃ ʒ θ a i u ɔ ɛ
ndon1254-1505	Ndonga	ndon1254	Atlantic-Congo	Africa	-17.22	17.35	34	29	5	0	0	0	0	5.8	j k l lʲ m ⁿb m̥ n ⁿd ⁿdʲ ⁿdʒ n̥ p s t ts tʃ v w z ð ŋ ⁿg ɣ ɲ ɲ̊ ʃ ʒ θ a i u ɔ ɛ
ndon1254-1506	Ndonga	ndon1254	Atlantic-Congo	Africa	-17.22	17.35	34	29	5	0	0	0	0	5.8	dʲ j k l m ⁿb m̥ n ⁿd ⁿdʲ ⁿdʒ n̥ p s t ts tʃ v w z ð ŋ ⁿg ɣ ɲ ɲ̊ ʃ ʒ θ a i u ɔ ɛ
ndon1254-1507	Ndonga	ndon1254	Atlantic-Congo	Africa	-17.22	17.35	34	29	5	0	0	0	0	5.8	dʲ j k l m ⁿb m̥ʰ n ⁿd ⁿdʲ ⁿdʒ n̥ p s t ts tʃ v w z ð ŋ ⁿg ɣ ɲ ⁿʒ ɲ̊ ʃ θ a i u ɔ ɛ
konk1269-1508	Konkomba	konk1269	Atlantic-Congo	Africa	9.82224	0.2783	35	21	14	0	0	0	7	1.5	b c d f j k kp l m n p r s t w ŋ ŋm ɟ g gb ʔ a aː ḁ eː i iː o oː u uː ɔ ɔː ɨ ʌː
zagh1240-1509	Beria	zagh1240	Saharan	Africa	17.4842	23.4626	30	21	9	0	0	0	0	2.3333333333333335	b c d f h j k l m n p r s t w ŋ ɟ g ɲ ʃ ʔ a e i o u ɔ ɛ ɪ ʊ
zayy1238-1510	Zay	zayy1238	Afro-Asiatic	Africa	8.01148	38.8258	37	23	14	0	0	0	7	1.6428571428571428	b d dʒ f h j k l m n q r s t tˀ tʃˀ w z g ɲ ʃ ʒ ʔ a aː e eː i iː o oː u uː ə əː ɨ ɨː
bomi1238-1511	Bomitaba	bomi1238	Atlantic-Congo	Africa	1.70044	17.3733	26	16	10	0	0	0	0	1.6	b d f j k kp m n p s t v w z g gb a ã e i ĩ o õ u ũ ɛ
nort2819-1512	Northern Bobo Madaré	nort2819	Mande	Africa	12.4182	-4.47538	34	21	13	0	0	0	0	1.6153846153846154	b d̪ f h j k kp l̪ m n̪ p r̪ t̪ w ŋ ŋʷ ɟ g gb ɣ ɲ a ã e ẽ i ĩ o õ u ũ ɔ ə ɛ
bena1262-1513	Bena (Tanzania)	bena1262	Atlantic-Congo	Africa	-9.26671	35.0364	32	22	10	0	0	0	5	2.2	b d f h j kʰ l m ⁿb n ⁿd ⁿs pʰ s ts tʰ v w ŋ ⁿg g ɲ a aː eː i iː o oː u uː ɛ
guin1254-1514	Guinea Kpelle	guin1254	Mande	Africa	7.93196	-8.98843	36	24	12	0	0	0	0	2.0	b d dz h hʷ j k kp kʷ l m n p t v w ŋ ŋʷ ɓ g gb gʷ ɣ ɲ a ã e i ĩ o u ũ ɔ ɔ̃ ɛ ɛ̃
kaka1265-1515	Kakabe	kaka1265	Mande	Africa	10.5962	-11.4418	36	22	14	0	0	0	7	1.5714285714285714	b d dʒ f h j k l m n ⁿd ⁿdʒ p r s t tʃ w ŋ g gb ɲ a aː e eː i iː o oː u uː ɔ ɔː ɛ ɛː
lele1266-1516	Lele (Guinea)	lele1266	Mande	Africa	8.98043	-10.371	26	19	7	0	0	0	0	2.7142857142857144	dʒ f h j k kp l m n p r s t v w ɓ ɗ g ɲ a e i o u ɔ ɛ
loma1260-1517	Loma (Liberia)	loma1260	Mande	Africa	7.91585	-9.69906	49	21	28	0	0	0	14	0.75	b d f j kp kʰ l m n pʰ s tʰ v w z ŋ ɓ g gb ɣ ʋ a aː ã ãː e eː ẽ ẽː i iː ĩ ĩː o oː õ õː u uː ũ ũː ɔ ɔː ɔ̃ ɔ̃ː ɛ ɛː ɛ̃ ɛ̃ː
mann1248-1518	Mann	mann1248	Mande	Africa	7.04616	-8.86405	36	22	14	1	0	0	0	1.5714285714285714	b d f j kp kg kʷ l m n p s t v w z ŋ ŋʷ ɓ gb gʷ ɲ a ã e ẽ i ĩ o õ u ũ ɔ ɔ̃ ɛ ɛ̃
kyen1242-1519	Kyenga	kyen1242	Mande	Africa	11.5953	3.58651	34	22	12	0	0	0	0	1.8333333333333333	b d f h j k kp l m n p r s t v w z ŋ g gb ɲ ʔ a ã e i ĩ o u ũ ɔ ɔ̃ ɛ ɛ̃
shan1282-1520	Shanga	shan1282	Mande	Africa	11.2752	4.41464	34	22	12	0	0	0	0	1.8333333333333333	b d f h j k kp l m n p r s t v w z ŋ g gb ɲ ʔ a ã e i ĩ o u ũ ɔ ɔ̃ ɛ ɛ̃
abur1243-1521	Abure	abur1243	Atlantic-Congo	Africa	5.21534	-3.64123	34	20	14	0	0	0	0	1.4285714285714286	b c d f h j k kp l m n p s t v w ŋ ɟ gb ɲ a ã e i ĩ o u ũ ɔ ɛ ɪ ɪ̃ ʊ ʊ̃
bank1256-1522	Bankon	bank1256	Atlantic-Congo	Africa	4.3702	9.6403	33	26	7	0	0	0	0	3.7142857142857144	bʷ d dʒ f j k kp kʷ l m ⁿbʷ mʷ n ⁿd ⁿdʒ p r s t tʃ w ŋ ⁿg ⁿgʷ ɓ ɲ a e i o u ɔ ɛ
efut1241-1523	Efutu	efut1241	Atlantic-Congo	Africa	5.42441	-0.59545	48	30	18	0	0	0	0	1.6666666666666667	b d dʑ dʑᶣ dᶣ f h j k l m n p r s t ts tɕ tɕᶣ w ŋ ŋʷ ɕ g ɥ ɱ ɲ ɲᶣ ʑ ʔ e ẽ i ĩ o õ u ũ ɑ ɑ̃ ɔ ɔ̃ ɛ ɛ̃ ɪ ɪ̃ ʊ ʊ̃
aghe1239-1524	Aghem	aghe1239	Atlantic-Congo	Africa	6.38956	10.0807	47	28	19	0	0	0	9	1.4736842105263157	b bv d dz dʒ f j kp kʰ l m n pf pʰ ts tʰ tʃ v w ŋ ŋm g gb ɣ ɲ ʃ ʒ ʔ a aː e eː i iː o oː u uː ɒ ɒː ɔ ɔː ɛ ɛː ɪ ɪː ʊ
arbo1245-1525	Arbore	arbo1245	Afro-Asiatic	Africa	4.92183	36.7986	59	49	10	0	0	22	5	4.9	b bː dʒ dʒː d̪ d̪ː f fː h j jː kʰ kʰː kʼ kʼː l lː m mː n nː pʰ s sː tʃʰ tʃʰː tʃʼ tʃʼː t̪ʰ t̪ʰː t̪ʼ t̪ʼː w wː z zː ŋ ɓ̥ ɓ̥ː ɗ ɗː g gː ɲ ɲː ɾ ɾː ʃ ʔ a aː i̞ i̞ː u̞ u̞ː ɔ̝ ɔ̝ː ɛ̝ ɛ̝ː
abid1235-1526	Abidji	abid1235	Atlantic-Congo	Africa	5.65656	-4.58421	36	21	15	0	0	0	0	1.4	b cç d f h j k kp l m n p r s t w ɟʝ g gb ɲ ʔ a ã e i ĩ o õ u ũ ɔ ɔ̃ ɪ ɪ̃ ʊ ʊ̃
adio1239-1527	Adioukrou	adio1239	Atlantic-Congo	Africa	5.38228	-4.52522	28	21	7	0	0	0	0	3.0	b d dʒ f h j k kp l m n p r s t tʃ w ŋ g gb ɲ a e i o u ɔ ɛ
tiag1235-1528	Tiagbamrin Aizi	tiag1235	Atlantic-Congo	Africa	5.28022	-4.62352	32	24	8	0	0	0	0	3.0	b c d f j k kp l m n p s t v w z ŋ ɓ ɟ g gb ɲ ʃ ʒ a e i o ɔ ɛ ɪ ʊ
alla1248-1529	Alladian	alla1248	Atlantic-Congo	Africa	5.22371	-4.42647	34	23	11	0	0	0	0	2.090909090909091	b c d f j k kp l m n p s t v w z ɟ g gb ɥ ɲ ʃ ʒ a ã e ẽ i o õ u ɔ ɛ ɪ
begb1241-1530	Begbere-Ejar	begb1241	Atlantic-Congo	Africa	9.40519	7.59566	33	24	9	0	0	0	0	2.6666666666666665	b c d f h j k kp m n p r s t w z ŋ ɟ g gb ɣ ɲ ɽ ʃ a e i o u ɔ ɛ ɪ ʊ
ngaz1238-1531	Ngazidja Comorian	ngaz1238	Atlantic-Congo	Africa	-11.6129	43.36	46	41	5	0	0	0	0	8.2	b dz dʒ d̪ f h j k l m ⁿb ⁿɓ n ⁿd ⁿdz ⁿt ⁿts ⁿɗ ⁿdʒ ⁿtʃ p r s ts tʃ t̪ v w z ⁿk ⁿg ɓ ɖ ɗ g ɲ ʃ ʈ ʒ ʔ β a e i o u
akpe1248-1532	Akpes	akpe1248	Atlantic-Congo	Africa	7.50256	5.95559	31	21	10	0	0	0	0	2.1	b d dz f h j k kp l m n r s t ts w x ŋ g gb ʃ a ã e i o u ɔ ɔ̃ ɛ ɛ̃
eten1239-1533	Eten	eten1239	Atlantic-Congo	Africa	9.73073	8.61443	69	63	6	0	0	0	0	10.5	b bʲ d dz dzʷ dʷ dʲʷ dʒ dʒʷ f h hʲ hʷ hʲʷ j jʷ k kp kpʲ kʲ l lʲ lʷ lʲʷ m mʷ n nʲ nʷ nʲʷ p pf pʲ s t ts tsʷ tʲ tʷ tʃ tʃʷ v w z ŋ g gb gbʲ gʲ gʷ gʲʷ ɲ ɸ ɸʲ ɾ ɾʲ ɾʷ ɾʲʷ ʃ ʃʷ ʒ β ⱱ a e i o u ɛ
nuer1246-1534	Nuer	nuer1246	Nilotic	Africa	8.13911	32.3829	48	20	28	0	0	0	14	0.7142857142857143	b c d j k l m n p r t w ð ŋ ɟ g ɦ ɱ ɲ θ a aː a̤ a̤ː e̤ e̤ː i iː i̤ i̤ː o oː o̤ o̤ː ṳ ṳː æ̤ æ̤ː ɔ ɔː ɔ̤ ɔ̤ː ɛ ɛː ɛ̤ ɛ̤ː ʊ̤ ʊ̤ː
kagf1238-1535	Ut-Main	kagf1238	Atlantic-Congo	Africa	11.5319	4.8387	52	36	16	0	0	0	8	2.25	b bʲ d dʒ dʒʷ f h hʲ j k kʲ kʷ m mʲ n nʲ p pʲ r rʲ rʷ s sʷ t tʃ tʃʷ v vʲ w z zʷ g gʲ gʷ ʃ ʔ a aː e eː i iː o oː u uː ɔ ɔː ɘ ɘː ɛ ɛː
idom1241-1536	Idoma	idom1241	Atlantic-Congo	Africa	7.19139	7.71261	70	47	23	0	0	0	7	2.0434782608695654	b bv bvʷ c d dz dʒʷ f h hʷ j k kp kʲ l m ⁿpf n ⁿd ⁿdz p pf r s t ts v w wʲ x xʷ z zʲ ŋ ⁿgb ⁿg ŋʷ ɟ g gb gʲʷ ɣ ɣʷ ɥ ɽ ʃ ʒ a aː ã e eː ẽ i iː ĩ o oː õ u uː ũ ɔ ɔː ɔ̃ ɛ ɛː ɛ̃ ɪ ʊ
irig1241-1537	Irigwe	irig1241	Atlantic-Congo	Africa	9.85197	8.6525	91	79	12	0	0	1	0	6.583333333333333	b bʲ c cʲ cʷ d dʒ dʒʷ f fʲ h hʲ j jʷ j̥ʷ k kp kʷ m mʲ mʷ n p pˢ pʲ r rʲ rʷ s t ts tsʲ tɕ tɕʷ tʃ tʃʷ v vʲ w wʲ z ð ðʲ ŋ ŋm ŋʷ ŋʲʷ ɟ ɟʲ ɟʷ g gb gʷ ɬ ɱ ɲ ɲʷ ɲː ɾ ɾʲ ɾʷ ʃ ʃʷ ʍ ʍʲ ʒ ʒʷ ʙ ˀb ˀc ˀj ˀk ˀkp ˀs ˀgb ˀgʷ ˀʃʷ ˀʍ ˀʍʲ a ã e ẽ i ĩ u ũ ɔ ɔ̃ ɛ ɛ̃
izer1241-1538	Izere	izer1241	Atlantic-Congo	Africa	9.5	8.7	34	27	7	0	0	0	0	3.857142857142857	b c d f h j k kp l n p r s t ts v w z ŋ ŋm ɟ g gb ɲ ɸ ʃ ʒ a e i o u ɔ ɛ
jere1244-1539	Jere	jere1244	Atlantic-Congo	Africa	10.1962	8.95834	40	24	16	0	0	0	8	1.5	b d dʒ f h j k l m n p r s t tʃ v w z ŋ g gb ɲ ʃ ʒ a aː e eː i iː o oː u uː ɔ ɔː ə əː ɛ ɛː
legb1242-1540	Legbo	legb1242	Atlantic-Congo	Africa	6.02645	7.98385	50	38	12	0	0	21	5	3.1666666666666665	b bː d dzː dː dʒː fː j jː k kp kpː kː l lː m mː n nː p pː sː t tː tʃ tʃː v vː w wː z ŋ ŋː g gb gbː gː ɲː a aː e eː i o oː u ɔ ɔː ɛ ɛː
logb1245-1541	Ikpana	logb1245	Atlantic-Congo	Africa	6.92838	0.43068	32	25	7	0	0	0	0	3.5714285714285716	b d dz f j k kp l m n p r s t ts v w x z ŋ ɖ g gb ɦ ɲ a e i o u ɔ ɛ
glav1244-1543	Glavda	glav1244	Afro-Asiatic	Africa	11.1334	13.8652	41	34	7	0	0	0	3	4.857142857142857	b c d dz dʒ f j k l m n p r s t ts tʃ v w x z ç ŋ ɓ ɗ ɟ g ɣ ɬ ɮ ɲ ʃ ʒ ʝ a aː e iː u uː ə
ahan1244-1544	Àhàn	ahan1244	Atlantic-Congo	Africa	7.44139	6.00896	40	26	14	0	0	0	0	1.8571428571428572	b d dʒ f h j jʷ k kp l m n p r s t tʃ v w z ŋ g gb ɲ ʃ ʒ a ã e ẽ i ĩ o õ u ũ ɔ ɔ̃ ɛ ɛ̃
ayer1245-1545	Ayere	ayer1245	Atlantic-Congo	Africa	7.52206	6.01979	40	26	14	0	0	0	0	1.8571428571428572	b d dʒ f h j jʷ k kp l m n p r s t tʃ v w z ŋ g gb ɲ ʃ ʒ a ã e ẽ i ĩ o õ u ũ ɔ ɔ̃ ɛ ɛ̃
rong1268-1546	Ronga	rong1268	Atlantic-Congo	Africa	-26.7329	32.6167	69	64	5	0	0	0	0	12.8	b bv bˢʷ d dɮʷ dz dʒ f j k kʰ kʷ kʷʰ l lʷ m mʱ n nʷ nʱ nʷʱ p pf pfʰ pˢʷ pˢʷʰ pʰ r s sʷ t ts tsʰ tʰ tʷ tʃ tʃʰ v vʱ w wʱ z ŋʷ ɓ ɖʐ ɖʐʷ ɗ g gǂ gʷ gʷʱ ɦ ɬ ɬʷ ɲ ɲʷ ʃ ʃʷ ʈʂ ʈʂʰ ʈʂʷ ʐ ʐʷ ʒ a e i o u
ndzw1235-1547	Ndzwani Comorian	ndzw1235	Atlantic-Congo	Africa	-12.2123	44.3709	37	32	5	0	0	0	0	6.4	b d dz dʒ f h j k l m ⁿb n ⁿdʳ ⁿdz ⁿdʒ p r s t ts tʃ v w z ⁿg ɖ g ɲ ʃ ʈ ʒ ʕ a e i o u
sout2790-1548	Southern Birifor	sout2790	Atlantic-Congo	Africa	9.2873	-2.72672	52	25	27	0	0	0	9	0.9259259259259259	b bˀ d dʒ f h j jˀ k kp l lˀ m n p s t tʃ v w wˀ ŋm g gb ɲ a aː ã e eː ẽ i iː ĩ o oː õ u uː ũ ɔ ɔː ɔ̃ ɛ ɛː ɛ̃ ɪ ɪː ɪ̃ ʊ ʊː ʊ̃
kuwa1246-1549	Kuwaataay	kuwa1246	Atlantic-Congo	Africa	12.48255	-16.74835	30	20	10	0	0	0	5	2.0	b f h j k l̪ m n p r s t̪ v w z ŋ ɟ ɲ ʃ ʒ a aː e eː i iː o oː u uː
atti1239-1550	Attié	atti1239	Atlantic-Congo	Africa	5.9977	-3.8209	39	24	15	0	0	0	0	1.6	b c d dz dʒ f h j k kp l m p r s t ts tʃ v w ɟ g gb ʃ a ã e i ĩ o u ũ ø œ œ̃ ɔ ɔ̃ ɛ ɛ̃
ango1258-1551	Angolar	ango1258	Indo-European	Africa	0.11438	6.59486	34	22	12	0	0	0	0	1.8333333333333333	d dʒ f j k l m n p r s t tʃ v w z ŋ ɓ g ɲ ʃ ʒ a ã e ẽ i ĩ o õ u ũ ɔ ɛ
east2652-1552	Eastern Oromo	east2652	Afro-Asiatic	Africa	8.67428	41.4395	58	48	10	0	0	23	5	4.8	b bː d dː dʒ dʒː d̪ d̪ː f fː h j jː kʼ kʼː kː l lː m mː n nː pʼ pʼː r rː s sː tʼ tʼː tʃ tʃʼ tʃʼː tʃː t̪ t̪ː w x xː z zː g gː ɲ ɲː ʃ ʃː ʔ a aː e eː i iː o oː u uː
uppe1455-1553	Upper Guinea Crioulo	uppe1455	Indo-European	Africa	13.2335066667	-15.33254	28	23	5	0	0	0	0	4.6	b c d f j k l lʲ m n p s t v w z ŋ ɟ g ɲ ɾ ʃ ʒ a e i o u
akoo1248-1554	Akoose	akoo1248	Atlantic-Congo	Africa	4.9243	9.65522	30	18	12	0	0	0	4	1.5	b c d h j k l m n p s t w z ɟ g ɲ ʔ aː e i iː o uː ø ɑ ɔ ɔː ə ɛ
baka1273-1555	Bakaka	baka1273	Atlantic-Congo	Africa	4.79991	9.80402	32	19	13	0	0	0	6	1.4615384615384615	b d h j k l m n p s t w z ŋ ɟ g ɲ ʃ ʔ a aː e eː i iː o oː u ɔ ɔː ɛ ɛː
baka1273-1556	Bakaka	baka1273	Atlantic-Congo	Africa	4.79991	9.80402	29	15	14	0	0	0	7	1.0714285714285714	b d f h j m n p s t w z ŋ ɟ g a aː e eː i iː o oː u uː ɔ ɔː ɛ ɛː
baka1273-1557	Bakaka	baka1273	Atlantic-Congo	Africa	4.79991	9.80402	30	16	14	0	0	0	7	1.1428571428571428	b d h j k l m n p s t w ŋ ɟ g ɲ a aː e eː i iː o oː u uː ɔ ɔː ɛ ɛː
mboc1235-1558	Mbo (Cameroon)	mboc1235	Atlantic-Congo	Africa	5.13981	9.92766	33	19	14	0	0	0	4	1.3571428571428572	b d h k l m n p s t w z ŋ ɟ g ɲ ʃ ʒ ʔ a e eː i iː u uː ø ɑ ɔ ə əː ɛ ʊ
bass1260-1559	Bassossi	bass1260	Atlantic-Congo	Africa	5.23655	9.52275	32	20	12	0	0	0	4	1.6666666666666667	b d h j k kp l m n p s t w z ŋ ɟ g gb ɲ ʔ a i iː o u uː ɑ ɔ ɔː ə əː ɛ
mboc1235-1560	Mbo (Cameroon)	mboc1235	Atlantic-Congo	Africa	5.13981	9.92766	34	21	13	0	0	0	4	1.6153846153846154	b d f j jˀ k l m n p s t w z ŋ ɟ g ɲ ʃ ʒ ʔ a e i iː o u uː ø ɔ ə əː ɛ ɛː
libe1240-1561	Kru Pidgin English	libe1240	Pidgin	Africa	6.423	-10.5284	36	24	12	0	0	0	0	2.0	b d dʒ f j k kp l m n p r s t tʃ v w z ŋ g gb ɲ ʃ ʒ a ã e i ĩ o u ũ ɔ ɔ̃ ɛ ɛ̃
gagu1242-1562	Gban	gagu1242	Mande	Africa	6.40859	-5.51851	32	20	12	0	0	0	0	1.6666666666666667	b c d j k kp kʷ l m n s t w z ɟ g gb gʷ ɸ β a ã e i ĩ o u ũ ɔ ɔ̃ ɛ ɛ̃
eton1253-1563	Eton-Mengisa	eton1253	Atlantic-Congo	Africa	4.21045	11.3935	36	21	15	0	0	0	7	1.4	b d dʒ j k kp l m n p s t tʃ v w z ŋ ŋm g gb ɲ a aː e eː i iː o oː u uː ɔ ɔː ə ɛ ɛː
reun1238-1564	Réunion Creole French	reun1238	Indo-European	Africa	-21.1131	55.5321	42	30	12	0	0	12	2	2.5	b bː d̺ d̺ː f fː j j̃ k kː lː l̪ m mː n nː p pː s sː s̺ t̺ t̺ː v vː z z̺ g gː ʁ a ã e ẽ ë i iː ï o õ u uː
nucl1440-1565	Masalit	nucl1440	Maban	Africa	13.2733	22.1752	41	31	10	0	0	4	0	3.1	b dʒ d f h j k ǀ ǃ kː lː l m mː n p rː r s tʃ t v w x z ŋ g ɥ ɲ ʃ ʔ a e i o u ɔ ə ɛ ɨ ʌ
saot1239-1566	Sãotomense	saot1239	Indo-European	Africa	0.28332	6.61935	32	19	13	0	0	0	0	1.4615384615384615	dʒ f j k l m n p t tʃ v w z ɓ ɗ g ɲ ʎ ʒ a ã e ẽ i ĩ o õ u ũ ə ɛ ɪ̃
nucl1696-1567	Tangale	nucl1696	Afro-Asiatic	Africa	9.75444	11.3228	58	40	18	0	0	0	9	2.2222222222222223	b bʷ d dʷ dʒ d̪̚ h j jʷ k kʷ l m ⁿb n ⁿd ⁿdʒ p r rʷ s sʷ t tʷ w z zʷ ŋ ⁿg ɓ ɓʷ ɗ ɗʷ g gʷ ʃ ʃʷ ʒ ʒʷ ʔ a aː e eː i iː o oː u uː ɔ ɔː ɛ ɛː ɪ ɪː ʊ ʊː
suku1261-1568	Sukuma	suku1261	Atlantic-Congo	Africa	-3.16082	32.8765	52	38	14	0	0	0	7	2.7142857142857144	cʰ d f h j kʰ l m ⁿb ⁿpʱ mʱ n ⁿd ⁿz ⁿʃ ⁿsʱ ⁿtʱ nʱ pʰ s tʰ v w z ŋ ⁿg ⁿkʱ ŋʱ ɟ g ⁿv ⁿfʱ ɲ ⁿɟ ⁿcʰ ɲʱ ʃ β a aː e eː i iː o oː u uː ɔ ɔː ɛ ɛː
mori1278-1569	Morisyen	mori1278	Indo-European	Africa	-20.2613	57.5517	30	21	9	0	0	0	0	2.3333333333333335	b dʒ d̪ f j j̃ k l m n p r s tʃ t̪ t̰ v w z ŋ g a e i o u æ̃ ɑ ɔ ə
krio1253-1570	Krio	krio1253	Indo-European	Africa	10.8811	-14.3204	32	25	7	0	0	0	0	3.5714285714285716	b c d̪ f h j k kp l̪ m n̪ p s t̪ v w z ɟ g gb ɲ ʁ ʃ ʒ θ a e i o u ɔ ɛ
kitu1246-1571	Kituba (Democratic Republic of Congo)	kitu1246	Atlantic-Congo	Africa	-2.29601	17.1548	20	15	5	0	0	0	0	3.0	b d f j k l m n p s t v w z g a e i o u
akas1242-1572	Akaselem	akas1242	Atlantic-Congo	Africa	8.8858	1.37035	49	20	29	0	0	0	9	0.6896551724137931	b c d f j k kp l m n p s t w ŋ ⁿgb ɟ g gb ɲ a aː ã e eː ẽ i iː ĩ o oː õ u uː ũ æ æ̃ ɔ ɔː ɔ̃ ɛ ɛː ɛ̃ ɪ ɪː ɪ̃ ʊ ʊː ʊ̃
tuki1240-1573	Tuki	tuki1240	Atlantic-Congo	Africa	4.64348	11.5353	35	25	10	0	0	0	3	2.5	b d dʒ h j k kp m ⁿb n ⁿd ⁿdʒ p r s t tʃ w ŋ ⁿgb ⁿg g gb ɲ β a aː e i o oː u ɔ ɔː ə
baka1272-1574	Baka (Cameroon)	baka1272	Atlantic-Congo	Africa	2.16013	13.7804	32	25	7	0	0	0	0	3.5714285714285716	b d dʒ h j k kp l m ⁿb n ⁿd ⁿdʒ s t w ⁿgb ⁿg ɓ ɗ g gb ɲ ɸ ʔ a e i o u ɔ ɛ
bumm1238-1575	Bum	bumm1238	Atlantic-Congo	Africa	6.48655	10.418	44	37	7	0	0	0	0	5.285714285714286	b bʷ d dʲ dʒ dʒʲ dʒʷ f fʷ h j jʷ k kp kʷ l lʷ m mʷ n nʷ s t tʲ tʷ tʃ tʃʲ tʃʷ w g gb gʷ ɣ ɲ ʃ ʃʲ ʃʷ a i u ɔ ə ɛ ɨ
nucl1683-1576	Daba	nucl1683	Afro-Asiatic	Africa	10.3521	13.6318	42	36	6	0	0	0	0	6.0	b d dʒ f j k kp kʷ l m ⁿb n ⁿd ⁿdʒ p r s t tʃ v w x z ⁿg ⁿgb ⁿgʷ ɓ ɗ g gb gʷ ɬ ɮ ʔ ʔʷ ⱱ a i u ɔ ɛ ɨ
gava1241-1577	Gavar	gava1241	Afro-Asiatic	Africa	10.5603	13.8188	52	47	5	0	0	0	0	9.4	b d dz dʒ f j k kp kʷ l m ⁿb n ⁿd ⁿdz ⁿdʒ p pt r s t ts tʃ v w x xʷ z ŋ ⁿgb ⁿg ⁿgʷ ŋʷ ɓ ɗ g gb gʷ ɣ ɣʷ ɬ ɮ ʃ ʒ ʔ ʔʷ ⱱ e i u ɑ ə
gude1246-1578	Gude	gude1246	Afro-Asiatic	Africa	10.2138	13.403	34	30	4	0	0	0	2	7.5	b d dz f k l m ⁿb n ⁿd ⁿdz p s t ts v x z ŋ ⁿg ⁿɣ ɓ ɗ g ɣ ɬ ⁿv ɾ ʔ ⱱ a aː ə əː
igoo1238-1580	Igo	igoo1238	Atlantic-Congo	Africa	7.25499	0.67846	30	23	7	0	0	0	0	3.2857142857142856	b c d f h j k kp l m n p s t v w z ŋ ɖ ɟ g gb ɲ a e i o u ɔ ɛ
kako1242-1581	Kako	kako1242	Atlantic-Congo	Africa	3.79989	15.6282	45	33	12	0	0	0	0	2.75	b d dʒ f h j k kp kʷ l m ⁿb n ⁿd ⁿdʒ p r s t tʃ v w ŋ ⁿgb ⁿg ⁿgʷ ɓ ɗ g gb gʷ ɲ ʄ a ã e i ĩ o u ũ ɔ ɔ̃ ɛ ɛ̃
kwan1276-1582	Kwanja	kwan1276	Atlantic-Congo	Africa	6.30293	11.6931	39	21	18	0	0	0	8	1.1666666666666667	b d dʒ f h j k kp l m n p s t tʃ v w ŋ g gb ɲ a aː e eː i iː o oː u uː y ɔ ɔː ə əː ɛ ɨ ɨː
came1252-1583	Donga Mambila	came1252	Atlantic-Congo	Africa	6.43829	11.41953	31	20	11	0	0	0	5	1.8181818181818181	b bv d dʒ f h j k l m n p s t tʃ v w ŋ g ɲ a aː e eː i iː o oː u uː ɔ
mere1246-1584	Merey	mere1246	Afro-Asiatic	Africa	10.7458	14.09	41	33	8	0	0	0	0	4.125	b d dz f h hʷ j k kʷ l m ⁿb n ⁿd ⁿdz p r s t ts v w z ŋ ⁿg ⁿgʷ ɓ ɗ g gʷ ɬ ɮ ʔ a i u y œ ɔ ə ɛ
wand1278-1585	Wandala	wand1278	Afro-Asiatic	Africa	11.3169	13.8996	50	45	5	0	0	0	3	9.0	b d dz dʒ f h hʷ j k kʲ kʷ l m ⁿb n ⁿd ⁿdz ⁿdʒ p r s t ts tʃ v w z ŋ ⁿg ⁿgʲ ⁿgʷ ŋʷ ɓ ɗ g gʲ gʷ ɬ ɬʲ ɮ ɮʲ ɳ ʃ ʄ ʒ a aː e iː uː
chon1287-1586	Chonyi-Dzihana-Kauma	chon1287	Atlantic-Congo	Africa	-6.518	38.672	45	40	5	0	0	0	0	8.0	b d dz dʒ d̪ f h j k kp l m ⁿb n ⁿd ⁿdz ⁿdʒ ⁿd̪ p r s t ts tʃ t̪ v w z ð ŋ ŋm ⁿgb ⁿg g gb ɦ ɲ ʃ ʔ β a e i o u
digo1243-1587	Digo	digo1243	Atlantic-Congo	Africa	-4.62101	39.1752	46	41	5	0	0	0	0	8.2	b d dz dʒ d̪ f h j k kp l m ⁿb n ⁿd ⁿdz ⁿdʒ ⁿd̪ p r s t ts tʃ t̪ v w z ð ŋ ŋm ⁿgb ⁿg g gb ɦ ɲ ʃ ʒ ʔ β a e i o u
duru1249-1588	Duruma	duru1249	Atlantic-Congo	Africa	-4.09629	39.322	45	40	5	0	0	0	0	8.0	b d dz dʒ d̪ f h j k kp l m ⁿb n ⁿd ⁿdz ⁿdʒ ⁿd̪ p r s t ts tʃ t̪ v w z ð ŋ ŋm ⁿgb ⁿg g gb ɦ ɲ ʃ ʔ β a e i o u
giry1241-1589	Giryama	giry1241	Atlantic-Congo	Africa	-3.30638	39.6648	45	40	5	0	0	0	0	8.0	b d dz dʒ d̪ f h j k kp l m ⁿb n ⁿd ⁿdz ⁿdʒ ⁿd̪ p r s t ts tʃ t̪ v w z ð ŋ ŋm ⁿgb ⁿg g gb ɦ ɲ ʃ ʔ β a e i o u
giry1241-1590	Giryama	giry1241	Atlantic-Congo	Africa	-3.30638	39.6648	45	40	5	0	0	0	0	8.0	b d dz dʒ d̪ f h j k kp l m ⁿb n ⁿd ⁿdz ⁿdʒ ⁿd̪ p r s t ts tʃ t̪ v w z ð ŋ ŋm ⁿgb ⁿg g gb ɦ ɲ ʃ ʔ β a e i o u
kamb1298-1591	Kambe	kamb1298	Atlantic-Congo	Africa	-3.30638	39.6648	45	40	5	0	0	0	0	8.0	b d dz dʒ d̪ f h j k kp l m ⁿb n ⁿd ⁿdz ⁿdʒ ⁿd̪ p r s t ts tʃ t̪ v w z ð ŋ ŋm ⁿgb ⁿg g gb ɦ ɲ ʃ ʔ β a e i o u
kaum1238-1592	Kauma	kaum1238	Atlantic-Congo	Africa	-3.30638	39.6648	45	40	5	0	0	0	0	8.0	b d dz dʒ d̪ f h j k kp l m ⁿb n ⁿd ⁿdz ⁿdʒ ⁿd̪ p r s t ts tʃ t̪ v w z ð ŋ ŋm ⁿgb ⁿg g gb ɦ ɲ ʃ ʔ β a e i o u
giry1241-1593	Giryama	giry1241	Atlantic-Congo	Africa	-3.30638	39.6648	45	40	5	0	0	0	0	8.0	b d dz dʒ d̪ f h j k kp l m ⁿb n ⁿd ⁿdz ⁿdʒ ⁿd̪ p r s t ts tʃ t̪ v w z ð ŋ ŋm ⁿgb ⁿg g gb ɦ ɲ ʃ ʔ β a e i o u
giry1241-1594	Giryama	giry1241	Atlantic-Congo	Africa	-3.30638	39.6648	45	40	5	0	0	0	0	8.0	b d dz dʒ d̪ f h j k kp l m ⁿb n ⁿd ⁿdz ⁿdʒ ⁿd̪ p r s t ts tʃ t̪ v w z ð ŋ ŋm ⁿgb ⁿg g gb ɦ ɲ ʃ ʔ β a e i o u
vame1236-1595	Vame	vame1236	Afro-Asiatic	Africa	10.9481	14.2131	43	38	5	0	0	0	0	7.6	b d dz dʒ h hʷ j k kʷ l m ⁿb n ⁿd ⁿz ⁿdʒ p r s t ts tʃ w z ŋ ⁿg ⁿgʷ ŋʷ ɓ ɗ g gʷ ɣ ɣʷ ɬ ɮ ʃ ʒ a e i u ə
mmaa1238-1596	Mmaala	mmaa1238	Atlantic-Congo	Africa	4.52188	11.0599	32	23	9	0	0	0	0	2.5555555555555554	b d f j k l m ⁿb ⁿpʰ n ⁿd ⁿtʰ p s t tʃ w ŋ ⁿkʰ ⁿg g ⁿf ɲ a e i o u ɔ ɛ ɪ ʊ
mpad1242-1597	Mpade	mpad1242	Afro-Asiatic	Africa	12.561391	14.446893	36	30	6	0	0	0	0	5.0	b d dʒ f h j k kʷ kʼʷ kʼ l m ⁿb n ⁿd p r s t tsʼ tʃ tʃʼ w z ⁿg ɓ ɗ g gʷ ʃ a e i o u ɨ
mofu1248-1598	Mofu-Gudur	mofu1248	Afro-Asiatic	Africa	10.567	14.0314	40	35	5	0	0	0	2	7.0	b d dʒ f h hʷ j k kp kʷ l ⁿb n ⁿd ⁿdʒ p r s t tʃ v w z ŋ ⁿgb ⁿgʷ ɓ ɗ g gb gʷ ɬ ɮ ʔ ⱱ a aː e eː ə
mbee1249-1599	Mbe	mbee1249	Atlantic-Congo	Africa	6.57067	8.82998	55	48	7	0	0	0	0	6.857142857142857	b bʲ bʷ d dz dzʷ dʷ dʒ dʒʷ f fʷ j jʷ k kp kʲ kʷ l lʲ lʷ m mʲ mʷ p pʲ pʷ r rʲ rʷ s sʷ t ts tsʷ tʷ tʃ tʃʷ w ŋ ŋʷ g gb gʲ gʷ ɲ ɲʷ ʃ ʃʷ a e i o u ɔ ɛ
ncan1245-1600	Ncane-Mungong	ncan1245	Atlantic-Congo	Africa	6.50696	10.5312	35	17	18	0	0	0	5	0.9444444444444444	b d dʒ f j k l m n s tʰ tʃ w ŋ g ɲ ʃ a aː ã e i iː ĩ o oː õ u ũ ɔ ɔː ɔ̃ ɛ ɛː ɛ̃
mfum1238-1601	Southern Mfumte	mfum1238	Atlantic-Congo	Africa	6.6	10.936386	84	74	10	1	0	0	0	7.4	b bʱ bʲ bˠ d dz dʒ f fʷ h hʲ hʷ hᶣ j k kp kʲ kʷ l m ⁿb ⁿbʲ ⁿbˠ ⁿp ⁿpʲ n ⁿd ⁿdz ⁿs ⁿt ⁿts ⁿdʒ ⁿʃ p pʲ pʷ s t ts tʃ v w x z ŋ ŋʰ ŋʲʰ ŋʷʰ ŋᶣʰ ⁿkʲ ⁿkʷ ⁿkp ⁿgb ⁿgʲ ⁿgʷ ⁿɣ ⁿɣʲ ⁿɣʷ ⁿɣᶣ ŋʷ g gb gʲ gʷ ɣ ɥ ⁿf ⁿfʲ ⁿv ɲ ɲʷ ɾ ʃ ʒ a e i o u y ø ɔ ə ɯ
njye1238-1602	Njyem	njye1238	Atlantic-Congo	Africa	2.30483	14.1175	40	20	20	0	0	0	10	1.0	b d dz f j k kp l m n p s t ts v w g gb ɲ ʃ e eː i iː o oː u uː œ œː ɑ ɑː ɔ ɔː ɛ ɛː ɪ ɪː ʊ ʊː
buam1238-1603	Buamu	buam1238	Atlantic-Congo	Africa	11.1687	-3.50303	25	17	8	0	0	0	0	2.125	b c d̪ f h k l̪ m n̪ p s̪ t̪ v z̪ ɓ g ɲ a ã e i ĩ o u ũ
kwam1250-1604	Kwami	kwam1250	Atlantic-Congo	Africa	-1.53712	27.4633	38	28	10	0	0	0	5	2.8	b d dʒ f h j k kʷ l m ⁿb n ⁿd p r s t tʃ w z ⁿg ⁿgʷ ɓ ɗ g gʷ ʃ ʔ a aː e eː i iː u uː ɔ ɔː
guro1248-1605	Guro	guro1248	Mande	Africa	7.34954	-6.31154	54	26	28	0	0	0	14	0.9285714285714286	b bʷ dʲ d̪ f j k kp kʲ l̪ m nʲ n̪ p pʷ sʲ sʷ s̪ t̪ v w z̪ g gb gʲ ɽ a aː ã ãː e eː i iː ĩ ĩː o oː u uː ũ ũː ɔ ɔː ɔ̃ ɔ̃ː ɛ ɛː ɛ̃ ɛ̃ː ɪ ɪː ʊ ʊː
kabu1256-1606	Kabuverdianu	kabu1256	Indo-European	Africa	15.0586	-23.6148	28	21	7	0	0	0	0	3.0	b c d f k l m n p r s t v z ŋ̞ ɟ g ɲ ʃ ʎ ʒ a e i o u ɔ ɛ
boun1243-1607	Bouna Kulango	boun1243	Atlantic-Congo	Africa	8.46011	-2.74627	44	27	17	0	0	0	0	1.588235294117647	b d f h j k kp l m n p r s t v w x z ŋ ŋm ɟ g gb ɲ ʃ ʒ ʔ a ã e ẽ i ĩ o õ u ũ ɔ ɔ̃ ɛ ɛ̃ ɪ ɪ̃ ʊ
tsam1247-1608	Tsamai	tsam1247	Afro-Asiatic	Africa	5.3097	36.9139	66	56	10	0	0	28	5	5.6	b bː c cʼː cː d dː dʒː h hː j jː k kː l lː m mː n nː p pː qʼ qʼː r rː s sː t tsʼ tsʼː tː w wː x xː z zː ħ ħː ɓ ɓː ɗ ɠ ɠː g gː ɲ ɲː ʃ ʃː ʒ ʔ ʔː ʕ ʕː a aː e eː i iː o oː u uː
cent2194-1609	Central Moroccan Berber	cent2194	Afro-Asiatic	Africa	32.7415	-2.40872	39	36	3	0	0	0	0	12.0	b d dˀ f h j k kʷ l lˀ m n q qʷ r rˀ s sˀ t tˀ w x xʷ z zˀ ħ g gʷ ɣ ɣʷ ɣˀ ʃ ʃˀ ʒ ʒˀ ʕ a i u
siwi1239-1610	Siwi	siwi1239	Afro-Asiatic	Africa	29.200415	25.519627	38	26	12	0	0	3	1	2.1666666666666665	b d dʒ f h j k l m n p r rː s sː t tʃ w z ħ ŋ g ʀ ʃ ʕ ʕː a e i o u æ ɔ ɛ ɪ ɪː ʊ ʌ
ndam1239-1611	Ndamba	ndam1239	Atlantic-Congo	Africa	-8.40485	36.0271	24	19	5	0	0	0	0	3.8	b d dʒ f h j k l m n p s t tʃ v w ŋ g ɣ a e i o u
bare1279-1612	Barain	bare1279	Afro-Asiatic	Africa	10.970124	17.911727	38	28	10	0	0	12	5	2.8	b bː d dː j k kː l lː m mː n nː p pː r s sː t tː w ŋ ɟ ɟː g gː ɲ ɲː a aː e eː i iː o oː u uː
bare1279-1613	Barain	bare1279	Afro-Asiatic	Africa	10.970124	17.911727	26	16	10	0	0	0	5	1.6	b d j k l m n p r s t w ŋ ɟ g ɲ a aː e eː i iː o oː u uː
bare1279-1614	Barain	bare1279	Afro-Asiatic	Africa	10.970124	17.911727	41	31	10	0	0	15	5	3.1	b bː d dː j jː k kː l lː m mː n nː p pː r rː s sː t tː w ŋ ŋː ɟ ɟː g gː ɲ ɲː a aː e eː i iː o oː u uː
bare1279-1615	Barain	bare1279	Afro-Asiatic	Africa	10.970124	17.911727	42	32	10	0	0	14	5	3.2	b bː d dː h j jː k kː l lː m mː n nː p pː r s sː t tː w ŋ ɗ ɗː ɟ ɟː g gː ɲ ɲː a aː e eː i iː o oː u uː
gaam1241-1616	Gaam	gaam1241	Eastern Jebel	Africa	11.4674	33.9797	46	34	12	0	0	12	6	2.8333333333333335	b bː c d dː d̞ d̪ d̪ː f fː j k l lː m mː n nː p r s sː t t̪ w ŋ ŋː ɟ ɟː g gː ɲ ɲː ɾ a aː i iː u uː ɔ ɔː ə əː ɛ ɛː
abar1238-1617	Mungbam	abar1238	Atlantic-Congo	Africa	6.5805	10.2267	32	24	8	0	0	0	0	3.0	b dʑ d̪ dz̪ f h j k kp l̪ m n̪ p s̪ tɕ t̪ ts̪ w ŋ ɕ g gb ɥ ɲ a e i o u ɔ ə ɛ
mund1328-1618	Mundabli	mund1328	Atlantic-Congo	Africa	6.59969	10.2704	34	22	12	0	0	0	0	1.8333333333333333	b dʒ d̪ dz̪ f j k kp l̪ m n̪ s̪ tʃ t̪ ts̪ w ŋ g gb ɥ ɲ ʃ a e i o u ɒ ɔ ə ɛ ɨ ɪ ʊ
mbuu1238-1619	Ajumbu	mbuu1238	Atlantic-Congo	Africa	6.53792	10.2556	36	26	10	0	0	0	0	2.6	b dʒ d̪ dz̪ f j k kp l̪ n̪ s̪ tʃ t̪ ts̪ v w z̪ ŋ g gb ɣ ɥ ɲ ʃ ʒ ʔ a e i o u y ɔ ə ɛ ɨ
kosh1246-1620	Koshin	kosh1246	Atlantic-Congo	Africa	6.5817	10.299	34	23	11	0	0	0	0	2.090909090909091	b dʒ d̪ dz̪ f j k kp l̪ m n̪ s̪ tʃ t̪ ts̪ w z̪ ŋ g gb ɲ ʃ ʒ a e i i̜ u u̜ æ ɔ ə ɛ ɨ̜
fang1248-1621	Fang (Cameroon)	fang1248	Atlantic-Congo	Africa	6.54384	10.319	33	23	10	0	0	0	0	2.3	b dʒ d̪ f j k kp l̪ m n̪ p s̪ tʃ t̪ ts̪ v w ŋ g gb ɱ ɲ ʒ a e i i̜ o u u̜ ɔ ə ɛ
kura1250-1622	Kuranko	kura1250	Mande	Africa	9.49325	-10.6122	54	26	28	0	0	0	14	0.9285714285714286	b c d f h j k l m ⁿb ⁿp n ⁿd ⁿt p s t w ŋ ⁿk ⁿgb g gb ⁿf ɲ ɹ a aː ã ãː e eː ẽ ẽː i iː ĩ ĩː o oː õ õː u uː ũ ũː ɔ ɔː ɔ̃ ɔ̃ː ɛ ɛː ɛ̃ ɛ̃ː
niel1243-1623	Niellim	niel1243	Atlantic-Congo	Africa	9.70362	17.81346	56	25	31	0	8	0	11	0.8064516129032258	b c d h j k l m ⁿb n ⁿd p r s t w ŋm ⁿg ɓ ɗ ɟ g ɲ ⁿɟ ʔ a aː ã ãː e eː ẽ i ia iaː iã iː ĩ ĩː i̯ãː o oː õ õː u ua uaː uã uãː uː ũ ũː ə əː ə̃ ə̃ː
nort3047-1624	North Giziga	nort3047	Afro-Asiatic	Africa	10.6755	14.219	32	29	3	0	0	0	0	9.666666666666666	b d dʒ f h j k kʷ l ⁿb n ⁿd ⁿdz r s t tʃ v w z ŋ ⁿg ɓ ɗ g gʷ ɬ ɮ ʔ a e o
mogh1246-1625	Moghamo	mogh1246	Atlantic-Congo	Africa	5.88942	9.87416	47	33	14	0	0	0	0	2.357142857142857	b d dʷ dʒ dʒʷ f fʲ k kʲ kʷ m ⁿb n ⁿd nʷ ⁿdʒ p s sʷ t tʷ tʃ tʃʷ w z zʷ ŋ ⁿg ŋʷ g gʲ gʷ ɣ a ã e ẽ i ĩ o õ u ũ ɔ ɔ̃ ə ə̃
mokp1239-1626	Mokpwe	mokp1239	Atlantic-Congo	Africa	4.24178	9.23887	29	22	7	0	0	0	0	3.142857142857143	b dʒ hʷ j k kp l m ⁿb n ⁿd ⁿdʒ p t w ⁿgb ⁿg gb ɲ ɸ ʒ β a e i o u ɔ ɛ
siam1242-1627	Siamou	siam1242		Africa	10.998	-4.92143	36	22	14	0	0	0	0	1.5714285714285714	b c d f h j k kp l m n p r s t v w ŋm ɟ gb ɲ ʃ a ã e i ĩ o u y ɔ ɔ̃ ə ɛ ɛ̃ ɯ
ngie1241-1628	Ngiemboon	ngie1241	Atlantic-Congo	Africa	5.56777	10.1266	26	19	7	0	0	0	0	2.7142857142857144	b d f j k m n p pf s t ts v w z ŋ g ɥ ɰ a e i o u ɔ ɛ
nugu1242-1629	Nugunu (Cameroon)	nugu1242	Atlantic-Congo	Africa	4.63103	11.1837	31	24	7	0	0	0	0	3.4285714285714284	b d f h j k l m ⁿb ⁿp n ⁿd ⁿt ⁿtʃ p s t tʃ w ŋ ⁿk ⁿg g ɲ a e i o u ɔ ɛ
tigo1236-1630	Tigon Mbembe	tigo1236	Atlantic-Congo	Africa	6.983995	10.70849	109	97	12	2	0	0	4	8.083333333333334	b bʳ bʲ bʷ d dʳ dʷ dʒ dʒʳ dʒʷ f fʳ fʲ fʷ h j k kp kpʳ kpʲ kpʷ kʳ kʲ kʷ kʳʷ l m ⁿb ⁿbʳ ⁿbʲ ⁿbʷ ⁿp ⁿpʳ ⁿpʷ ⁿɾ mʲ mʷ n ⁿd ⁿdʳ ⁿdʷ ⁿs ⁿsʳ ⁿt ⁿtʳ ⁿz ⁿzʳ ⁿgʳ nʷ ⁿdʒ ⁿtʃ ⁿtʃʳ ⁿʃ p pʳ pʲ pʷ s sʳ sʷ t tʳ tʷ tʃ tʃʳ tʃʷ v vʳ vʲ vʷ w z zʳ ŋ ⁿk ⁿkʳ ⁿkʷ ⁿkp ⁿkpʳ ⁿgb ⁿg ⁿgʷ ŋʷ g gb gbʳ gʳ gʷ ⁿf ⁿfʳ ⁿv ⁿvʳ ⁿvʲ ɲ ɾ ʃ ʒ a e eː i o u uː ɑ ɔ ɔː ɛ ɛː
orma1241-1631	Orma	orma1241	Afro-Asiatic	Africa	-1.79489	39.60749	33	23	10	0	0	0	5	2.3	b d dʒ f h j k kʼ l m n nʲ p pʼ s t tʼ tʃ tʃʼ w ɗ g ɾ a aː e eː i iː o oː u uː
piny1238-1632	Pinyin	piny1238	Atlantic-Congo	Africa	5.7991	10.0682	61	42	19	0	5	0	6	2.210526315789474	b bʲ d dʲ dʷ f j k kʲ kʷ kᶣ m mʲ n nʲ nʷ pʷ s sʷ t ts tsʷ tʲ tʷ tʃ tʃʷ w z zʷ ŋ ŋʷ g gʲ gʷ gᶣ ɥ ɲ ɲʷ ʃ ʃʷ ʒ ʒʷ a aː i iə iɛ iː u uə uː y yə ɔ ɔː ə əː ɛ ɨ ɨə ɨː
pana1294-1633	Pana	pana1294	Atlantic-Congo	Africa	8.71518	13.6009	62	34	28	0	0	0	14	1.2142857142857142	b d f h hʲ hʷ j k kp l m ⁿb n ⁿd ⁿdz p s sʷ t ts v w z ŋ ⁿgb ⁿg ŋʷ ɓ ɗ g gb ɲ ɾ ⱱ a aː ã ãː e eː ẽ ẽː i iː ĩ ĩː o oː õ õː u uː ũ ũː ɔ ɔː ɔ̃ ɔ̃ː ɛ ɛː ɛ̃ ɛ̃ː
reel1238-1634	Reel	reel1238	Nilotic	Africa	6.32234	30.49451	60	20	40	0	0	0	26	0.5	b c d d̪ j k lʲ m n n̪ p r t t̪ w ŋ ɟ g ɲ ʔ a aː aˑ a̤ a̤ː a̤ˑ e eː eˑ e̤ e̤ː e̤ˑ i iː iˑ i̤ i̤ː i̤ˑ o oː oˑ o̤ u uː uˑ ṳ ṳː ṳˑ ɔ ɔː ɔˑ ɔ̤ ɔ̤ː ɔ̤ˑ ɛ ɛː ɛˑ ɛ̤ ɛ̤ː ɛ̤ˑ
wuzl1236-1635	Wuzlam	wuzl1236	Afro-Asiatic	Africa	10.955	14.1378	39	34	5	0	0	0	0	6.8	b d dz f hʷ j k kʷ l m ⁿb n ⁿd ⁿz p r s t ts v w z ŋ ⁿg ⁿgʷ ɓ ɗ g gʷ ɣ ɣʷ ɬ ɮ χ a e i u ə
lese1243-1636	Lese	lese1243	Central Sudanic	Africa	1.3	29.3	39	29	10	0	0	0	0	2.9	b bv d dʷ dʒ f h j k m n p pf s sʷ t tʃ w ɓ ɠɓ g gb ɭ ɭʷ ɾ ɾʲ ɾʷ ʈ ʔ a e i o u œ ɔ ɛ ɪ ʊ
tour1242-1637	Toura (Côte d'Ivoire)	tour1242	Mande	Africa	7.76747	-7.33105	35	21	14	0	0	0	2	1.5	b d f j k kp kʷ l m n p s t v w z ŋ ɓ g gb gʷ a ã e i ĩ o u ũ ɔ ɔ̃ ɛ ɛ̃ ɪː ʊː
gwen1239-1638	Gweno	gwen1239	Atlantic-Congo	Africa	-3.68407	37.6827	29	24	5	0	0	0	0	4.8	b c d f h j k kʲ l m n p pf r t w ŋ ɟ g ɣ ɲ ʃ β θ a e i o u
sumb1240-1639	Sumbwa	sumb1240	Atlantic-Congo	Africa	-3.47335	31.9457	30	20	10	0	0	0	5	2.0	b d dʒ f h j k l m n p s t tʃ v w z g ʃ β a aː e eː i iː o oː u uː
zinz1238-1640	Zinza	zinz1238	Atlantic-Congo	Africa	-2.64132	32.1755	30	20	10	0	0	0	5	2.0	b c d f h j k l m n p s t v w z ɟ g ɲ ʃ a aː e eː i iː o oː u uː
meru1245-1641	Meru	meru1245	Atlantic-Congo	Africa	0.26484	37.7396	27	17	10	0	0	0	5	1.7	b d f j k l m n p r s t w ŋ ɲ ʃ β a aː e eː i iː o oː u uː
kahe1238-1642	Kahe	kahe1238	Atlantic-Congo	Africa	-3.51412	37.5759	32	22	10	0	0	0	5	2.2	b c d f h j k l m n p r s t v w ŋ ɟ g ɣ ɲ ʃ i iː u uː ɑ ɑː ɔ ɔː ɛ ɛː
hang1260-1643	Hangaza	hang1260	Atlantic-Congo	Africa	-2.52347	30.7074	33	23	10	0	0	0	5	2.3	c d f h j k m n p pf r s t ts v w z ɟ g ɲ ʃ ʒ β a aː e eː i iː o oː u uː
moch1256-1644	Mochi	moch1256	Atlantic-Congo	Africa	-3.33743	37.3357	25	20	5	0	0	0	0	4.0	b c d f h j k l m n p pf s t ts w ɟ g ɲ ʃ a e i o u
suba1252-1645	Suba-Simbiti	suba1252	Atlantic-Congo	Africa	-1.103296	34.268	37	23	14	0	0	0	7	1.6428571428571428	c d f h j k l m n p r s t v w z ŋ ɟ g ɣ ɲ ʃ β a aː e eː i iː o oː u uː ɔ ɔː ɛ ɛː
kway1241-1646	Kwaya	kway1241	Atlantic-Congo	Africa	-1.80737	33.71	27	17	10	0	0	0	5	1.7	b d f j k l m n p s t tʃ w ɟ g ɲ β a aː e eː i iː o oː u uː
wawa1246-1647	Wawa	wawa1246	Atlantic-Congo	Africa	6.68974	11.7802	46	30	16	0	0	0	8	1.875	b d dʒ f h j k kp kʷ l m ⁿb n ⁿd ⁿdʒ p s t tʃ w ŋ ŋm ⁿgb ⁿg ⁿgʷ g gb gʷ ⁿv ɲ a aː e eː i iː o oː u uː ɔ ɔː ə əː ɛ ɛː
tach1250-1648	Tachelhit	tach1250	Afro-Asiatic	Africa	29.7854	-7.77879	37	33	4	0	0	0	0	8.25	b dˤ d̪ f h j k kʷ lˤ l̪ m n̪ q qʷ rˤ sˤ s̪ tˤ t̪ w x xʷ zˤ z̪ ħ g gʷ ɣ ɣʷ ɾ̪ ʃ ʒ ʕ a i u ə
tuni1251-1649	Tunia	tuni1251	Atlantic-Congo	Africa	9.42506	18.2059	37	24	13	0	0	0	0	1.8461538461538463	b c d h j k l m ⁿb n ⁿd r s t w ⁿg ɓ ɗ ɟ g ɲ ⁿɟ ʔ ˀɲ a ã e i ĩ o u ũ ɔ ɔ̃ ə ɛ ɛ̃
ceba1235-1650	Senari	ceba1235	Atlantic-Congo	Africa	9.50768	-6.15264	40	24	16	0	0	0	6	1.5	b d dʒ f j k kp l m n p r s t tʃ v w z ŋ g gb ʃ ʒ ʔ a aː ã ãː e i o u ɔ ɔː ɔ̃ ɔ̃ː ɛ ɛː ɛ̃ ɛ̃ː
fuli1240-1651	Fuliiru	fuli1240	Atlantic-Congo	Africa	-3.04022	28.9865	34	24	10	0	0	0	5	2.4	b d dʒ f h j k l m ⁿb n ⁿd p r s t v w z ⁿg g ɲ ʃ ʒ a aː e eː i iː o oː u uː
sand1273-1652	Sandawe	sand1273		Africa	-5.26918	35.4808	58	43	15	0	0	0	10	2.8666666666666667	b d dɮ dʒ f h j k ǀ ǀʰ ǀʼ ǁ ǁʰ ǃ ǃʰ ǃʼ kʰ kʼ l m n p pʰ s t tsʼ tɬ tɬʼ tʰ tʃ tʃʰ w x ŋǀ ŋǁ ŋǃ g gǀ gǁ gǃ ɬ ɾ ʔ a aː ãː e eː ẽː i iː ĩː o oː õː u uː ũː
tsuv1239-1653	Tsuvadi	tsuv1239	Atlantic-Congo	Africa	10.8421	5.22095	52	28	24	0	0	5	12	1.1666666666666667	b d f h j k kː l lː m mː n nː p s t tː v w z ɓ ɗ ɟ g ɲ ʃ ʒ ʔ a aː ã ãː e eː ẽ ẽː i iː ĩ ĩː o oː õ õː u uː ũ ũː ɔ ɔː ɔ̃ ɔ̃ː
ejag1239-1654	Ejagham	ejag1239	Atlantic-Congo	Africa	5.54442	8.90959	26	19	7	0	0	0	0	2.7142857142857144	b d dʒ f j k kp m n p s t tʃ w ŋ g gb ɲ ɾ a i u y ɔ ə ɛ
yemb1246-1655	Yemba	yemb1246	Atlantic-Congo	Africa	5.47421	10.0214	24	17	7	0	0	0	0	2.4285714285714284	b d f j k m n pf s t ts v w z ŋ g ʔ a e i o u ɔ ɛ
bafa1249-1656	Bafanji	bafa1249	Atlantic-Congo	Africa	5.84612	10.4518	56	26	30	0	0	0	10	0.8666666666666667	dʒ f j kʰ kʷ l m ⁿb n ⁿd ⁿdʒ p pʰ s t tʰ tʃ w z ŋ ⁿg ⁿgʷ ŋʷ ɣ ɱ ɲ a aː ã e eː ẽ i iː ĩ o oː õ u uː ũ ɐ ɐː ɐ̃ ɔ ɔː ɔ̃ ə əː ə̃ ɛ ɛː ɛ̃ ɯ ɯː ɯ̃
burj1242-1657	Burji	burj1242	Afro-Asiatic	Africa	4.44624	38.4646	36	26	10	0	0	0	5	2.6	b c d dʒ f h j kʼ l m n p pʼ r s t tʼ tʃ tʃʼ w z g ɲ ʃ ʔ ᶑ a aː e eː i iː o oː u uː
anii1245-1658	Anii	anii1245	Atlantic-Congo	Africa	9.11127	1.60169	34	23	11	0	0	0	0	2.090909090909091	b d dʒ f h j k kp l m n p r s t tʃ w ŋ ŋm g gb ɲ ʃ a e i o u ɔ ə ɛ ɨ ɪ ʊ
fipa1238-1659	Fipa	fipa1238	Atlantic-Congo	Africa	-7.88963	31.3442	34	20	14	0	0	0	7	1.4285714285714286	b d f j k l m n p s t tʃ v w z ŋ g ɲ ʃ ʒ a aː e eː i iː o oː u uː ɪ ɪː ʊ ʊː
nawu1242-1660	Nawuri	nawu1242	Atlantic-Congo	Africa	8.45116	0.04947	38	29	9	0	0	0	0	3.2222222222222223	b bʷ d dʒ f fʷ h j k kp kʷ l m mʷ n p pʷ r s sʷ t tʃ tʃʷ w ŋ ŋm g gb ɲ a e i o u u̞ ɔ ɛ ɪ
anfi1235-1661	Anfillo	anfi1235	Ta-Ne-Omotic	Africa	8.568	34.647	48	38	10	0	0	16	5	3.8	b bː d dz dː h j jː k kʼ kʼː kː l lː m mː n nː p pʼ pʼː pː r sʼ sʼː t ts tsʼ tsː tʼ tʼː tː w wː g gː ʃ ʔ a aː e eː i iː o oː u uː
ntom1248-1662	Ntomba	ntom1248	Atlantic-Congo	Africa	-1.99062	18.265	30	23	7	0	0	0	0	3.2857142857142856	b f h j k l m ⁿb ⁿp n ⁿd ⁿs ⁿt ⁿdʒ p s t ts w ⁿk ⁿg g ɲ a e i o u ɔ ɛ
tumt1243-1663	Tumtum	tumt1243	Kadugli-Krongo	Africa	10.6378	30.4128	53	39	14	0	0	14	7	2.7857142857142856	d̪ d̪ː f j jː l lː m ⁿb mː n ⁿɗ nː ⁿd̪ pf r rː s sː w wː ŋ ⁿg ŋː ɓ ɓː ɖ ɖː ɗ ɗː ɟ g gː ɲ ⁿɟ ɲː ⁿɖ ʃ ʔ a aː e eː i iː u uː ɔ ɔː ɪ ɪː ʊ ʊː
iyiv1238-1664	Iyive	iyiv1238	Atlantic-Congo	Africa	6.50437	9.53302	60	53	7	0	0	0	0	7.571428571428571	b bʷ d dz dzʷ dʲ dʒ f fʷ h hʲ hʷ j k kp kʷ lʲ lʷ m ⁿb ⁿbʷ mʷ n ⁿd ⁿdz ⁿdzʷ ⁿz ⁿdʒ p pʷ s sʷ t ts tsʷ tʲ tʷ tʃ tʃʷ v w ŋ ⁿgb ⁿg ⁿgʲ ⁿgʷ g gb gʲ gʷ ɲ ʃ ʃʷ a i o u ɔ ə ɛ
bata1293-1665	Batak Karo	bata1293	Austronesian	Papunesia	2.12787	98.2517	24	16	8	0	0	0	0	2.0	b d dʒ h k l m n p r s t tʃ w ŋ g a e i o u y ə ɯ
taga1270-1666	Tagalog	taga1270	Austronesian	Papunesia	14.06	121.747	24	19	5	0	0	0	0	3.8	b c d f h j k l m n p r s t w ŋ ɟ g ʔ a e i o u
sout2918-1667	Southern Sama	sout2918	Austronesian	Papunesia	4.755836	119.483887	23	17	6	0	0	0	0	2.8333333333333335	b d h j k l m n p s t w ŋ ɟ g ɲ ʔ a e i o u ə
kima1244-1668	Kimaragang	kima1244	Austronesian	Papunesia	6.61982	116.96	23	18	5	0	0	0	0	3.6	b d dʒ j k l m n p s t w ŋ ɓ ɗ g ɾ ʔ a e i u ɤ
bela1260-1669	Lemeting	bela1260	Austronesian	Papunesia	4.96207	114.933	25	19	6	0	1	0	0	3.1666666666666665	b c d h j k l m n p s t w ŋ ɟ g ɲ ʁ ʔ a e i iə o u
ilok1237-1670	Iloko	ilok1237	Austronesian	Papunesia	15.9361	120.993	23	17	6	0	0	0	0	2.8333333333333335	b d h j k l m n p r s t ts w ŋ g ʔ a e i u ɔ ɛ
east2563-1671	Eastern Cham	east2563	Austronesian	Eurasia	11.2853	108.49	30	21	9	0	0	0	0	2.3333333333333335	c cʰ h j k kʰ l m n p pʰ r s t tʰ w ŋ ɓ ɗ ɲ ʔ a e i o u ɔ ə ɛ ɨ
mokl1243-1672	Moklen	mokl1243	Austronesian	Eurasia	8.16761	98.3176	46	19	27	0	8	0	9	0.7037037037037037	b d h k kʰ l m n p pʰ t tʰ tʃ tʃʰ w ŋ g ɲ ʔ a au̯ ay aː e eː i ia iː o oː u uy uə uː y ɔ ɔː ə əy əː ɛ ɛo ɛː ɯ ɯə ɯː
moke1242-1673	Moken	moke1242	Austronesian	Eurasia	10.1474	98.6765	38	20	18	0	2	0	7	1.1111111111111112	b d dʒ h k kʰ l m n p pʰ t tʰ tʃ tʃʰ w ŋ g ɲ ʔ a aː e ea eː i iː o oa oː u uː y ɔ ɔː ə ɛ ɛː
nias1242-1674	Nias	nias1242	Austronesian	Papunesia	0.90691	97.4961	25	19	6	0	0	0	0	3.1666666666666665	b d dʳ dʒ f h j k m n s t tʃ v w x g ʋ ʔ a e i o u ɤ
java1254-1675	Javanese	java1254	Austronesian	Papunesia	-7.001	109.287	33	24	9	0	0	0	0	2.6666666666666665	b d dʒ f h k l m n p r s t tʃ w x z ŋ ɖ g ɲ ʃ ʈ ʔ a e i o u y ɔ ə ɛ
buol1237-1676	Buol	buol1237	Austronesian	Papunesia	0.97727	121.519	23	17	6	0	0	0	0	2.8333333333333335	b d dʒ h k l m n p r s t̪ w ŋ g ʔ β a e i o u y
maka1311-1677	Makasar	maka1311	Austronesian	Papunesia	-5.65551	119.838	23	18	5	0	0	0	0	3.6	b c d h j k l m n p r s t w ŋ ɟ g ɲ a e i o u
mori1268-1678	Mori Bawah	mori1268	Austronesian	Papunesia	-2.56016	121.37	27	22	5	0	0	0	0	4.4	b d h k l m ⁿb ⁿp n ⁿd ⁿs ⁿt p r s t ŋ ⁿk ⁿg g ʔ β a e i o u
kamb1299-1679	Kambera	kamb1299	Austronesian	Papunesia	-9.88447	120.235	29	19	10	0	2	0	3	1.9	dʒ h j k l m ⁿb n ⁿd ⁿdʒ p r t w ŋ ⁿg ɓ ɗ ɲʲ a ai au aː e i iː o u uː
tetu1245-1680	Tetum	tetu1245	Austronesian	Papunesia	-9.11217	125.528	18	13	5	0	0	0	0	2.6	b d f h k l m n r s t w ʔ a e i o u
leti1246-1681	Leti (Indonesia)	leti1246	Austronesian	Papunesia	-8.19808	127.674	22	10	12	0	0	0	5	0.8333333333333334	d k l m n p r s t β a aː e eː i iː o oː u uː ɔ ɛ
east2440-1682	East Makian	east2440	Austronesian	Papunesia	0.07337	127.423	23	18	5	0	0	0	0	3.6	b d dʒ f j k l m n p r s t tʃ w ŋ g ʔ a e i o u
biak1248-1683	Biak	biak1248	Austronesian	Papunesia	-0.9523	135.879	19	14	5	0	0	0	0	2.8	b d j k m n p r s t w g ɸ β a e i o u
ambo1250-1684	Ambonese Malay	ambo1250	Austronesian	Papunesia	-3.71342	128.184	23	18	5	0	0	0	0	3.6	b c d f j k l m n p r s t w ŋ ɟ g ɲ a e i o u
band1353-1685	Banda Malay	band1353	Austronesian	Papunesia	-4.55565	129.905	23	18	5	0	0	0	0	3.6	b c d f j k l m n p r s t w ŋ ɟ g ɲ a e i o u
mala1481-1686	Manado Malay	mala1481	Austronesian	Papunesia	1.48099	124.843	25	19	6	0	0	0	0	3.1666666666666665	b c d f j k l m n p r s t w ŋ ɟ g ɲ ʔ a e i o u ə
kupa1239-1687	Kupang Malay	kupa1239	Austronesian	Papunesia	-10.2526	123.63	25	19	6	0	0	0	0	3.1666666666666665	b c d f j k l m n p r s t w ŋ ɟ g ɲ ʔ a e i o u ə
lara1260-1688	Larantuka Malay	lara1260	Austronesian	Papunesia	-8.4746	122.7619	25	19	6	0	0	0	0	3.1666666666666665	b c d f j k l m n p r s t w ŋ ɟ g ɲ ʔ a e i o u ə
nort2828-1689	North Moluccan Malay	nort2828	Austronesian	Papunesia	-0.86437	128.323	27	21	6	0	0	0	0	3.5	b c d f j k l m n p r s t w x ŋ ɟ g ɲ ʃ ʔ a e i o u ə
indo1316-1690	Indonesian	indo1316	Austronesian	Papunesia	-7.33458	109.716	31	23	8	0	0	0	0	2.875	b d dʒ f h k l m n p r s t tʃ v w x z ŋ g ɲ ʃ ʔ a e i o u y ə ɛ
nucl1460-1691	Madurese	nucl1460	Austronesian	Papunesia	-7.0	113.0	35	27	8	0	0	0	0	3.375	b c cʰ d̪ f h j k kʰ l m n p pʰ r s t̪ t̪ʰ w ŋ ɖ ɟ g ɲ ʈ ʈʰ ʔ a i u ɔ ə ɛ ɤ ɨ
cebu1242-1692	Cebuano	cebu1242	Austronesian	Papunesia	8.38799	124.367	21	18	3	0	0	0	0	6.0	b d dʒ h j k l m n p r s t tʃ w ŋ g ʔ a i u
bali1278-1693	Balinese	bali1278	Austronesian	Papunesia	-8.35714	115.075	24	18	6	0	0	0	0	3.0	b d dʒ h j k l m n p r s t tʃ w ŋ g ɲ a e i o u ə
bugi1244-1694	Buginese	bugi1244	Austronesian	Papunesia	-4.47	119.977	25	19	6	0	0	0	0	3.1666666666666665	b d dʒ h j k l m n p r s t tʃ w ŋ g ɲ ʔ a e i o u ə
cent2087-1695	Coastal-Naga Bikol	cent2087	Austronesian	Papunesia	13.7574	123.403	28	23	5	0	0	0	0	4.6	b d dz f j k l m n p r s t ts v w z ŋ g ɲ ʃ ʎ ʔ a e i o u
hili1240-1696	Hiligaynon	hili1240	Austronesian	Papunesia	10.4018	122.974	25	20	5	0	0	0	0	4.0	b d dʒ f h j k l m n p r s t tʃ v w ŋ g ʔ a e i o u
pamp1243-1697	Pampanga	pamp1243	Austronesian	Papunesia	14.9603	120.502	22	17	5	0	0	0	0	3.4	b d dʒ h k l m n p r s t tʃ w ŋ g ʔ a e i o u
mina1268-1698	Minangkabau	mina1268	Austronesian	Papunesia	-0.896	100.44	33	23	10	0	5	0	0	2.3	b d dʒ f h j k l m n p r s t tʃ w x z ŋ g ɲ ʃ ʔ a ai̯ au e i iə o u ui̯ uə
pang1290-1699	Pangasinan	pang1290	Austronesian	Papunesia	15.9377	120.365	21	16	5	0	0	0	0	3.2	b d dʒ j k l m n p s t tʃ w ŋ g ʔ a e i o u
teng1272-1700	Tengger	teng1272	Austronesian	Papunesia	-7.89069	113.037	42	20	22	0	0	0	0	0.9090909090909091	h j k l m ⁿp n ⁿt ⁿtʃ p r t tʃ w ŋ ⁿk ɲ ⁿʈ ʈ ʔ e e̤ i i̤ o o̤ u ṳ ɑ ɑ̤ ɒ ɒ̤ ɔ ɔ̤ ə ə̤ ɛ ɛ̤ ɪ ɪ̤ ʊ ʊ̤
amha1245-2156	Amharic	amha1245	Afro-Asiatic	Africa	11.708182	39.543456	68	61	7	0	0	29	0	8.714285714285714	b bʷ bʷː bː d dː dʒ dʒː f fʷ fʷː fː h hː j jː k kʷ kʼʷ kʼʷː kʷː kː l lː m mʷ mʷː mː n nː p pʼʷ pʼ pʼː r rː s sː t tʼ tʼː tː tʃ tʃʼ tʃʼː tʃː w wː z zː ŋ ŋː g gʷ gʷː gː ɲ ʃ ʃː ʒ ʒː a e i o u ə ɨ
stan1318-2157	Standard Arabic	stan1318	Afro-Asiatic	Eurasia	27.9625	43.8525	37	29	8	0	2	0	3	3.625	b d̙ˤ d̪ dʒ f h j kʰ l lˤ m n̪ q r s s̙ˤ t̪ʰ t̪̙ˤ w xʀ̥ z ð ð̙ˤ ħ ɣ ʃ ʔ ʕ̙ θ a ai au aː i i̯ː u u̯ː
east2379-2158	Eastern Arrernte	east2379	Pama-Nyungan	Australia	-23.3583	135.046	31	27	4	0	0	0	0	6.75	bⁿ dⁿ d̪ⁿ j k kⁿ l lʲ l̪ m n n̪ p t tʲ t̪ w ŋ ȵ ȶⁿ ɖⁿ ɭ ɰ ɳ ɻ ɾ ʈ a i u ə
assa1263-2159	Assamese	assa1263	Indo-European	Eurasia	26.0876	91.2932	33	23	10	0	0	0	0	2.3	b bʱ d dʱ h j k kʰ l m n p pʰ s t tʰ w x z ŋ g gʱ ɹ i o u ɑ ɑ̃ ɔ ə ɛ ʊ ʊ̃
bard1255-2160	Bardi	bard1255	Nyulnyulan	Australia	-16.6274	122.906	25	18	7	0	0	0	3	2.5714285714285716	c̻ j j̻ k l m n p r t w ŋ ɭ̺ ɲ̻ ɳ̺ ɻ̺ ʈ̺ ʎ̻ a aː i iː o u uː
basq1248-2161	Basque	basq1248		Eurasia	43.2787	-1.31622	33	23	10	0	5	0	0	2.3	b c d̪ f j k l m n p r s̪̻ s̺ tʃ t̪ ts̪̻ ts̺ x g ɲ ɾ ʃ ʎ a ai̯ au̯ e ei̯ eu̯ i o oi̯ u
beng1280-2162	Bengali	beng1280	Indo-European	Eurasia	24.0	90.0	72	49	23	0	15	21	1	2.130434782608696	b bʱ bʱː bː d dʑ dʑʱ dʑʱː dʑː dʱ dː d̪ d̪ʱ d̪ʱː d̪ː f h k kʰ kʰː kː l lː m mː n nː p pː s t tɕ tɕʰ tɕʰː tɕː tʰ tʰː tː t̪ t̪ʰ t̪ʰː t̪ː ŋ g gʱ gː ɹ ʃ ʃː a ae ai ao au e ei eu i iu o oe oi oː ou u ui ɔ ɔe ɔo ɛ ɛe ɛo
bulg1262-2163	Bulgarian	bulg1262	Indo-European	Eurasia	43.3646	25.047	30	23	7	0	0	0	0	3.2857142857142856	b d̟ dz̟ dʒ̟ f j k l̟ m n p r̟ s̟ t̟ ts̟ tʃ̟ v x z̟ g ɣ ʃ ʒ a i o u ɐ ɔ ɛ
yuec1235-2166	Yue Chinese	yuec1235	Sino-Tibetan	Eurasia	23.0	113.0	42	21	21	0	10	0	0	1.0	f h j k kʰ kʷ kʷʰ l m n p pʰ r s t ts tsʰ tʰ w ŋ β aːĭ aːŭ a̞ ei i iːŭ ou u uːĭ y œ̞ ɐ ɐi ɐu ɔːĭ ɔ̽ ɛ ɪ̞ ɵ ɵy ʊ̟
dani1285-2167	Danish	dani1285	Indo-European	Eurasia	54.8655	9.36284	69	20	49	0	34	0	0	0.40816326530612246	b̥ b̥ʰ d̥ dz̥ f h j l m n r s w ɹ̪ ŋ ɕ g̊ g̊ʰ ʁ̞ ʋ a e eu̯ eʌ̯ i iu̯ iʌ̯ i̯a i̯e i̯o i̯u i̯y i̯æ i̯ø i̯œ i̯œ̞ i̯ɑ i̯ɒ i̯ɔ i̯ɛ i̯ʌ o oʌ̯ u ui̯ uʌ̯ y yu̯ yʌ̯ æ æu̯ æʌ̯ ø øu̯ øʌ̯ œ œi̯ œu̯ œ̞ œ̞ʌ̯ ɑ ɑi̯ ɑu̯ ɒ ɒu̯ ɔ ɛ ɛu̯ ʌ
sout2832-2168	Southwestern Dinka	sout2832	Nilotic	Africa	8.81115	28.0613	59	20	39	0	0	0	26	0.5128205128205128	b c d d̪ j k l m n n̪ p r t t̪ w ŋ ɟ g ɰ ɲ a aː aˑ a̤ a̤ː a̤ˑ e eː eˑ e̤ e̤ː e̤ˑ i iː iˑ i̤ i̤ː i̤ˑ o oː oˑ o̤ o̤ː o̤ˑ ṳ ṳː ṳˑ ɔ ɔː ɔˑ ɔ̤ ɔ̤ː ɔ̤ˑ ɛ ɛː ɛˑ ɛ̤ ɛ̤ː ɛ̤ˑ
dutc1256-2169	Dutch	dutc1256	Indo-European	Eurasia	52.0	5.0	37	22	15	0	3	0	5	1.4666666666666666	b d f j k l m n p r s t v w x z ŋ ɣ ɦ ʃ ʒ ʔ aː eː i oː u yː øː œy ɑ ɔ ɔu ɛ ɛi ɪ ʏ
dutc1256-2170	Dutch	dutc1256	Indo-European	Eurasia	52.0	5.0	55	22	33	0	7	0	15	0.6666666666666666	b d dʒ f h j k l m n p r s t v x z ŋ g ɣ ʃ β̞ aɪ aː eɪ eː i iː ou oː u uɪ uː y yː æ æ̃ː ø øɪ øː œ œː œ̃ː ɑ ɑː ɑ̃ː ɔ ɔɪ ɔː ɔ̃ː ə ɛ ɛː ɪ ɪə
dutc1256-2173	Dutch	dutc1256	Indo-European	Eurasia	52.0	5.0	58	22	36	0	13	0	12	0.6111111111111112	b d f j k l m n p s t v x z ŋ ɣ ɦ ʀ ʃ ʒ ʔ β̞ aː eː i iː iːə oː oːə u uː uːə y yː yːə æ æː øː œ œy œyː œː ɑ ɑu ɑuː ɑː ɔ ɔu ɔuː ɔː ɔːə ə ɛ ɛi ɛiː ɛː ɪ ʏ
dutc1256-2174	Dutch	dutc1256	Indo-European	Eurasia	52.0	5.0	57	24	33	0	12	0	10	0.7272727272727273	b d f h j k kʲ l m n p pʲ r s t tʲ v x z ŋ ɣ ʃ ʒ β̞ a aɪ aʊ aː ei eə eː iə iː o oː uɪ uː y yː øy øː œ œʏ œː ɒ ɒː ɔ ə əʊ ɛ ɛə ɛɪ ɛː ɞʊ ɪ ʊ ʏ
stan1293-2175	English	stan1293	Indo-European	Eurasia	53.0	-1.0	39	24	15	0	6	0	2	1.6	b d dʒ f h j kʰ l m n pʰ s tʰ tʃ v w z ð ŋ g ɹ ʃ ʒ θ aɪ aʊ eɪ̯ iɪ oʊ uː æ ɑ ɔɪ ə ə˞ː ɛ ɪ ʊ ʌ
stan1293-2176	English	stan1293	Indo-European	Eurasia	53.0	-1.0	39	24	15	0	5	0	0	1.6	b d dʒ f h j kʰ l m n pʰ s tʰ tʃ v w z ð ŋ g ɹ ʃ ʒ θ aɪ aʊ ei i oʊ u æ ɑ ɔ ɔɪ ə˞ ɛ ɪ ʊ ʌ
stan1293-2177	English	stan1293	Indo-European	Eurasia	53.0	-1.0	44	25	19	0	7	0	6	1.3157894736842106	b d dʒ f h j k kʰ l m n pʰ s tʰ tʃ v w z ð ŋ g ɹ ʃ ʒ θ e eː iː oɪ oː æ æɔ æɪ ɐ ɐː ɑe ɔ əʉ ɜː ɪ ɪə ʉː ʊ ʊə
stan1293-2178	English	stan1293	Indo-European	Eurasia	53.0	-1.0	40	24	16	0	5	0	5	1.5	b d dʒ f h j kʰ l m n pʰ s tʰ tʃ v w z ð ŋ g ɹ ʃ ʒ θ a aɪ aʊ eɪ eː iː ɑː ɒ ɔɪ ɔː ə ɛ ɛʉ ɪ ʉː ʊ
stan1293-2179	English	stan1293	Indo-European	Eurasia	53.0	-1.0	45	24	21	0	9	0	5	1.1428571428571428	b d dʒ f h j kx l m n pʰ s ts tʃ v w z ð ŋ g ɹ ʃ ʒ θ e eə i iə iː oe oː æe æo ɐ ɐʉ ɐː ɑe ɒ ɒɯ ɘ ɛ ɵː ʉə ʉː ʊ
stan1293-2180	English	stan1293	Indo-European	Eurasia	53.0	-1.0	39	24	15	0	0	0	9	1.6	b d dʒ f h j k l m n pʰ s tʰ tʃ v w z ð ŋ g ɹ ʃ ʒ θ a aː eː iː oː uː øː ɒ ɒː ɔː ə ɛ ɛː ɪ ʊ
esto1258-2181	Estonian	esto1258	Uralic	Eurasia	58.55	25.82	54	45	9	0	0	28	0	5.0	f fː fˑ h j k kː kˑ l lʲ lʲː lʲˑ lː lˑ m mː mˑ n nʲ nʲː nʲˑ nː nˑ p pː pˑ r rː rˑ s sʲ sʲː sʲˑ sː sˑ t tʲ tʲː tʲˑ tː tˑ v ʃ ʃː ʃˑ e i o u y æ ø ɑ ɤ
stan1290-2182	French	stan1290	Indo-European	Eurasia	48.0	2.0	36	21	15	0	0	0	0	1.4	b d̪ f j k l̪ m n p s̪ t̪ v w z̪ ŋ g ɥ ɲ ʁ ʃ ʒ a e i o u y ø œ ɑ ɑ̃ ɔ ɔ̃ ə ɛ ɛ̃
nucl1302-2183	Georgian	nucl1302	Kartvelian	Eurasia	41.850397	43.78613	33	28	5	0	0	0	0	5.6	b dz dʒ d̪ h kʰ kʼ l m n pʰ pʼ qʼ s ts tsʼ tʃ tʃʼ t̪ʰ t̪ʼ v x z g ɣ ɾ ʃ ʒ i u ɑ ɔ ɛ
stan1295-2184	German	stan1295	Indo-European	Eurasia	48.649	12.4676	40	21	19	0	3	0	7	1.105263157894737	b d f h j kʰ l m n pʰ s tʰ v x z ŋ g ʁ ʃ ʒ ʔ a aɪ aʊ aː e iː oː uː y øː œ ɔ ɔɪ ə ɛ ɛː ɪ ʊ ʏː
swis1247-2185	Central Alemannic	swis1247	Indo-European	Eurasia	47.0516	8.46419	56	27	29	0	8	0	10	0.9310344827586207	f f̚ h j k kx k̚ l m n p pf p̚ r s s̚ t ts tʃ t̚ x x̚ ŋ ʃ ʃ̚ ʋ ʔ e ei̯ eː i iə̯ iː o oi̯ ou̯ oː u uə̯ uː y yə̯ yː æ æi̯ æu̯ æː ø øː œ œː ɒ ɒː ə ɛ ɛː
mode1248-2186	Modern Greek	mode1248	Indo-European	Eurasia	38.36	23.13	41	36	5	0	0	18	0	7.2	f fː k kʰː l lː m mː n̪ n̪ː p pʰː rː s sː tʃ tʃʰː t̪ t̪ʰː v vː x xː z zː ð ðː ɣ ɣː ɾ ʃ ʃː ʒ ʒː θ θː i u ɐ ɔ ɛ
mode1248-2187	Modern Greek	mode1248	Indo-European	Eurasia	38.36	23.13	23	18	5	0	0	0	0	3.6	b d̪ f k l m n̪ p s t̪ v x z ð g ɣ ɾ θ i o u ɐ ɛ
haus1257-2188	Hausa	haus1257	Afro-Asiatic	Africa	11.1513	8.7804	42	32	10	0	0	0	5	3.2	b d dʒ h j k kʲ kʼʲ kʷ kʼʷ kʼ l m n r s t tsʼ tʃ tʃʼ w z ɓ ɗ g gʲ gʷ ɸ ɽ ʃ ʔ ʔʲ aː e eː i iː o oː u uː ə
hebr1245-2189	Modern Hebrew	hebr1245	Afro-Asiatic	Eurasia	31.1056	35.0179	27	22	5	0	0	0	0	4.4	b d f h j k l m n p r s t v z ħ g ʃ ʒ ʔ ʕ χ a e i o u
hind1269-2190	Hindi	hind1269	Indo-European	Eurasia	25.0	77.0	74	63	11	0	0	29	0	5.7272727272727275	b bː bʱ dʒ dʒː dʒʱ dʒʱː d̪ d̪ː d̪ʱ d̪ʱː f fː h j k kʰ kʰː kː l lː m mː n nː p pʰ pʰː pː rː s sː tʃ tʃʰ tʃʰː tʃː t̪ t̪ʰ t̪ʰː t̪ː z zː ŋ ŋː ɖ ɖː ɖʱ ɖʱː g gː gʱ gʱː ɽ ɽʱ ɾ ʃ ʃː ʈ ʈʰ ʈʰː ʈː ʋ ʋː e i o u æ ɑ ɔ ə ɛ ɪ ʊ
iris1253-2193	Irish	iris1253	Indo-European	Eurasia	53.2186	-7.61509	50	35	15	0	3	0	6	2.3333333333333335	bʲ bˠ cʰ dz̠ʲ d̪ˠ fʲ fˠ h j kʰ l l̠ʲ l̪ˠ mʲ mˠ n n̠ʲ n̪ˠ pʲʰ pˠʰ sˠ ts̠ʲʰ t̪ˠʰ vʲ w x ç ŋ ɕ ɟʝ g ɣ ɲ ɾʲ ɾˠ a au eː ia iː oː ua uː æː ɔː ə ɛ ɤ ɪ ʌ
ladi1251-2194	Ladino	ladi1251	Indo-European	Eurasia	41.205	28.6632	34	20	14	0	9	0	0	1.4285714285714286	b dʒ d̻ f j k l m n p r s tʃ t̻ v x z g ʃ ʒ a ai̯ e ei̯ i ia ie io o oi̯ u ua ue ui̯
nucl1643-2196	Japanese	nucl1643	Japonic	Eurasia	35.0	135.0	21	16	5	0	0	0	0	3.2	b d d̠ h j k m n p s t ts w z g ɴ a e i o u
kore1280-2197	Korean	kore1280	Koreanic	Eurasia	37.5	128.0	48	20	28	0	12	1	8	0.7142857142857143	h k kʰ k̚ l lː m n p pʰ p̚ s s̚ t tɕ tɕʰ tʰ t̚ tɕ̚ ŋ a aː e eː i ia ie io iu iɛ iʌ iː o oː u ua ue ui uɛ uʌ uː əː ɛ ɛː ɯ ɯi ɯː ʌ
kuna1268-2198	Kunama	kuna1268		Africa	14.5879	37.5292	31	23	8	0	3	0	0	2.875	b dʒ d̪ f h j k kʷ l m n r s tʃ t̪ z ŋ g gʷ ɲ ʃ ʎ β̞ e i o oi u ɑ ɑi ɑu
ersu1241-2199	Ersu	ersu1241	Sino-Tibetan	Eurasia	29.2867	102.213	59	51	8	0	0	0	0	6.375	b d dz dʑ dʒ h j k kʰ l m ⁿb ⁿpʰ n ⁿd ⁿdz ⁿtsʰ ⁿtʰ ⁿdʒ ⁿtʃʰ p pʰ q qʰ s t ts tsʰ tɕ tɕʰ tʰ tʃ tʃʰ x z ⁿg ŋ̍ ɕ g ɣ ɬ ɲ ⁿdʑ ⁿtɕʰ ⁿqʰ ɹ ʃ ʑ ʒ ʔ β̞ e i o u y æ ɐ ə
luxe1241-2200	Moselle Franconian	luxe1241	Indo-European	Eurasia	49.6839	6.14931	46	24	22	0	8	0	6	1.0909090909090908	f h j kʰ k̚ l m n pʰ p̚ s ts tʰ tʃ t̚ v w z ŋ ʀ ʁ ʃ ʒ χ aː e eː i iə iː o oː u uə uː æ æːɪ æːʊ ɐ ɑ ɑɪ ɑʊ ə əʊ ɛː ɜɪ
besi1244-2201	Besisi	besi1244	Austroasiatic	Eurasia	2.717	101.676	58	30	28	0	0	0	0	1.0714285714285714	b dʑ d̺ h j k kʰ l l̥ m m̥ n n̥ p pʰ s tɕ tɕʰ t̻ t̻ʰ w ŋ ŋ̊ g ɰ ɲ ɲ̊ ɾ ʍ ʔ e ẽ e̤ i ĩ i̤ o õ o̤ u ũ ṳ ɑ ɑ̃ ɑ̤ ɔ ɔ̃ ɔ̤ ə ə̠̃ ə̤ ɛ ɛ̃ ɛ̤ ɨ̞ ɯ ɯ̃ ɯ̤
mafe1237-2202	Mafea	mafe1237	Austronesian	Papunesia	-15.4316	167.241	24	19	5	0	0	4	0	3.8	k l lː m mː n̼ n nː p t̼ r rː s t v ð̼ ŋ ɖ ɰ e i o u ɑ
nara1262-2203	Nara	nara1262		Africa	15.3251	37.499	53	43	10	0	0	17	5	4.3	b bː dʑ̟ dʑ̟ː d̪ d̪ː f fː h hː j jː k kʷ kː l lː m ⁿb mː n̪ ⁿd̪ n̪ː rː s sː tɕ̟ tɕ̟ː t̪ t̪ː w wː z ŋ ɕ̟ ɕ̟ː g gʷ gː ɲ ⁿg ⁿgʷ ɾ e eː i iː o oː u uː ɑ ɑː
nepa1254-2204	Nepali	nepa1254	Indo-European	Eurasia	28.0	85.0	74	53	21	0	10	26	0	2.5238095238095237	b bː bʱ bʱː dz dzː dzʱ dzʱː d̪ d̪ː d̪ʱ d̪ʱː k kʰ kʰː kː l lː m mː n nː p pʰ pʰː pː r rː s sː ts tsʰ tsʰː tsː t̪ t̪ʰ t̪ʰː t̪ː ŋ ŋː ɖ ɖː ɖʱ ɖʱː g gː gʱ gʱː ɦ ʈ ʈʰ ʈʰː ʈː a ai au ã e ei eu ẽ i iu ĩ o oi ou u ui ũ ʌ ʌi ʌu ʌ̃
west2369-2205	Western Farsi	west2369	Indo-European	Eurasia	32.9	53.3	29	23	6	0	0	0	0	3.8333333333333335	b d dʒ f h j kʰ l m n pʰ r s tʰ tʃ v x z g ɣ ʃ ʒ ʔ e i o u æ ɒ
port1283-2206	Portuguese	port1283	Indo-European	Eurasia	39.91	-8.1	47	19	28	0	14	0	0	0.6785714285714286	b d̪ f k l̪ˠ m n̪ p s t̪ v z g ɲ ɾ ʁ ʃ ʎ ʒ a ai au̜ e eu̜ ẽ i iu̜ ĩ o oi õ õi u ui ũ ũi ɐ ɐi ɐ̃ ɐ̃i ɐ̃u̜ ɔ ɔi ɛ ɛi ɛu̜ ɯ
cent2092-2208	Central Sama	cent2092	Austronesian	Papunesia	7.004574	118.455978	36	30	6	0	0	13	0	5.0	b bː d dː dʒ dʒː h j jː k kː l lː m mː n nː p pː s sː t̪ t̪ː w ŋ ŋː g gː ɲ ʔ a e i o u ə
slov1269-2209	Slovak	slov1269	Indo-European	Eurasia	48.545705	18.78479	44	29	15	0	4	2	5	1.9333333333333333	b c d dz dʒ f j k l lː m n p r rː s t ts tʃ v x z ɟ g ɦ ɲ ʃ ʎ ʒ a aː i̞ i̞ː u̞ u̞ː æ ɔ ɔː ɛ ɛː ɪ̯a ɪ̯u̞ ɪ̯ɛ ʊ̯ɔ
sumi1235-2211	Sumi Naga	sumi1235	Sino-Tibetan	Eurasia	25.9996	94.4235	38	32	6	0	0	0	0	5.333333333333333	b d f h k kʰ l lʱ m mʱ n nʱ p pʰ q qʰ s t ts tsʰ tʰ tʃ tʃʰ v x z ŋ g ɣ ɹ ʃ ʒ a e i o u ɨ
taus1251-2212	Tausug	taus1251	Austronesian	Papunesia	5.12236	118.88	23	20	3	0	0	0	0	6.666666666666667	b d dʒ h j k l m n p r s tʃ t̪ w z ŋ g ɲ ʔ a i u
timn1235-2213	Timne	timn1235	Atlantic-Congo	Africa	8.90294	-12.3331	34	19	15	0	6	0	0	1.2666666666666666	b d f h j k l m n p r s t tʃ t̪ w ŋ gb ʃ a ai̯ e ei̯ i o oi̯ u ui̯ ɔ ɔi̯ ə ɛ ɜ ʌi̯
tera1251-2214	Tera	tera1251	Afro-Asiatic	Africa	11.0376	11.80953	50	35	15	0	4	0	5	2.3333333333333335	b d dʒ f h j k l m ⁿb n ⁿd ⁿdʒ p r s t tʃ v w x z ŋ ⁿg ɓ ɗ ɠ g ɣ ɬ ɮ ɲ ʃ ʒ ʔʲ a ai au aː e eu eː i iː o oi oː u uː ɨ
thai1261-2215	Thai	thai1261	Tai-Kadai	Eurasia	14.192	100.671	42	21	21	0	3	0	9	1.0	b d f h j k kʰ l m n p pʰ s t tɕ tɕʰ tʰ w ŋ ɾ ʔ a aː e eː i ia iː o oː u ua uː ɔ ɔː ɛ ɛː ɤ ɤː ɯ ɯa ɯː
sanm1298-2216	San Martín Itunyoso Triqui	sanm1298	Otomanguean	North America	17.2428	-97.9202	39	31	8	0	0	10	0	3.875	cⁿ h j jː k kʷ kʷː kː l lː m mː n ⁿd nː p s̪ tʃ tʃː t̪ ts̪ t̪ː ⁿg ⁿgʷ ɾ ʃ ʈʂ ʈʂː ʔ β βː a e i ĩ o u ũ ə̃
nucl1301-2217	Turkish	nucl1301	Turkic	Eurasia	39.8667	32.8667	36	24	12	0	0	0	4	2.0	b c dʒ d̪ f h j k lʲ l̪ˠ m n̪ p s̪ tʃ t̪ v z̪ ɟ g ɣ ɾ ʃ ʒ a aː e eː i iː o u uː y œ ɯ
isth1244-2218	Isthmus Zapotec	isth1244	Otomanguean	North America	16.4548	-94.8444	29	22	7	0	2	2	0	3.142857142857143	j k k̚ l lː m n nː p p̚ r s s̚ t tʃ tʃ̚ t̚ w ɲ̟ ɾ ʃ ʃ̚ e i iɑ ḭu o u ɑ
taji1245-2219	Tajik	taji1245	Indo-European	Eurasia	38.8213	68.5549	29	23	6	0	0	0	0	3.8333333333333335	b dʑ d̻ f h j k l m n p q s tɕ t̻ v x z ɕ̟ g ɾ ʁ ʑ̟ e i o u ɑ ɵ
kera1255-2220	Kera	kera1255	Afro-Asiatic	Africa	9.88165	15.1419	30	24	6	0	0	0	0	4.0	b d dʒ f h j k l m n p s t tʃ v w z ŋ ɓ ɗ g ɾ ʔ ⱱ a e i o u ɨ
kumz1235-2221	Kumzari	kumz1235	Indo-European	Eurasia	26.1602	56.4202	35	27	8	0	0	0	5	3.375	b d dˠ dʒ f j k l m n p q s sˠ t tˠ tʃ w zˠ ħ g ɦ ɻ ʁ ʃ ʔ χ aː eː iː i̽ oː uː ɐ̟ ʊ̽
coco1260-2222	Cocos Islands Malay	coco1260	Austronesian	Papunesia	-12.193342	96.833679	27	19	8	0	2	0	0	2.375	b d dʒ h j k l m n p s tʃ t̪ w ŋ g ɲ ʁ ʔ a ai au e i o u ə
stan1306-2223	Standard Malay	stan1306	Austronesian	Eurasia	3.08896	101.699	30	24	6	0	0	0	0	4.0	b d dʒ f h j k l m n p r s t tʃ v w x z ŋ g ɲ ʃ ʔ a e i o u ə
keda1250-2225	Kedayan	keda1250	Austronesian	Papunesia	4.456045	114.429505	22	18	4	0	0	0	0	4.5	b d dʒ h j k l m n p s tʃ t̪ w ŋ g ɲ ɾ a i o u
pitj1243-2226	Pitjantjatjara	pitj1243	Pama-Nyungan	Australia	-26.9704	131.357	25	17	8	0	2	0	3	2.125	c̟̻ j k l m n p r t w ŋ ɭ̟ ɲ̟̻ ɳ̟ ɻ̟ ʈ̟ ȴ̻ ɐ ɐɪ ɐʊ ɐː ɪ ɪː ʊ ʊː
sout2672-2227	Southeast Pashayi	sout2672	Indo-European	Eurasia	34.43099	70.30351	40	29	11	0	0	0	5	2.6363636363636362	b d dʒ f h j k l m n p q r s t tʃ w x z ɖ g ɣ ɬ ɳ ɽ ʂ ʃ ʈ ʒ a e eː i iː o oː uː ɑ ɑː ʊ
vlax1238-2228	Vlax Romani	vlax1238	Indo-European	Eurasia	46.09	18.16	39	27	12	0	4	0	0	2.25	b d dʒ f j k kʰ l m n p pʰ s t tʰ tʃ tʃʰ v z ð g ɣ ɾ ʃ ʒ θ χ e ei i o oi y œ ɑ ɑi ɯ ʊ ʊi
tach1250-2229	Tachelhit	tach1250	Afro-Asiatic	Africa	29.7854	-7.77879	74	71	3	0	0	34	0	23.666666666666668	b bː d̪ d̪ː d̪ˤ d̪ˤː f fː h hː j jː k kʷ kʷː kː l̪ l̪ː l̪ˤ l̪ˤː m mː n̪ n̪ː n̪ˤ q qʷ qʷː qː r̪ r̪ː r̪ˤ r̪ˤː s̪ s̪ː s̪ˤ s̪ˤː t̪ t̪ː t̪ˤ t̪ˤː w wː z̪ z̪ː z̪ˤ z̪ˤː g gʷ gʷː gː ʁ ʁʷ ʁʷː ʁː ʃ ʃː ʃˤ ʒ ʒː ʒˤ ʒˤː ʔ ʕ ʕː ʜ ʜː χ χʷ χʷː χː a i u
shix1238-2230	Shixing	shix1238	Sino-Tibetan	Eurasia	28.3895	100.4	64	51	13	0	0	0	0	3.923076923076923	b d dz dʑ dʒ h j k kʰ l l̥ m m̥ n n̥ p pʰ q qʰ s t ts tsʰ tɕ tɕʰ tʰ tʃ tʃʰ w x z ŋ ŋ̊ ɕ ɖʐ g ɢ ɣ ɦ ɲ̟ ɲ̟̥ ɹ ɹ̩ ʁ ʃ ʈʂ ʈʂʰ ȴ ȴ̥ ʑ ʒ e i ĩ o õ u ɐ ɐ̃ ɑ ɑ̃ ɛ ɛ̃ ʉ
shix1238-2231	Shixing	shix1238	Sino-Tibetan	Eurasia	28.3895	100.4	65	51	14	0	0	0	0	3.642857142857143	b d dz dʑ h j k kʰ l l̥ m m̥ n ⁿb ⁿd ⁿdz ⁿdʑ ⁿg n̥ p pʰ q qʰ s t ts tsʰ tɕ tɕʰ tʰ w x z ŋ ɕ ɖʐ g ɦ ɲ̟̥ ⁿɖʐ ɹ ɹ̩ ʁ ʂ ʈʂ ʈʂʰ ȴ ȴ̥ ʐ ʑ χ e i ĩ o u ũ ɐ ɐ̃ ɔ ɔ̃ ɛ ɛ̃ ɜ ʉ
uppe1400-2232	Central East Middle German	uppe1400	Indo-European	Eurasia	51.152	12.692	35	16	19	0	3	0	11	0.8421052631578947	f h j k kʰ l̪ m n̪ p s̪ t̪ ŋ ʁ̞ ʃ ʋ χ ae̯ aɵ̯ eː iː oˤː ɑˤː ɔˤː ɛ ɛː ɞ ɞʏ̯ ɪ ɵ ɵː ʉː ʊˤː ʌ ʌː ʌˤː
pite1240-2234	Pite Saami	pite1240	Uralic	Eurasia	66.4011	17.4261	52	43	9	0	1	21	1	4.777777777777778	f fː h j jː k kː l lː m mː n nː p pː r rː s sː t ts tsː tː tʃ tʃː v vː ŋ ŋː ɲ ɲː ʃ ʃː ʰk ʰkː ʰp ʰpː ʰt ʰts ʰtsː ʰtː ʰtʃ ʰtʃː a aː e i o u ua ɔ ɛ
nort2671-2235	North Saami	nort2671	Uralic	Eurasia	68.725	22.1113	74	63	11	0	1	31	5	5.7272727272727275	b bː d dz dzː dː dʒ dʒː f fː h j jː k kː l lː m mː n nː p pː r rː s sː t ts tsː tː tʃ tʃː v vː ð ðː ŋ ŋː g gː ɲ ɲː ʃ ʃː ʎ ʎː ʰk ʰkː ʰp ʰpː ʰt ʰts ʰtsː ʰtː ʰtʃ ʰtʃː ˀm ˀmː ˀn ˀnː ˀɲ ˀɲː a aː e eː i iː o oː u ua uː
belh1239-2236	Belhariya	belh1239	Sino-Tibetan	Eurasia	26.9972	87.2783	36	28	8	0	0	0	0	3.5	b bʱ d dz dzʱ dʱ h j k kʰ l m n n̩ p pʰ r rʱ s t ts tsʰ tʰ w ŋ g gʱ ʔ a e i ĩ o u ũ ʌ
hunz1247-2237	Hunzib	hunz1247	Nakh-Daghestanian	Eurasia	42.0808	46.1369	60	36	24	0	0	3	8	1.5	b cç cçʼ d h k kʼ l m n p pʼ q qʼ r s t ts tsʼ tɬ tɬʼ tɬʼː tɬː tʼ tʼː x z ç ħ g ɬ ʁ ʔ ʕ ʝ χ a aː ã i iː ĩ o oː õ u uː ũ ɑ ɑː ɑ̃ ə əː ə̃ ɛ ɛː ɛ̃ ɨ ɨː ɨ̃
even1259-2238	Evenki	even1259	Tungusic	Eurasia	61.972	94.689	29	18	11	0	0	0	6	1.6363636363636365	b dʒ d̪ h j k l m n p r s tʃ t̪ ŋ g ɲ β a aː eː i iː o oː u uː ə əː
