ID	Name	Glottocode	Family	Macroarea	Latitude	Longitude	Sounds	Consonants	Vowels	Clusters	Diphthongs	LongConsonants	LongVowels	Ratio	Phonemes
abuj1237-1701	Abujmaria	abuj1237	Dravidian	Eurasia	19.7875	79.9144	39	22	17	0	0	0	10	1.2941176470588236	b cç d̪ h j k l m n p r r̠ʲ s t̪ w ŋ ɖ ɟʝ g ɲ ɳ ʈ a aː aˑ e eː eˑ i iː iˑ o oː oˑ u uː uˑ ə ɨ
apuc1241-1702	Apucikwar	apuc1241	Great Andamanese	Eurasia	12.241	92.7965	35	25	10	0	0	0	0	2.5	b c d̪ j k̙ l m n p r s tʰ t̪ t̪ʰ w ŋ ɖ ɟ ɲ ɳ ɾ ʈ ʈʰ θ χ a e i o u ɔ ə ɛ ɪ ɯ
anga1288-1703	Angami Naga	anga1288	Sino-Tibetan	Eurasia	25.6841	93.8668	44	38	6	0	0	0	0	6.333333333333333	b bv cç d dz f h j jʱ k kʰ l lʱ m mʱ n nʱ p pf pʰ r rʱ s t ts tʰ v w wʱ z ç ŋ ɟʝ g ɱ ɲ ɲʱ ʝ a e i o u ə
aona1235-1704	Ao Naga	aona1235	Sino-Tibetan	Eurasia	26.3241	94.3824	32	24	8	0	0	0	0	3.0	b cç d j k kʰ l lʱ m n p pʰ s t ts tʰ w z ç ŋ ɟʝ g ɾ ʔ a e i o u ɔ ə ɯ
apat1240-1705	Apatani	apat1240	Sino-Tibetan	Eurasia	27.1933	93.7284	37	24	13	0	0	0	1	1.8461538461538463	b bʲ cç d h j k l lʲ m mʲ n nʲ p pʲ s t ŋ ɟʝ g gʲ ɲ ɾ β a e i o u ũː æ ə ɛ ɨ ɯ ʊ̃ ʌ
assa1263-1706	Assamese	assa1263	Indo-European	Eurasia	26.0876	91.2932	37	22	15	0	0	0	1	1.4666666666666666	b bʱ d̪ d̪ʱ j k kʰ l m n̪ p pʰ r s t̪ t̪ʰ w z ŋ g gʱ ɦ a e ẽ̞ i o õ̞ u ũː u̞ æ̞̃ ɔ ɛ ɪ̃ ʊ̃ ʌ̃
awad1243-1707	Awadhi	awad1243	Indo-European	Eurasia	27.5907	82.4663	45	37	8	0	0	0	0	4.625	b bʱ cç cçʰ d̪ d̪ʱ h j k kʰ l lʱ m mʱ n p pʰ r rʱ s t̪ t̪ʰ w ŋ ɖ ɖʱ ɟʝ ɟʝʱ g gʱ ɦ ɲ ɳ ɽ ɽʱ ʈ ʈʰ e i o u æ ɑ ɔ ɛ
bada1257-1708	Badaga	bada1257	Dravidian	Eurasia	11.3094	76.5974	38	25	13	0	0	0	4	1.9230769230769231	b c d̪ j k l m n p r s t̪ v w x ŋ ɖ ɟ g ɭ ɲ ɳ ʂ ʈ ʝ a aː e eː i o oː u uː ə ɛ ɨ ʌ
balt1258-1709	Balti	balt1258	Sino-Tibetan	Eurasia	34.4491	77.2859	53	35	18	0	0	0	10	1.9444444444444444	b cç cçʰ d d̪ f h j k kʰ l n p pʰ q s t ts tsʰ tʰ t̪ t̪ʰ w z ç ð ŋ ɟʝ g ɮ ɲ ɽ ʁ ʝ χ a aː aˑ e eː eˑ i iː iˑ o oː oˑ u uː uˑ ɔ ɛ ʌ
lamb1269-1710	Lambadi	lamb1269	Indo-European	Eurasia	16.5734	76.9717	34	24	10	0	0	0	4	2.4	b cç dz d̪ h j k l n p s ts w ç ŋ ɖ ɟʝ g ɭ ɲ ɳ ɾ ʂ ʈ e i iː o oː u uː ɑ ɑː ʌ
beng1280-1711	Bengali	beng1280	Indo-European	Eurasia	24.0	90.0	48	34	14	0	0	0	1	2.4285714285714284	b bʱ cç cçʰ d̪ d̪ʱ h j k kʰ l m n p pʰ r s t̪ t̪ʰ w ç ŋ ɖ ɖʱ ɟʝ ɟʝʱ g gʱ ɦ ɽ ɽʱ ɾ ʈ ʈʰ a e i o õ̞ u ũː æ æ̞̃ ɑ̃ ɔ ɛ̃ ɪ̃ ʊ̃
bhil1251-1712	Bhili	bhil1251	Indo-European	Eurasia	20.85	73.9592	62	35	27	0	0	0	16	1.2962962962962963	b bʱ cç dz d̪ d̪ʱ h j k kʰ l lʱ m mʱ n̪ n̪ʱ p pʰ s ts t̪ t̪ʰ w ç ɖ ɖʱ ɟʝ ɟʝʱ g gʱ ɦ ɭ ɾ ʈ ʈʰ a aː aˑ e eː eˑ ẽ̞ i iː iˑ o oː oˑ õ u uː uˑ ũː ə əː əˑ ɛ ɛː ɨ ɨː ɨˑ ʊ̃
mund1320-1713	Mundari	mund1320	Austroasiatic	Eurasia	23.03	85.85	54	33	21	0	0	0	6	1.5714285714285714	b bʱ cç cçʰ d̪ d̪ʱ j k kʰ l m n n̪ p pʰ s t̪ t̪ʰ w ŋ ɖ ɖʱ ɟʝ ɟʝʱ g gʱ ɲ ɳ ɽ ɾ ʈ ʈʰ ʔ a aː e eː e̞ i iː o oː õ̞ u uː ũː u̞ æ̞̃ ɔ ɪ ɪ̃ ʊ ʊ̃ ʌ
boro1277-1714	Boro (Ethiopia)	boro1277	Ta-Ne-Omotic	Africa	10.6596	35.345	30	22	8	0	0	0	0	2.75	b dz d̪ j k kʰ l m n̪ p pʰ s t̪ t̪ʰ w x z ŋ g ɣ ɸ ɾ a e e̞ i o u ə ɛ
brok1247-1715	Brokskat	brok1247	Indo-European	Eurasia	34.5308	76.6026	56	41	15	0	0	0	9	2.7333333333333334	b cç cçʰ d d̪ f h j k kʰ k̙ l m n n̪ p pʰ r s t ts tʰ t̪ t̪ʰ v w z ç ŋ ɖ ɟʝ g ɭ ɲ ɳ ʁ ʂ ʈ ʐ ʝ χ a aː aˑ e eː i iː iˑ o oː oˑ u uː uˑ ɛ
bund1253-1716	Bundeli	bund1253	Indo-European	Eurasia	24.8982	78.9542	55	38	17	0	0	0	6	2.235294117647059	b bʱ cç cçʰ d̪ d̪ʱ h j k kʰ l lʱ m mʱ n nʱ p pʰ r rʱ s t̪ t̪ʰ v ŋ ɖ ɖʱ ɟʝ ɟʝʱ g gʱ ɦ ɲ ɳ ɽ ɽʱ ʈ ʈʰ ã e eː i iː o oː u uː ũː æ ɑ ɑː ɑ̃ ɔ ɛ̃ ʊ̃
chau1259-1717	Chaudangsi	chau1259	Sino-Tibetan	Eurasia	29.7033	80.4832	42	34	8	0	0	0	0	4.25	b bʱ cç cçʰ d̪ d̪ʱ j k kʰ m n̪ p pʰ r s ts t̪ t̪ʰ w x z ç ŋ ɖ ɖʱ ɟʝ ɟʝʱ g gʱ ɭ ɭʱ ɲ ʈ ʈʰ e i o u ɑ ɔ ə ɛ
chok1243-1718	Chokri Naga	chok1243	Sino-Tibetan	Eurasia	25.5636	94.2887	39	34	5	0	0	0	0	6.8	b cç cçʰ dz d̪ f h j k kʰ l lʱ m mʱ n̪ n̪ʱ p pʰ s ts tsʰ t̪ t̪ʰ v w z ç ŋ ɟʝ g ɦ ɾ ɾʱ ʝ e i o u ə
darm1243-1719	Darma	darm1243	Sino-Tibetan	Eurasia	29.8629	80.5439	42	34	8	0	0	0	0	4.25	b bʱ cç cçʰ d̪ d̪ʱ j k kʰ l m n̪ p pʰ r s t̪ t̪ʰ w x ç ŋ ɖ ɖʱ ɟʝ ɟʝʱ g gʱ ɲ ɳ ɽ ɽʱ ʈ ʈʰ e i o u ɑ ɔ ə ɛ
gata1239-1720	Gata'	gata1239	Austroasiatic	Eurasia	18.6076	82.984	38	24	14	0	0	0	1	1.7142857142857142	b cç d h j k l m n n̪ p r s t w ŋ ɖ ɟʝ g ɲ ɳ ɽ ʈ ʔ a e i o õ̞ u ũː æ æ̞̃ ɔ ə ɛ ɪ ʊ
gade1236-1721	Gade Lohar	gade1236	Indo-European	Eurasia	25.8583	78.2187	50	31	19	0	0	0	1	1.631578947368421	b bʱ cç cçʰ d̪ d̪ʱ h j k kʰ l m n̪ p pʰ r s t̪ t̪ʰ w ɖ ɖʱ ɟʝ ɟʝʱ g gʱ ɭ ɳ ɽ ʈ ʈʰ a e ẽ̞ i ĩ o õ õ̞ u ũː æ æ̞̃ ə ə̃ ɛ ɪ ɪ̃ ʊ ʊ̃
galo1242-1722	Galo	galo1242	Sino-Tibetan	Eurasia	27.9805586	94.6884956	29	17	12	0	0	0	4	1.4166666666666667	b cç d̪ h j k l m n̪ p s t̪ ŋ ɟʝ g ɲ ɾ a aː e i iː o u uː ɔ ɔː ə ɨ
garo1247-1723	Garo	garo1247	Sino-Tibetan	Eurasia	25.2954	90.462	21	16	5	0	0	0	0	3.2	b dz d̪ h k m n̪ p s ts t̪ z ŋ g ɾ ʔ a e i o u
guja1253-1724	Gujari	guja1253	Indo-European	Eurasia	33.7	75.11	54	35	19	0	0	0	1	1.8421052631578947	b cç cçʰ d̪ f h j k kʰ l m n̪ p pʰ q r s t̪ t̪ʰ w x z ç ŋ ɖ ɟʝ g g̙ ɣ ɭ ɲ ɳ ɽ ʈ ʈʰ a e ẽ̞ i ĩ o õ̞ u ũː æ̞̃ ɑ̃ ɔ ə ə̃ ɛ ɪ ɪ̃ ʊ ʊ̃
guja1252-1725	Gujarati	guja1252	Indo-European	Eurasia	22.687	71.0962	60	35	25	0	0	0	4	1.4	b bʱ cç cçʰ d̪ d̪ʱ h j k kʰ l m n̪ p pʰ s t̪ t̪ʰ v w ç ŋ ɖ ɖʱ ɟʝ ɟʝʱ g ɭ ɲ ɳ ɽ ɾ ʂ ʈ ʈʰ a ã e ẽ̞ e̤ i i̤ː o õ õː o̤ u ũ ũː ṳː ɑ̃ ɑ̤ ɔ ɔ̤ ə ə̤ ɛ ɛ̤ ɪ ʊ
bodo1267-1726	Bodo Gadaba	bodo1267	Austroasiatic	Eurasia	18.3857	82.771	40	21	19	0	0	0	1	1.105263157894737	b b̰ cç d̪ k l m n p r s t̪ t̪̰ ɖ ɟʝ g ɭ ɳ ɽ ʈ ʔ a a̰ e ḛ i o õ̞ o̰ u ũː ṵ æ̞̃ ɔ ɪ ɪ̃ ɯ̰ ʊ ʊ̃ ʌ
halb1244-1727	Halbi	halb1244	Indo-European	Eurasia	20.3081	81.3742	42	29	13	0	0	0	0	2.230769230769231	b bʱ cç d dʱ f h j k kʰ l m n p pʰ r s t ts tʰ v w z ç ŋ ɟʝ g gʱ ʔ a e i o u æ ø ɘ ɛ ɨ ɪ ʊ ʌ
hind1269-1728	Hindi	hind1269	Indo-European	Eurasia	25.0	77.0	58	37	21	0	0	0	1	1.7619047619047619	b bʱ cç cçʰ d̪ d̪ʱ f h j k kʰ l m n̪ p pʰ s t̪ t̪ʰ w z ç ŋ ɖ ɖʱ ɟʝ ɟʝʱ g gʱ ɲ ɳ ɽ ɽʱ ɾ ʈ ʈʰ ʝ a e ẽ̞ i ĩ o õ õ̞ u ũː æ æ̞̃ ɑ̃ ɔ ə ə̃ ɛ ɪ ɪ̃ ʊ ʊ̃
hooo1248-1729	Ho	hooo1248	Austroasiatic	Eurasia	23.9596	87.1188	43	24	19	0	0	0	5	1.263157894736842	b cç d̪ h j k l m n n̪ p s t̪ w ŋ ɖ ɟʝ g ɲ ɳ ɽ ɾ ʈ ʔ a aː e eː e̞ i iː ĩ o oː õ̞ u uː u̞ æ̞̃ ɪ ɪ̃ ʊ ʌ
irul1243-1730	Irula of the Nilgiri	irul1243	Dravidian	Eurasia	12.70645	79.95209	52	31	21	0	0	0	1	1.4761904761904763	b cç d d̪ j k l m n n̪ p r s t t̪ v w ð ŋ ɖ ɟʝ g ɣ ɭ ɲ ɳ ɽ ɾ ʂ ʈ β a ä e ë e̞ ë̞ i ï o ö ö̞ u üː u̞ æ ɛ ɨ ɪ ʊ ʊ̈ ʌ
jaun1243-1731	Jaunsari	jaun1243	Indo-European	Eurasia	30.5587	77.9084	51	34	17	0	0	0	5	2.0	b bʱ cç cçʰ d̪ d̪ʱ h j k kʰ l m n p pʰ r s t̪ t̪ʰ w ç ŋ ɖ ɖʱ ɟʝ ɟʝʱ g gʱ ɦ ɲ ɳ ɽ ʈ ʈʰ a aː e ẽ̞ i iː o õː õ̞ u uː æ̞̃ ɑ̃ ɔ ə̃ː ɛ ʊ̃
juan1238-1732	Juang	juan1238	Austroasiatic	Eurasia	21.2606	85.5845	36	24	12	0	0	0	1	2.0	b c cç d d̪ k l m n n̪ p s t ŋ ɖ ɟ ɟʝ g ɲ ɳ ɽ ɽ̃ ɽ̩ ʈ a e i o õ̞ u ũː æ̞̃ ɔ ɛ ɪ̃ ʊ̃
kang1280-1733	Kangri	kang1280	Indo-European	Eurasia	31.915	76.366	41	29	12	0	0	0	5	2.4166666666666665	b c cʱ d̪ j k kʰ l m n p pʰ r s t̪ t̪ʰ w ŋ ɖ ɟ g ɭ ɲ ɳ ɽ ɽ̃ ɽ̩ ʈ ʈʰ aː e iː o uː ɐ ɔː ɘ ɛː ɜ ɪ ʊ
nucl1305-1734	Kannada	nucl1305	Dravidian	Eurasia	13.5878	76.1198	47	36	11	0	0	0	5	3.272727272727273	b bʱ cç cçʰ d̪ d̪ʱ f h j k kʰ l m n n̪ p pʰ s t̪ t̪ʰ v w ç ŋ ɖ ɖʱ ɟʝ ɟʝʱ g gʱ ɭ ɳ ɾ ʂ ʈ ʈʰ a aː e eː i iː o oː u uː æ
saur1248-1735	Saurashtra	saur1248	Indo-European	Eurasia	9.99172	77.9427	42	32	10	0	0	0	5	3.2	b bʱ cç cçʰ d̪ d̪ʱ h j k kʰ l m mʱ n p pʰ r s t̪ t̪ʰ w z ɖ ɖʱ ɟʝ ɟʝʱ g gʱ ɭ ɳ ʈ ʈʰ a aː e eː i iː o oː u uː
karb1241-1736	Hills Karbi	karb1241	Sino-Tibetan	Eurasia	25.7317	93.0462	39	28	11	0	0	0	0	2.5454545454545454	b bʱ cç cçʰ d dz dʱ j k kʰ l m n p pʰ r t ts tsʰ tʰ w x ŋ ɟʝ g gʱ ɦ ʔ a e e̞ i o u ɔ ə ɛ ɪ ʊ
irul1243-1737	Irula of the Nilgiri	irul1243	Dravidian	Eurasia	12.70645	79.95209	30	23	7	0	0	0	0	3.2857142857142856	b cç d̪ j k l m n n̪ p r s t̪ w x ɖ ɟʝ g ɭ ɳ ɽ ʂ ʈ a e i o u ə ɨ
kash1277-1738	Kashmiri	kash1277	Indo-European	Eurasia	34.166825	74.330455	56	28	28	0	0	0	14	1.0	b cç cçʰ d̪ j k kʰ l m n p pʰ r s ts tsʰ t̪ t̪ʰ w z ç ŋ ɖ ɟʝ g ɦ ʈ ʈʰ a aː ã e eː ẽː i iː ĩː o oː õː õ̞ u uː ũ æ̞̃ ɑ̃ ɑ̃ː ɔ ɔː ə əː ə̃ː ɨ ɨː ɨ̃ː ɪ̃
jenn1240-1739	Jennu Kurumba	jenn1240	Dravidian	Eurasia	11.5041	76.5767	33	26	7	0	0	0	0	3.7142857142857144	b cç dz d̪ j k l m n n̪ p r s ts t̪ w z ŋ ɖ ɟʝ g ɭ ɲ ɾ ʂ ʈ a e i o u ə ɨ
khar1287-1740	Kharia	khar1287	Austroasiatic	Eurasia	22.3571	84.3922	45	31	14	0	0	0	5	2.2142857142857144	b bʱ cç cçʰ d dʱ j k kʰ l m n p pʰ s t tʰ w ŋ ɖ ɖʱ ɟʝ g gʱ ɦ ɲ ɽ ɾ ʈ ʈʰ ʔ a e eː i iː o oː õ̞ u uː ũː æ̞̃ ɪ̃ ʊ̃
khas1269-1741	Khasi	khas1269	Austroasiatic	Eurasia	24.977	91.9998	40	27	13	0	0	0	5	2.076923076923077	b bʱ d dʱ h j k kʰ l m n p pʰ r s t tʰ w ç ŋ ɟʝ ɟʝʱ g gʱ ɲ ɾ ʔ a aː e eː i iː o oː u uː ɔ ɛ ɨ
khez1235-1742	Khezha Naga	khez1235	Sino-Tibetan	Eurasia	25.7078	94.3114	50	42	8	0	0	0	0	5.25	b bv cç cçʰ dz d̪ f h j k kʰ l lʱ m mʱ n nʱ n̪ n̪ʱ p pf pfʰ pʰ s ts tsʰ t̪ t̪ʰ v w wʱ z ç ŋ ɟʝ g ɦ ɲ ɲʱ ɾ ɾʱ ʝ e e̞ i o u ɑ ə ɨ
koda1255-1743	Kodava	koda1255	Dravidian	Eurasia	12.2443	75.9161	52	27	25	0	0	0	8	1.08	b cç d̪ h j k l m n n̪ p r s t̪ w ç ð ŋ ɖ ɟʝ g ɭ ɲ ɳ ɽ ʂ ʈ a aː e eː ë ëː e̞ i iː o oː u uː u̞ ɑ ɑː ɔ ə ɛ ɛː ɨ ɪ ɯ ʊ ʌ
nort2699-1744	Northwestern Kolami	nort2699	Dravidian	Eurasia	20.1022	78.4934	34	21	13	0	0	0	7	1.6153846153846154	b cç d̪ j k l m n̪ p r s ts t̪ v z ŋ ɖ ɟʝ g ɭ ʈ a aː e eː i iː o oː u uː ə əː ɨː
kond1295-1745	Konda-Dora	kond1295	Dravidian	Eurasia	18.26754	82.93402	43	23	20	0	0	0	10	1.15	b d̪ h j k l m n p r r̥ s t̪ w z ŋ ɖ g ɳ ɽ ɾ ʈ ʔ a aː e eː i iː ĩː o oː õː õ̞ u uː ũ ũː æ̞̃ ɑ̃ː ə̃ː ɪ̃ ʊ̃
mudh1235-1746	Mudhili Gadaba	mudh1235	Dravidian	Eurasia	18.276	83.378	31	19	12	0	0	0	6	1.5833333333333333	b cç d j k l m n p r s t w ŋ ɖ ɟʝ g ɳ ʈ a aː i iː õː u uː ũ ũː æ̞̃ ə̃ː ʊ̃
konk1267-1747	Maharashtrian Konkani	konk1267	Indo-European	Eurasia	19.2414	73.9166	45	35	10	0	0	0	4	3.5	b bʱ cç cçʰ dz dzʱ d̪ d̪ʱ j k kʰ l m n̪ p pʰ s ts tsʰ t̪ t̪ʰ w ç ɖ ɖʱ ɟʝ ɟʝʱ g gʱ ɭ ɳ ɾ ʂ ʈ ʈʰ a aː e eː i iː o u uː ɔ
korr1238-1748	Korra Koraga	korr1238	Dravidian	Eurasia	12.9163	75.2	34	21	13	0	0	0	6	1.6153846153846154	b cç d̪ j k l m n̪ p r s t̪ w ç ŋ ɖ ɟʝ g ɲ ɳ ʈ a aː e eː i iː o oː u uː ɛ ɛː ɨ
kork1243-1749	Korku	kork1243	Austroasiatic	Eurasia	21.8358	77.5541	37	26	11	0	0	0	1	2.3636363636363638	b bʱ c cʱ d dʱ j k kʰ l m n p pʰ s t tʰ w ŋ ɟ ɟʱ g gʱ ɽ ɾ ʔ a e i o õ̞ u ũː æ̞̃ ɨ ɪ̃ ʊ̃
kota1263-1750	Kota (India)	kota1263	Dravidian	Eurasia	11.4978	76.9387	41	26	15	0	0	0	5	1.7333333333333334	b cç d d̪ j k l m n n̪ p r s t t̪ w ŋ ɖ ɟʝ g ɭ ɲ ɳ ɽ ʂ ʈ a aː e eː e̞ i iː o oː u uː ɔ ɪ ʊ ʌ
koya1251-1751	Koya	koya1251	Dravidian	Eurasia	17.6772	81.2096	31	21	10	0	0	0	5	2.1	b cç dz d̪ h j k l m n p s ts t̪ w ɖ ɟʝ g ɳ ɾ ʈ a aː e eː i iː o oː u uː
kuii1252-1752	Kui (India)	kuii1252	Dravidian	Eurasia	19.2043	83.5859	39	20	19	0	0	0	9	1.0526315789473684	b d̪ h k l m n p s t̪ v ŋ ɖ ɟʝ g ɲ ɳ ɽ ʈ ʔ a aː ãː e eː i iː ĩː u uː ũ ũː æ̞̃ ɑ̃ ɔ ɔː ə̃ː ɪ̃ ʊ̃
kuma1273-1753	Kumaoni	kuma1273	Indo-European	Eurasia	29.5622	80.0171	42	31	11	0	0	0	0	2.8181818181818183	b bʱ cç cçʰ d̪ d̪ʱ j k kʰ l m n̪ p pʰ t̪ t̪ʰ w ç ŋ ɖ ɖʱ ɟʝ ɟʝʱ g gʱ ɭ ɳ ɽ ɾ ʈ ʈʰ a e i o u ɔ ə ɛ ɪ ʊ ʌ
kuru1302-1754	Kurukh	kuru1302	Dravidian	Eurasia	24.4644	86.4657	56	31	25	0	0	0	6	1.24	b bʱ cç cçʰ d dʱ h k kʰ l m n p pʰ r s t tʰ x ŋ ɖ ɖʱ ɟʝ ɟʝʱ g gʱ ɲ ɽ ʈ ʈʰ ʔ ã e ẽ e̞ i ĩ ĩː o oː õː õ̞ u ũː u̞ ɑ ɑ̃ː ɔ̃ ɔ̃ː ə̃ ɪ ɪ̃ ʊ ʊ̃ ʌ ʌ̃
kuvi1243-1755	Kuvi	kuvi1243	Dravidian	Eurasia	18.8832	83.7552	47	28	19	0	0	0	10	1.4736842105263157	b cç dz d̪ h k l m n n̪ p s ts t̪ v ç ŋ ɖ ɟʝ g ɭ ɲ ɳ ɽ ɾ ʂ ʈ ʔ aː e eː i iː ĩː o oː õː õ̞ u uː ũ ũː æ̞̃ ɑ̃ː ə̃ː ɪ̃ ʊ̃
lada1244-1756	Leh Ladakhi	lada1244	Sino-Tibetan	Eurasia	33.468	80.6013	45	37	8	0	0	0	0	4.625	b cç cçʰ dz d̪ h j k kʰ l lʱ m n p pʰ r̥ s ts tsʰ t̪ t̪ʰ w z ç ŋ ɖ ɟʝ g ɣ ɦ ɲ ʂ ʈ ʈʰ ʐ ʝ β a e e̞ i o u u̞ ə
lamb1269-1757	Lambadi	lamb1269	Indo-European	Eurasia	16.5734	76.9717	48	30	18	0	0	0	7	1.6666666666666667	b cç dz d̪ h j k l m n n̪ p s s̪ ts t̪ v w ç ŋ ɖ ɟʝ g ɭ ɲ ɳ ɽ ɾ ʂ ʈ a e eː i iː ĩː o õ̞ u ũ ũː æ̞̃ ə əː ɨː ɨ̃ː ɪ̃ ʊ̃
lepc1244-1758	Lepcha	lepc1244	Sino-Tibetan	Eurasia	27.0869	88.5726	36	26	10	0	0	0	1	2.6	b cç dz d̪ f h j k l m n p s ts t̪ v z ç ŋ ɖ ɟʝ g ɲ ɾ ʈ ʝ e e̞ i o ö u üː ɑ ɔ ʌ
loth1237-1759	Lotha Naga	loth1237	Sino-Tibetan	Eurasia	26.01396	94.04355	43	35	8	0	0	0	0	4.375	bv cç cçʰ d̪ f j k kʰ l lʱ m mʱ n̪ n̪ʱ p pf pʰ r rʱ s ts tsʰ t̪ t̪ʰ v w z ç ŋ ŋʱ g ɦ ɲ ɲʱ ʝ a e i o u ə ɪ ʊ
lush1249-1760	Mizo	lush1249	Sino-Tibetan	Eurasia	22.6138	92.6247	39	33	6	0	0	0	0	5.5	b cç cçʰ d̪ f h j k kʰ l m n̪ p pʰ s t̪ tɬ̪ tɬ̪ʰ t̪ʰ v w z ŋ g ɾ ɾ̪̥ ɾ̪̥ʰ ʔ ʱl ʰm ʱn̪ ʱŋ ʱɾ a e i o u ɔ
mait1250-1761	Maithili	mait1250	Indo-European	Eurasia	26.3817	86.2211	42	34	8	0	0	0	0	4.25	b bʱ cç cçʰ d̪ d̪ʱ h j k kʰ m n p pʰ s t̪ t̪ʰ w ç ŋ ɖ ɖʱ ɟʝ ɟʝʱ g gʱ ɲ ɳ ɽ ɽʱ ɾ ʂ ʈ ʈʰ a e i o u æ ɔ ə
saur1249-1763	Sauria Paharia	saur1249	Dravidian	Eurasia	24.8124	87.6432	34	24	10	0	0	0	5	2.4	b c d̪ h j k l m n p q r s t̪ w ŋ ɖ ɟ g ɢ ɲ ɽ ʈ θ a aː e eː i iː o oː u uː
mani1292-1764	Manipuri	mani1292	Sino-Tibetan	Eurasia	24.4409	93.3426	35	27	8	0	0	0	5	3.375	b bʱ cç cçʰ d̪ d̪ʱ h j k kʰ l m n̪ p pʰ r s t̪ t̪ʰ w ç ŋ ɟʝ ɟʝʱ g ʈ ʔ a aː eː i iː oː u uː
maon1238-1765	Mao Naga	maon1238	Sino-Tibetan	Eurasia	25.3836	94.0035	26	20	6	0	0	0	0	3.3333333333333335	b bv dz d̪ f j k l m n p pf r ts t̪ v w ç g ʝ a e i o u ə
mara1378-1766	Marathi	mara1378	Indo-European	Eurasia	17.9344	76.6665	55	42	13	0	0	0	4	3.230769230769231	b bʱ cç cçʰ dz dzʱ d̪ d̪ʱ f h j k kʰ l lʱ m mʱ n̪ n̪ʱ p pʰ s ts tsʰ t̪ t̪ʰ w wʱ ç ɖ ɖʱ ɟʝ ɟʝʱ g gʱ ɳ ɳʱ ɾ ɾʱ ʂ ʈ ʈʰ a e i iː o u uː æ ɔ ə əː ɨ ɨː
miju1243-1767	Kman	miju1243	Sino-Tibetan	Eurasia	28.4732	97.0444	50	34	16	0	0	0	5	2.125	b bʷ cç cçʰ dz d̪ d̪ʲ h j k kʰ k̰ l lʲ m n p pʰ pʷ p̰ r s ts tsʰ t̪ t̪ʰ t̪ʲ w z ç ŋ ɟʝ g ɲ ã e eː i iː o oː õ̞ u uː ɑ ɑː ɨ ɪ̃ ɯ ʌ
miny1240-1768	Mising	miny1240	Sino-Tibetan	Eurasia	27.418	94.69	43	34	9	0	0	0	0	3.7777777777777777	b bʱ b̰ d dʱ d̪ h j k kʰ l m n n̪ p pʰ r s t ts tʰ t̪ t̪̰ w z zʱ ŋ ɟʝ g gʱ g̰ ɲ ɽ ɾ a e i u ɔ ɛ ɪ ɯ ʊ
moyo1238-1769	Moyon	moyo1238	Sino-Tibetan	Eurasia	24.4793	94.3421	37	24	13	0	0	0	0	1.8461538461538463	b bʱ cç dʱ f h j kʰ l m m̩ n̩ p pʰ r s ts tʰ v w ç ŋ̍ gʱ ʔ a e i o u æ ɔ ɘ ə ɛ ɨ ʊ ʌ
mund1320-1770	Mundari	mund1320	Austroasiatic	Eurasia	23.03	85.85	39	21	18	0	0	0	6	1.1666666666666667	b cç d̪ j k m n̪ p s t̪ w ŋ ɖ ɟʝ g ɲ ɳ ɽ ɾ ʈ ʔ a aː e eː ẽ̞ i iː o oː u uː ũː æ̞̃ ɑ̃ ɔ ə ɛ ʊ̃
naik1250-1771	Naiki	naik1250	Dravidian	Eurasia	19.6908	78.5936	46	36	10	0	0	0	0	3.6	b bʱ dz dzʱ d̪ d̪ʱ j k kʰ l m n̪ p pʰ r r̠ r̠ʲ s t ts tsʰ t̪ t̪ʰ v w x ŋ ɖ ɖʱ g gʱ ɭ ɳ ʂ ʈ ʈʰ a e i o u u̞ ɛ ɪ ʊ ʌ
nepa1254-1772	Nepali	nepa1254	Indo-European	Eurasia	28.0	85.0	47	35	12	0	0	0	5	2.9166666666666665	b bʱ cç cçʰ d̪ d̪ʱ h j k kʰ l lʱ m n p pʰ r s t̪ t̪ʰ w ç ŋ ɖ ɖʱ ɟʝ ɟʝʱ g gʱ ɲ ɽ ɽʱ ʂ ʈ ʈʰ a aː e eː i iː o oː u uː ɛ ʌ
cent1990-1773	Central Nicobarese	cent1990	Austroasiatic	Eurasia	7.94812	93.3921	35	16	19	0	0	0	9	0.8421052631578947	cç d f h k l m n̪ p r s t ŋ ɲ ɾ ʈ e eː i iː o oː u uː æ ɑ ɑː ɔ ɔː ə əː ɛ ɛː ɨː ɯ
pott1240-1774	Pottangi Ollar Gadaba	pott1240	Dravidian	Eurasia	18.5968	82.7586	34	22	12	0	0	0	5	1.8333333333333333	b cç dz d̪ k l m n̪ p r s ts t̪ v z ŋ ɖ ɟʝ g ɲ ɳ ʈ a aː e eː i iː o oː õ̞ u uː æ̞̃
oriy1255-1775	Odia	oriy1255	Indo-European	Eurasia	21.0	85.0	43	31	12	0	0	0	1	2.5833333333333335	b bʱ cç cçʰ d̪ d̪ʱ h j k kʰ l m n̪ p pʰ s t̪ t̪ʰ w ŋ ɖ ɖʱ ɟʝ ɟʝʱ g gʱ ɭ ɳ ɾ ʈ ʈʰ e i o õ̞ u ũː æ̃ ɑ̃ ɔ ɛ̞ ɪ̃ ʊ̃
pait1244-1776	Paite Chin	pait1244	Sino-Tibetan	Eurasia	24.0381	93.6136	25	19	6	0	0	0	0	3.1666666666666665	f h j k l m n p pʰ s t tʰ t̪ v w x z g ʔ a e i o u ɔ
duru1236-1777	Duruwa	duru1236	Dravidian	Eurasia	19.0534	82.4881	31	21	10	0	0	0	5	2.1	b cç d̪ h j k l m n p s t̪ w ŋ ɖ ɟʝ g ɲ ɽ ɾ ʈ a aː e eː i iː o oː u uː
patt1248-1778	Pattani	patt1248	Sino-Tibetan	Eurasia	32.6963	76.5966	44	38	6	0	0	0	0	6.333333333333333	b cç cçʰ dz d̪ j k kʰ l lʱ m mʱ n nʱ p pʰ r rʱ s ts tsʰ t̪ t̪ʰ w z ç ŋ ɖ ɟʝ g ɭ ɲ ɳ ɽ ɽʱ ʂ ʈ ʈʰ e i o u ɑ ə
peng1244-1779	Pengo	peng1244	Dravidian	Eurasia	19.3435	83.6552	32	22	10	0	0	0	5	2.2	b cç d̪ h j k l m n p s t̪ v z ŋ ɖ ɟʝ g ɳ ɽ ɾ ʈ a aː e eː i iː o oː u uː
panj1256-1780	Eastern Panjabi	panj1256	Indo-European	Eurasia	30.0368	75.6702	51	32	19	0	0	0	1	1.6842105263157894	b cç cçʰ d̪ f h j k kʰ l m n̪ p pʰ r s t̪ t̪ʰ w x z ç ɖ ɟʝ g ɣ ɦ ɭ ɳ ɽ ʈ ʈʰ a e ẽ̞ i ĩ o õ̞ u ũː æ̞̃ ɑ̃ ɔ ə ə̃ ɛ ɪ ɪ̃ ʊ ʊ̃
bond1245-1781	Bondo	bond1245	Austroasiatic	Eurasia	19.1512	83.8141	40	27	13	0	0	0	1	2.076923076923077	b cç d j k kʰ l m n p pʰ r s t tʰ w z ŋ ɖ ɟʝ g ɲ ɽ ʂ ʈ ʈʰ ʔ a e i o õ̞ u ũː æ̞̃ ɔ ə ɛ ɪ ʊ̃
sans1269-1782	Sanskrit	sans1269	Indo-European	Eurasia	20.0	77.0	45	37	8	0	0	0	5	4.625	b bʱ cç cçʰ d̪ d̪ʱ h j k kʰ l m n p pʰ r s t̪ t̪ʰ w ç ŋ ɖ ɖʱ ɟʝ ɟʝʱ g gʱ ɦ ɭ ɲ ɳ ɽ ɽʱ ʂ ʈ ʈʰ a aː eː i iː oː u uː
sant1410-1783	Santali	sant1410	Austroasiatic	Eurasia	25.0317	87.8185	46	35	11	0	0	0	1	3.1818181818181817	b bʱ b̰ cç cçʰ d̪ d̪ʱ h j k kʰ k̰ l m n̪ p pʰ p̰ r s t̪ t̪ʰ t̪̰ w ŋ ɖ ɖʱ ɟʝ ɟʝʱ g gʱ ɲ ɽ ʈ ʈʰ ã e i õ õ̞ u ũː ɑ ə ɪ̃ ʊ̃
sumi1235-1784	Sumi Naga	sumi1235	Sino-Tibetan	Eurasia	25.9996	94.4235	46	35	11	0	0	0	0	3.1818181818181817	b cç cçʰ d̪ f h j k kʰ l lʱ m mʱ n nʱ n̪ p pʰ s ts tsʰ t̪ t̪ʰ v w x z ç ŋ g ɣ ɲ ɲʱ ʔ ʝ a e e̞ i o u u̞ ə ɨ ɯ ʌ
shin1264-1785	Shina	shin1264	Indo-European	Eurasia	34.6515	75.287	48	35	13	0	0	0	6	2.6923076923076925	b cç cçʰ d h j k kʰ l m n p pʰ r s t ts tsʰ tʰ w x z ç ŋ ɖ ɟʝ g ɣ ɳ ʈ ʈʂ ʈʂʰ ʈʰ ʐ ʝ a aː e eː i iː o oː u uː ə ɛ ɛː
sind1272-1786	Sindhi	sind1272	Indo-European	Eurasia	26.0	69.0	61	41	20	0	0	0	1	2.05	b bʱ c cʱ d̪ d̪ʱ f j k kʰ l m n̪ p pʰ q s t̪ t̪ʰ w x z ç ŋ ɓ ɖ ɖʱ ɟ ɟʱ ɠ g gʱ ɣ ɲ ɳ ɽ ɾ ʄ ʈ ʈʰ ᶑ a e ẽ̞ i ĩ o õ õ̞ u ũː æ̞̃ ɑ̃ ɔ ə ə̃ ɛ ɪ ɪ̃ ʊ ʊ̃
sora1254-1787	Sora	sora1254	Austroasiatic	Eurasia	19.1213	84.19	31	21	10	0	0	0	0	2.1	b d k l m n n̪ p r̠ʲ s t̪ z ŋ ɖ ɟʝ g ɲ ɳ ɽ ɾ ʔ a e i o u y ø ə ɪ ʊ
tang1336-1789	East-Central Tangkhul Naga	tang1336	Sino-Tibetan	Eurasia	25.0489	94.3567	40	27	13	0	0	0	0	2.076923076923077	b cç d̪ f h j k kʰ l m n p pʰ r s t̪ t̪ʰ v w x z ç ŋ ɟʝ g ɾ ʝ a e e̞ i o u ɔ ə ɨ ɪ ɯ ʊ ʌ
tase1235-1790	Pangwa Naga	tase1235	Sino-Tibetan	Eurasia	27.2572	96.3855	29	23	6	0	0	0	1	3.8333333333333335	b cç d̪ h k kʰ l m n̪ p pʰ s ts t̪ t̪ʰ x ç ŋ ɟʝ g ɸ ɾ ʔ e o u ɑː ɔ ə
telu1262-1791	Telugu	telu1262	Dravidian	Eurasia	16.4529	78.7024	51	40	11	0	0	0	5	3.6363636363636362	b bʱ cç cçʰ dz d̪ d̪ʱ f h j k kʰ l m n n̪ p pʰ s ts t̪ t̪ʰ v w ç ŋ ɖ ɖʱ ɟʝ ɟʝʱ g gʱ ɭ ɲ ɳ ɽ ɾ ʂ ʈ ʈʰ aː e eː i iː o oː u uː æ ɑ
thad1238-1792	Thado Chin	thad1238	Sino-Tibetan	Eurasia	24.096	93.722	31	23	8	0	0	0	0	2.875	b cç d j k kʰ l lʱ m n p pʰ s t tʰ v x z ŋ ɟʝ g ɦ ʔ a e i o u ɔ ɛ ʌ
toda1252-1793	Toda	toda1252	Dravidian	Eurasia	11.4184	77.0168	53	38	15	0	0	0	3	2.533333333333333	b cç d dz d̪ f j k l l̥ m n p r s s̪ t ts t̪ v w x z z̪ ç ɖ ɟʝ g ɭ ɭ̊ ɳ ɽ ɾ ʂ ʈ ʐ ʝ θ a e i o u y yː ø øː ɔ ɪ ɯ ɯː ʊ ʌ
kokb1239-1794	Kok Borok	kokb1239	Sino-Tibetan	Eurasia	23.1916	91.4673	34	25	9	0	0	0	0	2.7777777777777777	b cç cçʰ d̪ h j k kʰ l m n̪ p pʰ r s ts tsʰ t̪ t̪ʰ w ç ŋ ɟʝ g ɲ a o u ɔ ɛ ɪ ɯ ʊ ʌ
tulu1258-1795	Tulu	tulu1258	Dravidian	Eurasia	12.8114	75.2651	35	23	12	0	0	0	5	1.9166666666666667	b cç d̪ j k l m n̪ p r s t̪ w x ç ŋ ɟʝ g ɭ ɲ ɳ ʂ ʈ e eː i o oː u uː ɑ ɑː ɛ ɛː ɨ
ural1274-1796	Urali of Idukki	ural1274	Dravidian	Eurasia	10.8519	76.8007	46	26	20	0	0	0	4	1.3	b c d̪ j k l m n n̪ p r s t̪ w x ð ɖ ɟ g ɣ ɭ ɳ ɽ ʂ ʈ β ä e ë e̞ ë̞ i iː ï o u uː üː u̞ ɑ ɑ̈ ɑ̈ː ɛ ɪ ʊ ʌ
urdu1245-1797	Urdu	urdu1245	Indo-European	Eurasia	25.0	67.0	54	35	19	0	0	0	4	1.8421052631578947	b bʱ cç cçʰ d̪ d̪ʱ f h j k kʰ m n p pʰ q r t̪ t̪ʰ w x z ç ŋ ɖ ɖʱ ɟʝ ɟʝʱ g gʱ ɣ ɽ ʈ ʈʰ ʝ a ẽ̞ i ĩ ĩː oː õ u ũː æ̞̃ ɑ̃ ɑ̃ː ɔ ə ə̃ ɛ ɪ ʊ ʊ̃
vaag1238-1798	Vaagri Booli	vaag1238	Indo-European	Eurasia	12.215	79.5335	37	23	14	0	0	0	5	1.6428571428571428	b cç d̪ j k l m n p r s t̪ v z ç ŋ ɖ ɟʝ g ɭ ɲ ɳ ʈ a aː e eː i iː o oː u uː æ̞̃ ɨ ɪ̃ ʊ̃
ravu1237-1799	Ravula	ravu1237	Dravidian	Eurasia	12.3231	75.6265	39	23	16	0	0	0	6	1.4375	b c cç d̪ j k l m n n̪ p r s t̪ w ŋ ɖ ɟ g ɭ ɲ ɳ ʈ a aː e eː i iː o oː u uː ɔ ə ɛ ɛː ɪ ʊ
yeru1240-1800	Yerukula	yeru1240	Dravidian	Eurasia	17.3702	81.9748	38	20	18	0	0	0	8	1.1111111111111112	b cç d̪ j k l m n p s t̪ w ɖ ɟʝ g ɭ ɳ ɾ ʂ ʈ a aː e eː i iː ĩː o oː õ̞ u uː æ̞̃ ɑ̃ː ə̃ː ɨ ɪ̃ ʊ̃
