ID	Name	Glottocode	Family	Macroarea	Latitude	Longitude	Sounds	Consonants	Vowels	Clusters	Diphthongs	LongConsonants	LongVowels	Ratio	Phonemes
kore1280-1	Korean	kore1280	Koreanic	Eurasia	37.5	128.0	40	22	18	0	0	0	8	1.2222222222222223	h j k kʰ kˀ l m n p pʰ pˀ s sˀ t tʰ tˀ tʃ tʃʰ tʃˀ w ŋ ʔ a aː e eː i iː o oː u uː y æ æː ø ɤ ɤː ɯ ɯː
kett1243-2	Ket	kett1243	Yeniseian	Eurasia	63.7551	87.5466	32	18	14	0	0	0	7	1.2857142857142858	b d dʲ h k̟ lʲ lˠ m n nʲ q s sʲ t tʲ ŋ ʔ ʝ a aː i iː uː æ æː ɔ ɔː ɨ ɨː ɵ̞ ɵ̞ː ʊ
lakk1252-3	Lak	lakk1252	Nakh-Daghestanian	Eurasia	42.1328	47.0809	69	60	9	0	0	0	3	6.666666666666667	b d h j kʰ kʷʰ kʼʷ kʼ k͈ k͈ʷ l m n pʰ pʼ p͈ qʰ qʷʰ qʼʷ qʼ q͈ q͈ʷ r s s͈ tsʰ tsʷʰ tsʼʷ tsʼ tʰ tʼ tʃʰ tʃʷʰ tʃʼʷ tʃʼ tʃ͈ tʃ͈ʷ t͈ ts͈ ts͈ʷ w x xʷ x͈ x͈ʷ z ħ g ɢ ɢʷ ʃ ʃʷ ʃ͈ ʃ͈ʷ ʒ ʔ χ χʷ χ͈ χ͈ʷ a aː e̞ˤ i iː u uː æˤ ø̞ˤ
nucl1302-5	Georgian	nucl1302	Kartvelian	Eurasia	41.850397	43.78613	35	29	6	0	0	0	0	4.833333333333333	h j k kʰ kʼ lˠ m n p pʰ pʼ qʼ r s t ts tsʰ tsʼ tʰ tʼ tʃ tʃʰ tʃʼ z ʁ ʃ ʒ β χ a̟ e̞ o̞ ə̆ ɪ ʊ
buru1296-6	Burushaski	buru1296		Eurasia	36.2161	74.8236	50	38	12	0	0	0	7	3.1666666666666665	b d dʒ f h j k kʰ l m n p pʰ q qʰ r s t ts tsʰ tʰ tʃ tʃʰ w z ŋ ɖ ɖʐ g ʁ ʂ ʃ ʈ ʈʂ ʈʂʰ ʈʰ ɻ̝ χ a aː ãː e̞ e̞ː i iː o̞ o̞ː u uː ũː
kuru1302-7	Kurukh	kuru1302	Dravidian	Eurasia	24.4644	86.4657	68	46	22	0	0	13	11	2.090909090909091	b bʱ dʒ dʒː dʒʱ d̪ d̪ː d̪ʱ h j jː k kʰ kː l lː m n̪ p pʰ pː r rː r̠ s̪ s̪ː tʃ tʃʰ tʃː t̪ t̪ʰ t̪ː w wː ŋ ɖ ɖː ɖʱ g gʱ ɳ ʈ ʈʰ ʈː ʔ χ a aː ã ãː e̞ e̞ː ẽ̞ ẽ̞ː i iː ĩ ĩː o̞ o̞ː õ̞ õ̞ː u uː ũ ũː ə əː
telu1262-8	Telugu	telu1262	Dravidian	Eurasia	16.4529	78.7024	68	47	21	0	0	16	11	2.238095238095238	b bː bʱ d dz dzː dː dʱ f j k kʰ kː l lː m mː n nː p pʰ pː rː s t ts tsː tː tʃ ɖ ɖː ɖʱ g gː gʱ ɦ ɭ ɭː ɳ ɾ ʂ ʃ ʈ ʈʰ ʈː β̞ β̞ː aː e eː i iː o oː o̞ u uː æː ɑ ɒː ɔː ə ɛ ɛː ɪ ɪː ʊ ʊː
kota1263-9	Kota (India)	kota1263	Dravidian	Eurasia	11.4978	76.9387	34	23	11	0	0	0	5	2.090909090909091	b d dʒ d̪ j kʰ l m n pʰ r tʰ tʃʰ t̪ʰ v ŋ ɖ g ɭ ɳ ɽ ʂ ʈʰ a aː e̞ e̞ː i iː o̞ o̞ː u uː ə
mund1320-10	Mundari	mund1320	Austroasiatic	Eurasia	23.03	85.85	37	32	5	0	0	1	0	6.4	bʱ dʒʱ dʱ h j k kʰ l m n p pʰ r s t tʰ tʃ tʃʰ w ŋː ɖʱ gʱ ɭ ɳ ʈ ʈʰ ʔ ˀb ˀd ˀdʒ ˀɖ ˀg a e̞ o̞ ɪ ʊ
khar1287-11	Kharia	khar1287	Austroasiatic	Eurasia	22.3571	84.3922	41	31	10	0	0	0	0	3.1	b bʱ d dʒ dʒʱ dʱ j k kʰ l m n p pʰ s t tʰ tʃ tʃʰ w ŋ ɖ ɖʱ g gʱ ɦ ɲ ɽ ɾ ʈ ʈʰ a ã e i ĩ o õ u ũ ɛ̃
khas1269-12	Khasi	khas1269	Austroasiatic	Eurasia	24.977	91.9998	28	19	9	0	0	0	1	2.111111111111111	b d dʒ h k kʰ m n p pʰ r s t tʰ ŋ ɭ ɲ ʃ ʔ a aː e i o u ə ɪ̯ ʊ̯
seda1262-13	Sedang	seda1262	Austroasiatic	Eurasia	14.7793	108.027	53	39	14	0	0	0	0	2.7857142857142856	h j k kʰ l l̥ m ⁿb m̥ n ⁿd ⁿdʒ n̥ p pʰ r r̥ s t tʰ tʃ w ŋ ⁿg ŋ̊ ɲ ɲ̊ ʃ ʍ ʔ ˀb ˀd ˀl ˀm ˀn ˀr ˀw ˀŋ ˀɲ a a̰ e ḛ i ḭ o o̰ u ṵ ɔ ɔ̰ ɛ ɛ̰
cent1989-14	Central Khmer	cent1989	Austroasiatic	Eurasia	12.0515	105.015	42	21	21	0	3	0	10	1.0	h j k kʰ lˠ m n p pʰ s t tʰ tʃ tʃʰ ŋ ɓ ɗ ɲ ɽ ʋ ʔ a̟ a̙̟ː ei̙ e̘ː iː ou̙ o̘ː uː ɒ ɒː ɔ ɔ̘ː ə əɨ̙ ə̘ː ɛ ɛ̘ː ɨː ɪ ɪ̈ ʊ
wuch1236-17	Wu Chinese	wuch1236	Sino-Tibetan	Eurasia	29.8621	119.682	38	29	9	0	0	0	0	3.2222222222222223	b̥ʱ d̥ʱ f h j k kʰ l m m̩ n p pʰ s t ts tsʰ ts̥ʱ tʰ v w z z̞̩ ŋ ŋ̍ g̥ʱ ɦ ɻ ʔ a i ĩ o̞ õ̞ u y æ̃ ə̟
hakk1236-18	Hakka Chinese	hakk1236	Sino-Tibetan	Eurasia	25.0	116.0	27	21	6	0	0	0	0	3.5	f h j k̟ k̟ʰ l ⁿb m̩ ⁿd p pʰ s t ts tsʰ tʰ w z̞̩ ⁿg̟ ŋ̍ ʔ a i u æ ɔ ɛ
nyis1236-21	Nyishi-Hill Miri	nyis1236	Sino-Tibetan	Eurasia	27.278263	93.675529	25	16	9	0	0	0	0	1.7777777777777777	b d j k l̪ m n p r s t x ŋ g ɦ ʔ i i̥ u u̥ ɑ ɔ ɛ ɯ ʌ
lahu1253-23	Lahu	lahu1253	Sino-Tibetan	Eurasia	21.2701	100.214	35	26	9	0	0	0	0	2.888888888888889	b d dʒ f h j k kʰ l m n p pʰ q qʰ t tʰ tʃ tʃʰ v w ŋ g ɣ ʃ ʔ a e e̞ i o u ɔ ɘ ɨ
garo1247-24	Garo	garo1247	Sino-Tibetan	Eurasia	25.2954	90.462	26	21	5	0	0	0	0	4.2	b d dz h kʰ l m mˀ n nˀ pʰ s̻ ts tʰ w ŋ ŋˀ g ɾ ɾˀ ʔ a e̞ i o ʉ
lakk1238-26	Lakkia	lakk1238	Tai-Kadai	Eurasia	24.1169	110.106	53	31	22	0	3	0	0	1.4090909090909092	f h j j̊ k kʰ kʲʰ kʷ kʷʰ l m m̥ n n̥ p pʰ t ts tsʰ tʰ w ŋ ŋʲ ŋʷ ŋ̥ʲ ɥ ɬ ʍ ʔ ˀb θ a ã ă ã̆ ĕ i ie iẽ ĩ ĭ õ̆ u uo ũ ŭ ũ̆ ɔ ɔ̃ ɛ ɛ̃ ɛ̆ ɛ̃̆
bouy1240-28	Bouyei	bouy1240	Tai-Kadai	Eurasia	24.8484	106.187	32	24	8	0	0	0	1	3.0	b c cʰ d f h j k kʰ l m n p pʰ r s t tʰ v ŋ g ɲ ʔ θ a aː i u ɔ ə ɛ ɯ
east2563-29	Eastern Cham	east2563	Austronesian	Eurasia	11.2853	108.49	33	24	9	0	0	0	0	2.6666666666666665	b c cʰ d h j k kʰ l m n p pʰ t tʰ w ŋ ɲ ɾ ʂ ʃ ʈ ʈʰ ʔ a e i o u ɔ ə ɛ ɨ
atay1247-30	Atayal	atay1247	Austronesian	Papunesia	24.5209	121.388	27	19	8	0	0	0	2	2.375	j k l m n p q s t ts w x ħ ŋ ɣ ɾ ʒ ʔ β a i iː u uː ɔ ə̆ ɛ
plat1254-31	Plateau Malagasy	plat1254	Austronesian	Africa	-19.5907	47.1211	36	31	5	0	0	0	0	6.2	b d dz f h j k l m ⁿb ⁿp n ⁿd ⁿdz ⁿt ⁿts p s t ts v w z ⁿk ⁿg ɖʳ g ⁿɖʳ ⁿʈʳ ɾ ʈʳ a e̞ i ɔ ʊ
stan1306-32	Standard Malay	stan1306	Austronesian	Eurasia	3.08896	101.699	27	21	6	0	0	0	0	3.5	b c d f h k l m n p r s t v x z ŋ ɟ g ɲ ʃ a e i u ɔ ə
bata1289-33	Batak Toba	bata1289	Austronesian	Papunesia	2.35498	99.1761	21	16	5	0	0	0	0	3.2	b d dʒ h j k l m n p s t w ŋ g ʀ a i o u ɛ
saba1265-34	Sa'ban	saba1265	Austronesian	Papunesia	3.58723	115.664	46	38	8	0	0	1	1	4.75	b b͈ d dʒ dʒ͈ d͈ h j k k͈ l l̥ l̩ m m̥ m̩ n n̥ n̩ p p͈ r̩ s sː t tʃ t͈ w ŋ ŋ̊ ŋ̍ g ɲ ɲ̊ ɲ̍ ɾ ɻ̝̊ ʔ a aː i u ɔ ə ɛ ɨ
sund1252-35	Sundanese	sund1252	Austronesian	Papunesia	-6.89708	107.106	26	19	7	0	0	0	0	2.7142857142857144	b d dʒ h j k l m n p s tʃ t̪ w ŋ g ɲ ɾ ʔ a i o u ə ɛ ɨ
java1254-36	Javanese	java1254	Austronesian	Papunesia	-7.001	109.287	30	22	8	0	0	0	0	2.75	b̥ʱ d̥ʱ d̪̥ʱ h j k l lʱ m n p r s t ts ts̥ʱ t̪ w ŋ g̥ʱ ɲ ʔ a e i o u ɔ ə ɛ
taga1270-37	Tagalog	taga1270	Austronesian	Papunesia	14.06	121.747	28	18	10	0	0	0	5	1.8	b d f h j k l m n p s t tʃ w ŋ g ɾ ʔ aː e eː iː o oː uː ə ɪ ʊ
cham1312-38	Chamorro	cham1312	Austronesian	Papunesia	13.438011	144.74474	36	30	6	0	0	10	0	5.0	b bː d dz dː f h j k kː l lː m mː n nː pʰ pː s sː t ts tː w ŋ g gː ɲ ɻ ʔ e i o u æ ɒ
iaai1238-39	Iaai	iaai1238	Austronesian	Papunesia	-20.6301	166.59	52	33	19	0	0	0	8	1.736842105263158	b bʷ d dʒ f h k l l̥ m mʷ m̥ m̥ʷ n n̥ p s t tʃ w x ð ŋ ŋ̊ ɖ g ɲ ɲ̊ ɸ ɹ ʈ ʍ θ a aː e eː i iː o oː u uː y æ æː ø œ ɔ ɔː ɛ ɛː
kali1299-40	Kaliai	kali1299	Austronesian	Papunesia	-5.55033	149.148	28	18	10	0	0	0	5	1.8	h k l m ⁿb n ⁿd p r s t ŋ ⁿg gɣ ɾ ʍ ʔ β a aː e̞ e̞ː i iː o̞ o̞ː u uː
adze1240-41	Adzera	adze1240	Austronesian	Papunesia	-6.39394	146.294	25	18	7	0	0	0	3	2.5714285714285716	b d dz f h j kʰ m n pʰ r s tsʰ tʰ ŋ g ɰ ʔ a aː i iː o oː ɯ
maor1246-42	Maori	maor1246	Austronesian	Papunesia	-38.2881	176.541	20	10	10	0	0	0	5	1.0	f h k m n p t w ŋ ɾ i iː oː o̞ u uː ɑ ɑː ɛ ɛː
hawa1245-43	Hawaiian	hawa1245	Austronesian	Papunesia	19.6297	-155.43	19	9	10	0	0	0	5	0.9	h k l m n p s w ʔ a aː eː i iː o oː u uː ɛ
anta1253-44	Antakarinya	anta1253	Pama-Nyungan	Australia	-27.1152	134.838	23	17	6	0	0	0	3	2.8333333333333335	j k l l̻ m n n̻ p t t̻ w ŋ ɭ ɳ ɻ ɾ ʈ a aː i iː uː ʊ
nyan1301-45	Nyangumarta	nyan1301	Pama-Nyungan	Australia	-20.6271	121.391	27	20	7	0	0	0	4	2.857142857142857	j k l l̻ m n n̻ p r t t̻ w xʷ ŋ ŋʷ ɭ ɳ ɻ ʈ ʔ a aː eː iː uː ɪ ʊ
kunj1245-46	Kunjen	kunj1245	Pama-Nyungan	Australia	-16.6807	143.53	28	23	5	0	0	0	0	4.6	c cʰ f j k kʰ l m n n̻ p pʰ r̥ t tʰ t̻ t̻ʰ w ð ŋ ɣ ɲ ɻ a o̞ ɛ ɪ ʊ
mara1386-47	Maranunggu	mara1386	Western Daly	Australia	-13.6754	130.12	24	19	5	0	0	6	0	3.8	j k kː l m mː n nː p pː r t tː tʃ tʃː w ŋ ɲ ɹ a i æ ə ʊ
maun1240-48	Mawng	maun1240	Iwaidjan Proper	Australia	-11.66	133.376	24	19	5	0	0	0	0	3.8	j k l m n n̻ p r t t̻ w ŋ ɣ ɭ ɳ ɻ ɽ ʈ ʔ a i u ɔ ɛ
nung1290-49	Wubuy	nung1290	Gunwinyguan	Australia	-14.2623	135.753	24	19	5	0	0	0	1	3.8	c̟ j k l l̪ m n n̪ p r t t̪ w ŋ ɭ ɲ̟ ɳ ɻ ʈ aː æ ɐ ɪ ɯ̞
alaw1244-50	Alawa	alaw1244	Mangarrayi-Maran	Australia	-15.5458	134.282	28	23	5	0	0	0	1	4.6	c̟ j k l m ⁿb n ⁿd p t w ŋ ⁿg ɭ ɲ̟ ⁿʝ̟ ɳ ⁿɖ ɹ ɾ ʈ ȴ ʔ a e̞ e̞ː ɪ ɯ̞
wikm1247-51	Wik-Mungkan	wikm1247	Pama-Nyungan	Australia	-13.98051	141.81611	23	13	10	0	0	0	5	1.3	c̟ j k l m n p r t w ŋ ɲ̟ ʔ a aː i iː ɔ ɔː ɛ ɛː ʊ ʊː
nucl1632-52	Sentani	nucl1632	Sentanic	Papunesia	-2.6013	140.512	17	10	7	0	0	0	0	1.4285714285714286	f h j k m n p t w ɺ a̟ e i u ɔ ə ɛ
kwom1262-53	Kwoma	kwom1262	Sepik	Papunesia	-4.08721	142.664	31	24	7	0	0	0	0	3.4285714285714284	h j k kʷ m ⁿb ⁿbʷ mʷ n ⁿd ⁿdʒ s t tʃ w ⁿg ⁿgʷ ɲ ɸ ɸʷ ɾ ʃ ʔ β a e i o̞ u ɛ ɨ
tamn1235-54	Tamnim Citak	tamn1235	Nuclear Trans New Guinea	Papunesia	-5.57962	139.233	19	14	5	0	0	0	0	2.8	f k m n p pʷ s t tʃ w ɾ ʃ ʝ θ a e i u ɔ
tele1256-55	Telefol	tele1256	Nuclear Trans New Guinea	Papunesia	-5.07444	141.731	25	17	8	0	0	0	5	2.125	b d f h j k kʷ l m n p s t w ŋ g ʔ a aː i iː u uː ɔː ɛː
gads1258-56	Gadsup	gads1258	Nuclear Trans New Guinea	Papunesia	-6.31631	145.997	15	9	6	0	0	0	3	1.5	d j k m n p t̻ ʔ β a̟ː eː i oː u ɜ
awiy1238-57	Awiyaana	awiy1238	Nuclear Trans New Guinea	Papunesia	-6.54079	145.76	17	11	6	0	0	2	1	1.8333333333333333	j k m mː n nː p t w ɾ ʔ aː e i o̞ u ə
kuni1267-58	Kunimaipa	kuni1267	Goilalan	Papunesia	-8.09371	146.908	20	15	5	0	0	0	0	3.0	b d̪ k l m n p s t z ŋ g ɢ ɽ β̞ a e i u ʊ
sele1250-59	Selepet	sele1250	Nuclear Trans New Guinea	Papunesia	-6.03532	147.234	21	15	6	0	0	0	0	2.5	h j kʰ l m ⁿb n ⁿd pʰ s tʰ w ŋ ⁿg ɾ a i o u ɛ ɶ̝
naas1242-60	Naasioi	naas1242	South Bougainville	Papunesia	-6.46022	155.632	18	8	10	0	0	0	5	0.8	b k m n p t ɾ ʔ a aː i iː o oː u uː ɛ ɛː
aleu1260-61	Aleut	aleu1260	Eskimo-Aleut	North America	52.1228	-174.29	36	30	6	0	0	0	3	5.0	f h j j̊ k l l̥ m m̥ n n̥ p q r t tʃ v w x ð ŋ ŋ̊ ɣ ʁ ʃ ʍ ʒ ʔ β χ a aː i iː u uː
kala1399-62	Kalaallisut	kala1399	Eskimo-Aleut	North America	69.3761	-52.864	38	32	6	0	0	15	3	5.333333333333333	fː h k kː l m mː n nː p pː q qː s̻ s̻ː t tː tsː xː ŋ ŋː ɣ ɬː ɴ ɴː ʁ ʃ ʃː ʔ ʝ β χː a aː i u ɪː ʊː
chip1261-63	Chipewyan	chip1261	Athabaskan-Eyak-Tlingit	North America	58.98	-104.44	57	39	18	0	0	0	8	2.1666666666666665	h j k kx kxʷ kʷ kʼʷ kʼ l l̥ m n p r s t ts tsʰ tsʼ tʶ tɬ tɬʰ tɬʼ tʼ tʃ tʃʰ tʃʼ tθ tθʰ tθʼ x xʷ z ð ɣ ɣʷ ʃ ʔ θ a aː ã ãː e i iː ĩ ĩː o u uː ũ ũː ɛ ɛː ɛ̃ ɛ̃ː
tolo1259-64	Tolowa-Chetco	tolo1259	Athabaskan-Eyak-Tlingit	North America	41.9192	-124.1	44	29	15	0	0	0	7	1.9333333333333333	h j k kʷ kʼʷ kʼ l m mˀ n nˀ p s t tsʼ tʰ tʼ tʃ tʃʰ tʃʼ w x xʷ ɣ ɬ ʂ ʃ ʈʂʼ ʔ a aː ã ãː e̞ e̞ː i iː ĩ ĩː u uː ũ ũː ə
hupa1239-65	Hupa-Chilula	hupa1239	Athabaskan-Eyak-Tlingit	North America	41.0982	-123.68	42	35	7	0	0	0	3	5.0	c cʰ cʼ h hʷ j k kʰ kʼ l m n p q qʰ qʼ s̻ t tɬʼ tʰ tʼ tʃ tʃʷʰ tʃʼʷ tʃʼ ts̻ ts̻ʰ ts̻ʼ w x xʷ ŋ ɬ ʃ ʔ a aː e̞ e̞ː o̞ o̞ː ɪ
nava1243-66	Navajo	nava1243	Athabaskan-Eyak-Tlingit	North America	36.33	-109.38	52	36	16	0	0	0	8	2.25	h hʷ j k kʰ kʷʰ kʼ l m n p s t ts tsʰ tsʼ tɬ tɬʰ tɬʼ tʰ tʼ tʃ tʃʰ tʃʼ w x xʷ z ɣ ɬ ʃ ʒ ʔ ˀj ˀm ˀn a aː ã ãː iː ĩː oː õː ɔ ɔ̃ ɛ ɛː ɛ̃ ɛ̃ː ɪ ɪ̃
sout2956-67	Southern Haida	sout2956	Haida	North America	53.2616	-132.008	50	47	3	0	0	0	0	15.666666666666666	c cʰ cʼ dɮ h j k kʰ kʷ kʷʰ kʼʷ kʼ l m n p pʰ q qʰ qʷ qʷʰ qʼʷ qʼ s t tɬʰ tɬʼ tʰ tʼ tʃ tʃʰ tʃʼ w x xʷ ç ŋ ɬ ʔ ˀj ˀl ˀm ˀn ˀw ˀŋ χ χʷ a i ʊ
squa1248-68	Squamish	squa1248	Salishan	North America	49.3231	-123.014	37	30	7	0	0	0	3	4.285714285714286	h j k kʷ kʼʷ kʼ l m n p pʼ q qʷ qʼʷ qʼ s t ts tsʼ tɬ tɬʼ tʼ tʃ tʃʼ w xʷ ʃ ʔ χ χʷ a aː e eː o oː ə
sout2965-69	Southern Puget Sound Salish	sout2965	Salishan	North America	47.263	-122.141	43	36	7	0	0	0	3	5.142857142857143	b d dz dʒ h j k kʷ kʼʷ kʼ l m n p pʼ q qʷ qʼʷ qʼ s t ts tsʼ tɬʼ tʼ tʃ tʃʼ w xʷ g gʷ ɬ ʃ ʔ χ χʷ a aː eː ə ɪ ʊ ʊː
nuuc1236-70	Nuu-chah-nulth	nuuc1236	Wakashan	North America	49.67	-126.67	47	37	10	0	0	0	5	3.7	h j k kʷ kʼʷ kʼ m n p pʼ q qʷ qʼʷ qʼ s t ts tsʼ tɬ tɬʼ tʼ tʃ tʃʼ w x xʷ ħ ɬ ʃ ʔ ʔˤ ˀj ˀm ˀn ˀw χ χʷ a aː i iː o oː ɔ ɔː ɛ ɛː
kwak1269-71	Kwak'wala	kwak1269	Wakashan	North America	50.9269	-127.308	55	46	9	0	0	0	3	5.111111111111111	b cʰ cʼ d dɮ dz h j kʷʰ kʼʷ l l̩ m m̩ n n̩ pʰ pʼ qʰ qʷʰ qʼʷ qʼ s tsʰ tsʼ tɬʰ tɬʼ tʰ tʼ w xʷ ç ħ ɟ gʷ ɢ ɢʷ ɬ ʔ ˀj ˀl ˀm ˀn ˀw χ χʷ a aː i iː u uː æ ɔ ə
east2542-72	Eastern Ojibwa	east2542	Algic	North America	45.0112	-79.7503	27	16	11	0	0	6	8	1.4545454545454546	k k͈ː l m n p p͈ː s s͈ː t tʃ tʃ͈ː t͈ː ʃ ʃ͈ː ʔ a aː ãː iː ĩː oː õː ɛː ɛ̃ː ɪ ʊ
unam1242-73	Unami	unam1242	Algic	North America	35.0264	-98.3201	39	22	17	0	0	9	11	1.2941176470588236	h hː j k kː l lː m mː n nː p pː s t tː tʃ tʃː w wː x ʃ a aː ãː i iː ĩː u uː ũː æː æ̃ː ɔ ɔː ɔ̃ː ə ə̃ː ɛ
wich1260-74	Wichita	wich1260	Caddoan	North America	35.0665	-98.1831	29	21	8	0	0	3	4	2.625	j k kʰ kʷ kʷʰ kʼ n nː s sˀ sː t ts tsʼ tʰ tsː w ɦ ɾˀ ʈʂʰ ʔ eː i oː u ɒ ɒː ɛ ɛː
lako1247-75	Lakota	lako1247	Siouan	North America	46.3699	-103.95	36	27	9	0	0	0	0	3.0	h j k kʰ kʼ m n p pʰ pʼ s sʼ t tʰ tʼ tʃ tʃʰ tʃʼ w x xʼ z ɣ ʃ ʃʼ ʒ ʔ a ã e̞ i ĩ o u ũ ə̆
sene1264-76	Seneca	sene1264	Iroquoian	North America	42.56	-77.53	27	11	16	0	0	0	8	0.6875	b dz h j k m n s̻ t w ʔ a aː e eː i iː o̞ o̞ː u uː æ æː ɔ̃ ɔ̃ː ɛ̃ ɛ̃ː
onei1249-77	Oneida	onei1249	Iroquoian	North America	43.438742	-75.708106	22	10	12	0	0	0	6	0.8333333333333334	h j k l n s t tʃ ɰ ʔ a aː e̞ e̞ː i iː ə̃ ə̃ː ɤ̞ ɤ̞ː ɯ̃ ɯ̃ː
yuch1247-78	Yuchi	yuch1247		North America	35.75	-86.75	64	38	26	0	0	0	13	1.4615384615384615	b d dz dʒ h j k kʰ kʼ l n p pʰ pʼ s sʼ t ts tsʰ tsʼ tʰ tʼ tʃ tʃʰ tʃʼ w g ɬ ɬʼ ɸ ɸʼ ʃ ʃʼ ʔ ˀj ˀl ˀn ˀw a aː ã ãː e eː ẽ̞ ẽ̞ː i iː o oː õ̞ õ̞ː u uː æ æː æ̃ æ̃ː ɪ̃ ɪ̃ː ʊ ʊː ʊ̃ ʊ̃ː
alab1237-79	Alabama	alab1237	Muskogean	North America	30.76738	-94.62848	21	15	6	0	0	0	3	2.5	b h j k l m n p s tʃ t̪ w ɬ ɸ ʔ a aː eː o oː ɪ
tuni1252-80	Tunica	tuni1252		North America	30.9888	-92.5403	25	18	7	0	0	0	0	2.5714285714285716	b d f h j kʰ l m n pʰ r s̻ tʰ tʃʰ w g ʃ ʔ a e i o u ɔ ɛ
nezp1238-81	Nez Perce	nezp1238	Sahaptian	North America	46.3073	-116.408	36	26	10	0	0	0	5	2.6	h j j̰ k kʼ l̻ l̻̰ m m̰ n n̰ p pʼ qʼ qχ s̻ t tʼ t̪ t̪ʼ w w̰ x ɬ ʔ χ a aː iː æ æː ɔ ɔː ɪ ɯː ɯ̞
nort2952-82	Northeast Maidu	nort2952	Maiduan	North America	40.4102	-120.645	24	18	6	0	0	0	0	3.0	cʰ cʼ h j kʰ kʼ l m n pʰ pʼ s tʰ tʼ w ɓ ɗ ʔ a e̞ i o̞ u ɨ
copa1236-83	Copainalá Zoque	copa1236	Mixe-Zoque	North America	17.2157	-93.3183	32	26	6	0	0	0	0	4.333333333333333	b c̟ d f h h̃ j j̃ k l m n p r s t ts tʃ w w̃ ŋ g ɲ̟ ɾ ʃ ʔ a i o̞ u ɛ ɤ̞̃
papa1238-84	Papantla Totonac	papa1238	Totonacan	North America	20.5671	-97.2554	26	20	6	0	0	4	3	3.3333333333333335	h j k kː l m n p pː q qː s t ts tː tʃ w ɬ ʃ ʔ aː i iː u uː ɐ
taba1266-85	Tabasco Chontal	taba1266	Mayan	North America	18.1713	-92.7367	37	25	12	0	0	0	6	2.0833333333333335	b d f h j k kʼ l m n p pʼ r s t ts tsʼ tʼ tʃ tʃʼ w g ɾ ʃ ʔ a ãː e̞ ẽ̞ː i ĩː o̞ õ̞ː u ũː ə ə̃ː
tzel1254-86	Tzeltal	tzel1254	Mayan	North America	16.6384	-92.2786	30	25	5	0	0	0	0	5.0	b d f h j kʰ kʼ l m n p pʼ r s t ts tsʼ tʼ tʃ tʃʼ w g ɾ ʃ ʔ a e̞ o̞ ɪ ʊ
pure1242-87	Purepecha	pure1242	Tarascan	North America	19.2467	-101.631	32	26	6	0	0	0	0	4.333333333333333	b d f h j kʰ k̚ l m n pʰ p̚ s tsʰ tʰ tʃʰ tʃ̚ t̚ ts̚ w x g ɭ ɲ ʃ ʔ a i o u ɛ ɨ˞
sout2982-89	Southeastern Pomo	sout2982	Pomoan	North America	38.9354	-122.599	38	27	11	0	0	0	5	2.4545454545454546	b d f h j k kʼ l m n p pʼ q qʼ s t ts tsʼ tʼ t̪ t̪ʼ w x ɾ ʃ ʔ χ a aː ɔ ɔː ə ɛ ɛː ɪ ɪː ʊ ʊː
kumi1248-90	Tipai	kumi1248	Cochimi-Yuman	North America	32.331	-116.604	34	25	9	0	0	0	4	2.7777777777777777	j k kʷ l l̻ m n n̪ p q r s s̪ t tʃ t̪ w x xʷ ɬ ɬ̻ ɲ̟ ɹ ʔ β a aː eː oː ɔ ɔː ə ɪ ʊ
zuni1245-91	Zuni	zuni1245		North America	35.0056	-108.782	54	44	10	0	0	21	5	4.4	h j jː kʰ kʰː kʷʰ kʷʰː kʼʷ kʼʷː kʼ kʼː l lː m mː n nː p pʼ pʼː pː s sː t tsʰ tsʰː tsʼ tsʼː tʼ tʼː tː tʃʰ tʃʰː tʃʼ tʃʼː w wː xʰ ɬ ɬː ʃ ʃː ʔ ʔː a aː i iː u uː ɔ ɔː ɛ ɛː
picu1248-92	Picuris Northern Tiwa	picu1248	Kiowa-Tanoan	North America	37.083011	-105.267144	38	26	12	0	0	0	0	2.1666666666666665	b d h j k kʷ kʼʷ kʼ l m n p pʰ pʼ r s t tʰ tʼ tʃ w x xʷ g ɬ ʔ e ẽ i ĩ o õ u ũ ɑ ɑ̃ ə ə̃
tewa1260-93	Rio Grande Tewa	tewa1260	Kiowa-Tanoan	North America	35.9053	-106.124	53	34	19	0	0	0	9	1.7894736842105263	b d dʒ h hʷ j k kʷ kʼʷ kʼ m n nʲ p pʼ s t ts tsʼ tʲ tʼ tʃ tʃʼ w ŋ g ɸ ɾ ʃ ʔ β θ χ χʷ a̟ a̟ː ã̟ ã̟ː eː e̞ i iː ĩ oː o̞ u uː ũ ũː æː ɛ ɛ̃ ɛ̃ː
luis1253-94	Luiseno-Juaneño	luis1253	Uto-Aztecan	North America	33.3184	-116.939	34	23	11	0	0	0	5	2.090909090909091	h j k kʷ l m n p qʰ qʷʰ s t tʃ w x xʷ ð ŋ ɾ ʂ ʃ ʔ β a aː e̞ e̞ː o̞ o̞ː ɨ ɪ ɪː ʊ ʊː
hopi1249-95	Hopi	hopi1249	Uto-Aztecan	North America	35.7653	-110.535	49	31	18	0	2	0	5	1.7222222222222223	h j j̊ k kʷ l l̥ m m̥ n n̥ p q s t ts v w ŋ ŋʷ ŋ̊ ɲ ʍ ɻ̝ ʔ ʰk ʰkʷ ʰp ʰq ʰt ʰts a aː ă a̟ː i iː ĭ ou oːu ŭ y̆ ø øː ɛ ɛ̆ ɤ ɤː ɯ̆
toho1245-96	Tohono O'odham	toho1245	Uto-Aztecan	North America	31.7973	-111.995	29	19	10	0	0	0	5	1.9	h j k k̚ m n p p̚ s t tʃ tʃ̚ t̚ w ɲ̟ ɺ ʂ ʈ̚ ʔ a aː i iː u uː ɔ ɔː ɨ ɨː
mezq1235-97	Mezquital Otomi	mezq1235	Otomanguean	North America	20.2274	-99.5564	55	42	13	0	0	0	0	3.230769230769231	b d h j jˀ j̊ k kʰ kʷ kʼʷ kʼ l m mˀ m̥ n nˀ n̥ p pʰ pʼ s t tsʼ tʰ tʼ tʃ tʃʼ w wˀ x xʷ z ɓ ɗ g gʷ ɸ ɾ ʃ ʍ ʔ a ã e i ĩ o u ũ æ æ̃ ɔ ə ɨ
cent2144-98	Central Mazahua	cent2144	Otomanguean	North America	19.7357	-100.018	60	45	15	0	0	0	0	3.0	h j j̊ k kʰ kʷ kʷʰ kʼʷ kʼ l m m̥ n n̥ p pʰ r s sʰ sʼ t ts tsʰ tsʼ tʰ tʼ tʃ tʃʰ tʃʼ w z ɓ ɗ g gʷ ɲ ɲ̊ ʃ ʍ ʒ ʔ ˀj ˀm ˀw ˀɲ a ã e ẽ i ĩ o õ u ũ ɔ ə ə̃ ɛ ʌ
chiq1250-99	Chiquihuitlán Mazatec	chiq1250	Otomanguean	North America	18.0541	-96.6659	34	26	8	0	0	0	0	3.25	b h j k l m n ⁿd ⁿdz ⁿdʒ p r s t ts tʃ ð ⁿg ɣ ɲ̟ ⁿɖʐ ɾ ʂ ʈʂ ʔ β a ã i ĩ o õ ɛ ɛ̃
sanm1295-100	San Miguel El Grande Mixtec	sanm1295	Otomanguean	North America	17.046881	-97.622482	29	19	10	0	0	0	0	1.9	h k kʷ l m n p r s t tʃ ð ŋ ɣ ɲ ʃ ʒ ʔ β a ã e ẽ i ĩ o õ u ũ
chac1249-101	Cha'palaa	chac1249	Barbacoan	South America	0.71489	-79.0508	28	24	4	0	0	0	0	6.0	b c d h j k l m n p r s t ts tʃ w ŋ ɟ g ɲ̟ ɸ ʃ ȴ ʔ i ɑ ɛ ʊ
paez1247-102	Páez	paez1247		South America	2.61516	-76.31254	39	29	10	0	0	0	0	2.9	h j k m ⁿb n ⁿd ⁿdʲ ⁿz ⁿʒ p s t ts tʲ tʃ w çʲ ⁿg ɣ ɲ ɸʲ ɺ ɺʲ ɾ ʃ ʃʲ ʔ β a ã i ĩ ĭ u ũ ə̆ ɛ ɛ̃
iton1250-103	Itonama	iton1250		South America	-12.80431	-64.35748	25	19	6	0	0	0	0	3.1666666666666665	b d h j k kʼ l m n p s t tʲ tʼ tʃ tʃʼ w ɾ ʔ a e i o u ɨ
sout2991-104	South Bolivian Quechua	sout2991	Quechuan	South America	-20.9201	-66.3331	37	32	5	0	0	0	0	6.4	h j k kʰ kʼ l m n p pʰ pʼ q qʰ qʼ r s t tʰ tʼ tʃ tʃʰ tʃʼ w ð ɣ ɲ ɸ ɾ ʃ ʎ ʔ β a ɔ ɛ ɪ ʊ
jaqa1244-105	Jaqaru	jaqa1244	Aymaran	South America	-12.741939	-75.809231	42	36	6	0	0	0	3	6.0	c cʰ cʼ j k kʰ kʼ l m n p pʰ pʼ q qʰ qʼ s t ts tsʰ tsʼ tʰ tʼ tʃ tʃʰ tʃʼ w x ŋ ɲ ɾ ʃ ʈʂ ʈʂʰ ʈʂʼ ʎ a aː i iː ɯ ɯː
mapu1245-106	Mapudungun	mapu1245	Araucanian	South America	-38.7392	-71.277	26	20	6	0	0	0	0	3.3333333333333335	j k l l̪ m n n̪ p s t tʃ t̪ w ŋ ɲ ɸ ɻ ʈʂ ʎ θ a i u ɔ ɛ ɯ
isla1278-107	Island Carib	isla1278	Arawakan	North America	15.364795	-61.342957	29	17	12	0	0	0	2	1.4166666666666667	b d f h j k l m n p s t tʃ w g ɰ ɾ a ã e̞ ẽ̞ i ĩ u ũ ɔː ɛː ɤ̞ ɤ̞̃
wapi1253-108	Wapishana	wapi1253	Arawakan	South America	2.58744	-59.8021	29	17	12	0	0	0	4	1.4166666666666667	bˀ d dˀ h kʰ m pʰ s tʰ tʃʰ w g ɲ̟ ɾ ʃ ʐ ʔ a aː ã i iː ĩ u uː ũ ɨ ɨː ɨ̃
wayu1243-109	Wayuu	wayu1243	Arawakan	South America	11.395566	-72.199791	46	28	18	0	0	9	6	1.5555555555555556	h j k kː m mː n nː p pː r s sː t tː tʃ tʃː w ŋ ɺ ɺː ʃ ʃː ʔ ʰk ʰp ʰt ʰtʃ a aː ã i iː ĩ u uː ũ ɔ ɔː ɔ̃ ə əː ə̃ ɛ ɛː ɛ̃
asha1243-110	Asháninka	asha1243	Arawakan	South America	-11.9311	-73.9073	21	17	4	0	0	0	0	4.25	c̟ h j k m n p s t ts tʃ w ɲ̟ ɾ ʃ ʔ β a e i o
igna1246-111	Ignaciano	igna1246	Arawakan	South America	-15.1188	-65.3993	25	21	4	0	0	0	0	5.25	b d f h j k l m n p s t ts tʃ w ŋ ɲ̟ ɾ ʃ ʔ β a i u ɛ
yane1238-112	Yanesha'	yane1238	Arawakan	South America	-10.5454	-75.315	29	23	6	0	0	0	3	3.8333333333333335	j k lʲ m mʲ n p pʲ s t tsʰ tʃʰ tʃʲʰ w x ɣ ɲ ɾ ʃ ʈʂʰ ʐ ʔ β a aː e eː o oː
shua1257-113	Shuar	shua1257	Chicham	South America	-3.45136	-78.1892	24	16	8	0	0	0	0	2.0	j k m n p pʼ s t ts tʃ w x ɲ̟ ɾ ʃ ʔ a ã i ĩ u ũ ɯ ɯ̃
waim1255-114	Waimaha	waim1255	Tucanoan	South America	0.30416	-70.1644	23	11	12	0	0	0	0	0.9166666666666666	b d h j k p s t w g ɾ a ã i ĩ o õ u ũ ɛ ɛ̃ ɨ ɨ̃
ticu1245-115	Ticuna	ticu1245	Ticuna-Yuri	South America	-3.66289	-69.8723	29	18	11	0	0	0	0	1.6363636363636365	b d dʒ f k kʷ m n p s t tʃ w ŋ g ɲ ɾ ʔ a ã e̞ i ĩ o̞ õ̞ u ũ ɨ ɨ̃
gali1262-116	Galibi Carib	gali1262	Cariban	South America	5.83772	-56.8323	28	16	12	0	0	0	6	1.3333333333333333	b d h j k m n p s t w ŋ g ɾ ʔ β e̞ː i iː o̞ o̞ː u uː ɐ ɐː ɛ ɯ ɯː
ocai1244-117	Ocaina	ocai1244	Huitotoan	South America	-2.159	-72.1422	36	27	9	0	0	3	0	3.0	b dz dʲ dʒ h k m mː n nː p s t ts tʲ tʃ w x g ɲ ɲː ɸ ɾ ʃ ʒ ʔ β a ã i ĩ o̞ õ̞ ɛ ɯ ɯ̃
siri1273-118	Sirionó	siri1273	Tupian	South America	-15.5298	-63.9688	28	18	10	0	0	0	0	1.8	b h j k kʲ m n p s t tʃ w z̞̩ˠ z̞̩̃ˠ ŋ ɲ̟ ɾ ʃ a ã e ẽ i ĩ o õ u ũ
para1311-119	Paraguayan Guaraní	para1311	Tupian	South America	-25.60551	-57.08816	36	24	12	0	0	0	0	2.0	f k kʷ l m n p r s s̻ t tʃ v x xʷ ð ŋ ŋʷ ɣ ɣʷ ɲ ɾ ʎ ʔ a ã e ẽ i ĩ o õ u ũ ɨ ɨ̃
amah1246-120	Amahuaca	amah1246	Pano-Tacanan	South America	-10.2012	-72.3208	22	14	8	0	0	0	0	1.75	h j k m n p s t tʃ w x ɾ ʔ θ a ã o õ ɪ ɪ̃ ɯ ɯ̃
chac1251-121	Chácobo	chac1251	Pano-Tacanan	South America	-12.133	-66.7164	21	17	4	0	0	0	0	4.25	h j k m n p s t ts tʃ w ɣ ɾ ʂ ʃ ʔ β a i o̞ ɨ
apin1244-122	Apinayé	apin1244	Nuclear-Macro-Je	South America	-6.10774	-47.6315	49	14	35	0	0	0	17	0.4	h k ⁿb ⁿd p s t tʃ v ⁿg ⁿɟ ɽ ʒ ʔ a aː ã ãː e eː i iː ĩ ĩː o oː õ õː u uː ũ ũː ɔ ɔː ə ɛ ɛː ɛ̃ ɛ̃ː ɤ ɤː ɯ ɯː ɯ̃ ɯ̃ː ʌ ʌː ʌ̃ ʌ̃ː
tach1250-123	Tachelhit	tach1250	Afro-Asiatic	Africa	29.7854	-7.77879	49	45	4	0	0	17	0	11.25	b b͈ː d dˤ d͈ː f f͈ː h j k kˤ k͈ː l lˤ l͈ː m m͈ː n n͈ː r rˤ r͈ː s sˤ s͈ː t tˤ t͈ː w x x͈ː z zˤ z͈ː ħ ħ͈ː g g͈ː ɣ ɣ͈ː ʃ ʃ͈ː ʒ ʒ͈ː ʕ a i u ə
haus1257-124	Hausa	haus1257	Afro-Asiatic	Africa	11.1513	8.7804	42	32	10	0	0	0	5	3.2	b d dʒ h j jˀ k kʲ kʼʲ kʷ kʼʷ kʼ l m n r s sˀ t tʃ w z ɓ ɗ g gʲ gʷ ɸ ɸʲ ɾ ʃ ʔ aː e̞ e̞ː iː o̞ o̞ː uː ə ɪ ʊ
ngas1240-125	Ngas	ngas1240	Afro-Asiatic	Africa	9.32042	9.46146	41	30	11	0	1	0	4	2.727272727272727	b cʰ d dʒ f h j kʰ l m n pʰ r s tʰ tʃʰ v w z ŋ ɓ ɗ ɟ g ɣ ɲ ʃ ʄ ʒ ʔ a aː e iː o u uː ɛ ɜɪ̯ ɪ̈ː ɪ̠
marg1265-126	Marghi Central	marg1265	Afro-Asiatic	Africa	10.93854	13.0521	42	36	6	0	0	0	0	6.0	b c d dz dʒ f j k l m n p r s t ts tʃ v w x z ç ŋ ɓ ɗ ɟ g ɣ ɬ ɮ ɲ ʃ ʒ ʔ ʝ ⱱ a i u ɔ ə ɛ
soma1255-127	Somali	soma1255	Afro-Asiatic	Africa	4.778704	45.152856	50	30	20	0	0	8	10	1.5	b bː d dː f h j kʰ l lː m n nː rː s tʰ tʃ w x ħ g gː ɢ ɢː ɾ ʃ ʔ ʕ ᶑ ᶑː aː e eː i iː æ æː ɔ ɔː ə ɛ ɛː ɪ ɪː ɵ̞ ɵ̞ː ʊ ʊː ʊ̈ ʊ̈ː
awng1244-128	Awngi	awng1244	Afro-Asiatic	Africa	10.9819	36.6916	35	28	7	0	0	0	0	4.0	b dz dʒ f j k kʷ l m n p q qʷ s t ts tʃ w z ŋ ŋʷ ɖ g gʷ ɢ ɢʷ ɾ ʃ a e̞ i o̞ u æ ɨ
iraq1241-129	Iraqw	iraq1241	Afro-Asiatic	Africa	-4.19948	35.2939	45	33	12	0	0	1	5	2.75	b d f h j k kʷ l m n p q qʷ r s sː t tsʼ tɬʼ w x xʷ ħ ŋ ŋʷ ɓ ɗ g gʷ ɬ ʃ ʔ ʕ a eː iː oː uː ɑː ɔ ə ɛ ɪ ɵ ʊ
tigr1270-130	Tigre	tigr1270	Afro-Asiatic	Africa	17.3494	38.2233	54	47	7	0	0	21	5	6.714285714285714	b bː d dː dʒ dʒː f fː h j jː kʰ kʼ kʼː kː l lː m mː n nː r rː s sː tsʼ tsʼː tʰ tʼ tʼː tː tʃʰ tʃʼ tʃʼː tʃː w z zː ħ g gː ʃ ʃː ʒ ʒː ʔ ʕ a̟ː e̞ː iː o̞ː uː ə ɜ
amha1245-131	Amharic	amha1245	Afro-Asiatic	Africa	11.708182	39.543456	59	52	7	0	0	21	0	7.428571428571429	b bː d dː dʒ dʒː f fː h hʷ j k kʷ kʼʷ kʼ kʼː kː l lː m mː n nː p pʼ rː s sʼ sʼː sː t tʼ tʼː tː tʃ tʃʼ tʃʼː tʃː w z zː g gʷ gː ɲ ɲː ɾ ʃ ʃː ʒ ʒː ʔ a e i o u ə ɨ
egyp1253-132	Egyptian Arabic	egyp1253	Afro-Asiatic	Africa	31.0	31.0	67	58	9	0	0	26	5	6.444444444444445	b bː d dː dˤ dˤː dʒ f fː h hː j jː k kː l lː m mː n nː p q qː rː s sː sˤ sˤː t tː tˤ tˤː v w wː z zː zˤ zˤː ð ðˤ ħ ħː g gː ɾ ʁ ʁː ʃ ʃː ʔ ʔː ʕ ʕː θ χ χː a̟ eː iː oː uː æː ə ɪ ʊ
moro1292-133	Moroccan Arabic	moro1292	Afro-Asiatic	Africa	32.5	-7.5	78	74	4	0	0	35	0	18.5	b bʷː bː bˤ bˤː dˤ dˤː d̪ d̪ː f fʷː fː h hː j jː k kʷ kʷː kː lˤ lˤː l̪ l̪ː m mʷː mː mˤ mˤː n nː p q qʷ qː rː rˤː sˤ sˤː s̪ s̪ː tˤ tˤː t̪ t̪ː v w wː zˤ zˤː z̪ z̪ː ħ ħʷ ħː g gʷ gː ɾ ɾˤ ʁ ʁʷ ʁː ʃ ʃː ʒ ʒː ʔ ʔː ʕ ʕː χ χʷ χː i u æ ə̆
malt1254-134	Maltese	malt1254	Afro-Asiatic	Eurasia	35.8884	14.4508	55	45	10	0	0	22	5	4.5	b bː d dz dzː dː dʒ dʒː f fː j jː k kː l lː m mː n nː p pː r rː s sː t ts tsː tː tʃ tʃː v w wː z zː ħ ħː g gː ʃ ʃː ʔ ʔː a aː e̞ e̞ː i iː o̞ o̞ː u uː
hebr1245-135	Modern Hebrew	hebr1245	Afro-Asiatic	Eurasia	31.1056	35.0179	30	24	6	0	0	0	0	4.0	f f̚ h j k k̚ l m n p p̚ s s̚ t ts tʃ tʃ̚ t̚ x ŋ ʁ ʃ ʃ̚ ʔ a o ə̆ ɛ ɪ ʊ
katc1250-136	Katcha	katc1250	Kadugli-Krongo	Africa	10.8423	29.4914	30	23	7	0	0	0	0	3.2857142857142856	b c d d̪ f j k l m n r s t t̪ w z ŋ ɓ ɗ ɟ g ɲ ʔ a e i o u ɔ ɛ
libe1247-137	Liberia Kpelle	libe1247	Mande	Africa	6.92048	-9.96128	46	32	14	0	0	0	1	2.2857142857142856	b b̩ d d̩ f k kp kʷ m m̩ n n̩ p s t v v̩ z z̩ ŋ ŋʷ ŋ̍ ŋ̩ʷ g gb gb̩ g̩ g̩ʷ ɣ̩ ɲ ɲ̍ ɾ a ã i ĩ u ũ æː ɔ ɔ̃ ɛ ɛ̃ ɪ ɪ̃ ʊ
nucl1347-138	Wolof	nucl1347	Atlantic-Congo	Africa	15.2534	-15.383	40	26	14	0	0	5	7	1.8571428571428572	b bː c d f j k l lː m mː n nː p qχ s t w ŋ ɟ ɟː g ɲ ɾ ʔ χ a aː e eː i iː oː u uː ø ɔ ɔː ɛ ɛː
dagb1246-139	Dagbani	dagb1246	Atlantic-Congo	Africa	9.64745	-0.43227	35	24	11	0	2	0	5	2.1818181818181817	b d dʒ f j k kp l m n p s t tʃ v w z ŋ ŋm g gb ɲ ʃ ʒ a aː eː i iɛ iː oː u uɔ uː ə
akan1250-140	Akan	akan1250	Atlantic-Congo	Africa	6.34756	-1.33254	37	22	15	0	0	0	2	1.4666666666666666	b cçʰ cçʷʰ d f h j kʰ kʷʰ m̩ n̩ pʰ r r̩ s tʰ w ç çʷ ɟʝ ɟʝʷ g a ã e i ĩ o u ũ øː œː ɔ ɪ ɪ̃ ʊ ʊ̃
gaaa1244-141	Ga	gaaa1244	Atlantic-Congo	Africa	5.65488	-0.18598	44	32	12	0	0	0	0	2.6666666666666665	b d dʒ dʒʷ f h j kp kʰ l l̩ m n̩ pʰ r̩ s tʰ tʃʰ tʃʷ v w z ŋ ŋm ŋ̍ g gb ɥ ɲ ɹ ʃ ʃʷ a̟ ã̟ e i ĩ o u ũ ɔ ɔ̃ ɛ ɛ̃
ewee1241-142	Ewe	ewee1241	Atlantic-Congo	Africa	6.46061	0.814975	42	28	14	0	0	0	0	2.0	b d̻ dz̻ f j kp kʰ l m m̩ n pʰ s ts̻ t̻ʰ v w z ħ ŋ ŋ̍ g gb ɲ ɸ ɾ ʕ β a ã e ẽ i ĩ o õ u ũ ɔ ɔ̃ ɛ ɛ̃
nucl1417-143	Igbo	nucl1417	Atlantic-Congo	Africa	4.62705	7.23441	62	46	16	0	0	0	0	2.875	b bʲ bʱ bʲʱ d dʒ dʒʱ dʱ f h hʲ hʷ j k kʰ kʷ kʷʰ l m m̩ n p pʰ pʲ pʲʰ s t tʰ tʃ tʃʰ v w z ŋ ŋʷ ɓ ɓ̥ ɗ̥ g gʷ gʱ gʷʱ ɣ ɲ ɾ ɾʲ a ã e ẽ i ĩ o õ u ũ ɔ ɔ̃ ɛ ɛ̃ ʊ ʊ̃
beem1239-144	Beembe	beem1239	Atlantic-Congo	Africa	-3.95895	14.1	39	19	20	0	0	0	10	0.95	f h j kʰ l m n p pf pfʰ pʰ s t ts tsʰ tʰ v w ɲ a aː ã ãː i iː ĩ ĩː u uː ũ ũː ɔ ɔː ɔ̃ ɔ̃ː ɛ ɛː ɛ̃ ɛ̃ː
swah1253-145	Swahili	swah1253	Atlantic-Congo	Africa	-8.25605	37.624	36	31	5	0	0	0	0	6.2	f h j k kʰ l m m̩ n n̩ p pʰ r s t tʰ tʃ tʃʰ v w z ð ŋ ɓ ɗ ɠ ɣ ɲ ʃ ʄ θ a e i o u
luva1239-146	Luvale	luva1239	Atlantic-Congo	Africa	-13.5382	22.2924	32	22	10	0	0	0	5	2.2	f h j k m ⁿb n ⁿd ⁿdʒ p s t tʃ w z ŋ ⁿg ɲ ɺ ʃ ʋ ʒ a aː e eː i iː o oː u uː
zulu1248-147	Zulu	zulu1248	Atlantic-Congo	Africa	-28.9	30.2	40	35	5	0	0	0	0	7.0	dʒ f h j k ǀ ǁ ǃ kʟ̥ʼ kʰ kʼ k̚ l m m̩ n n̩ p pʰ pʼ s t tsʼ tʰ tʼ tʃʼ v w z ɓ ɦ ɬ ɮ ɲ̟ ʃ i u ɒ ɔ ɛ
gbay1287-148	Gbaya-Bossangoa	gbay1287	Atlantic-Congo	Africa	6.61896	17.645	43	31	12	0	0	0	0	2.5833333333333335	b d f h j k kp l m ⁿb n ⁿd p s t v w z ŋ ŋm ⁿgb ⁿg ɓ ɗ g gb ɾ ʔ ˀm ˀn ⱱ a ã e i ĩ o u ũ æ̃ ɔ ɔ̃ ɛ
koyr1242-149	Koyraboro Senni Songhai	koyr1242	Songhay	Africa	16.9634	-0.55187	48	33	15	0	0	11	5	2.2	b bː d dʲ dː f h j jː k kː l lː m mː n nː p pː r rː s t tʲ tː w z ŋ g gː ɲ ʃ ʒ a aː ã e ẽ e̞ː i iː o oː õ u uː ũ ɛ
cent2050-150	Central Kanuri	cent2050	Saharan	Africa	11.8	13.13	31	25	6	0	0	0	0	4.166666666666667	b d dʒ f h j k l m n p r s t tʃ w x z ŋ g ɭ ɲ ɸ ʃ ʔ a̟ e̞ i o̞ u ɨ
lugb1240-151	Lugbara	lugb1240	Central Sudanic	Africa	3.02245	30.8642	39	27	12	0	0	0	0	2.25	b dz d̪ f h j k kp m n n̩ p r s ts t̪ v z g gb ɲ ɺ ʔ ˀb ˀd̪ ˀj a ã e i o o̯ u ɔ ɛ ɜ ɪ ʊ ˀw
nobi1240-152	Nobiin	nobi1240	Nubian	Africa	22.8142	31.8376	43	33	10	0	0	15	5	3.3	b bː d dː dʒ f fː h j jː k kː l lː m mː n nː r rː s sː t tː tʃ tʃː w wː g ɲ ɲː ʃ ʃː a aː e̞ e̞ː i iː o̞ o̞ː u uː
luok1236-153	Luo (Kenya and Tanzania)	luok1236	Nilotic	Africa	-0.93296	34.4896	32	23	9	0	0	0	0	2.5555555555555554	b d dʒ dð f h j kʰ l m n pʰ s tʰ tʃʰ tθʰ w ŋ g ɲ ɾ ʃ ʔ a e̞ i o̞ u æ ɒ ɪ ʊ
masa1300-154	Masai	masa1300	Nilotic	Africa	-3.1419	36.4573	39	21	18	0	0	2	9	1.1666666666666667	j jː k l m n p r̥ s t tʃ w wː ŋ ɓ ɗ ɠ ɲ ɾ ʃ ʄ a aː e eː i iː o oː u uː ɔ ɔː ɛ ɛː ɪ ɪː ʊ ʊː
nama1265-155	Nama	nama1265	Khoe-Kwadi	Africa	-25.0747	17.9767	27	19	8	0	0	0	0	2.375	c f h k kxʰ ǀ ǁ ǂ ǃ l m n p r s t tsʰ x ʔ a̟ ã̟ e i o u ũ ɪ̃
iris1253-156	Irish	iris1253	Indo-European	Eurasia	53.2186	-7.61509	68	44	24	0	0	0	10	1.8333333333333333	bʲ bʷˠ d dʒ d̪ h j kʰ k̟ʰ lʲ lˠ l̥ʲ l̥ˠ l̪ˠ mʲ mʷˠ nʲ nˠ n̥ʲ n̥ˠ n̪ pʲʰ pʷˠʰ s̻ tʰ tʃ t̪ʰ w x ç ŋ g g̟ ɣ ɲ ɸʷˠ ɸ̃ ɾʲ ɾˠ ɾ̥ʲ ɾ̥ˠ ʃʲ ʎ βʲ a ã eː ẽː e̞ ẽ̞ e̯ iː ĩː oː õː o̞ õ̞ uː ũː ɑː ɑ̃ː ə̯ ɤ̯ ɪ ɪ̃ ɯ̞̯ ʊ ʊ̃
icel1247-158	Icelandic	icel1247	Indo-European	Eurasia	63.4837	-19.0212	39	23	16	0	0	1	8	1.4375	f h j j̊ k kʰ l l̥ m n n̥ p pʰ r r̥ s t tʰ v ŋˑ ɣ ʍ θ a aː e eː i iː u uː ø øː œ œː ɔ ɔː ɛ ɛː
norw1259-159	Norwegian Bokmål	norw1259	Indo-European	Eurasia	61.112	8.886	46	27	19	0	0	0	9	1.4210526315789473	b d̪ f h j kʰ l̪ l̪̩ m m̥ n̪ pʰ s t̪ʰ ç ŋ ɖ g ɭ ɭ̩ ɳ ɹ̩ ɾ ʃ ʈʰ ʋ ʔ a aː eː e̞ iː o̞ː u uː yː æ æː ø̞ː œ ə ɪ ʉ ʉː ʊ ʏ
stan1293-160	English	stan1293	Indo-European	Eurasia	53.0	-1.0	40	27	13	0	0	0	5	2.076923076923077	b d dʒ f h j kʰ l m n pʰ s tʰ tʃ v w x z ð ŋ g ɻ ʃ ʍ ʒ ʔ θ aː e̞ iː o̞ː uː æ ɐ ɒ ɔ ə əː ɪ ʊ
stan1295-161	German	stan1295	Indo-European	Eurasia	48.649	12.4676	39	23	16	0	0	0	8	1.4375	b d f h j kʰ l m n pf pʰ s ts tʰ v x z ŋ g ʀ ʃ ʒ ʔ aː eː iː oː uː yː øː œ ɐ ɔ ə ɛ ɛː ɪ ʊ ʏ
stan1290-162	French	stan1290	Indo-European	Eurasia	48.0	2.0	40	23	17	0	0	0	1	1.3529411764705883	b d f j k̟ l m n p r s t v w z ŋ g̟ ɥ ɦ ɲ ʀ ʃ ʒ a̟ e i o õ u y æ̃ ø ø̞ œ œ̃ ɒ ɒ̃ ɔ ɛ ɛː
port1283-163	Portuguese	port1283	Indo-European	Eurasia	39.91	-8.1	38	23	15	0	0	0	0	1.5333333333333334	b d̪ f j k l m n p s t̪ v w x z̪ ŋ g ɱ ɲ ɾ ʃ ʎ ʒ a e ẽ ĕ i ĩ ĭ o õ u ũ ŭ ɐ̃ ɔ ɛ
stan1288-164	Spanish	stan1288	Indo-European	Eurasia	40.4414	-1.11788	25	20	5	0	0	0	0	4.0	f j k l m n p r s t tʃ w x ð̚ ɣ ɲ ɾ ʎ β θ a e̞ i o̞ u
roma1327-165	Romanian	roma1327	Indo-European	Eurasia	46.3913	24.2256	31	22	9	0	0	0	0	2.4444444444444446	b d dʒ f h j k l m n p s t ts tʃ v w z g ɾ ʃ ʒ a e i o u ɔ̯ ə ɛ̯ ɨ
russ1263-166	Russian	russ1263	Indo-European	Eurasia	59.0	50.0	38	33	5	0	0	0	0	6.6	b bʲ d d̻ʲ f fʲ j k kʲ lʲ lˠ m mʲ n n̻ʲ p pʲ r rʲ s sʲ t ts tʃʲ t̻ʲ v vʲ x z zʲ g ʃˠ ʒˠ a̟ i o̞ u ɛ
bulg1262-167	Bulgarian	bulg1262	Indo-European	Eurasia	43.3646	25.047	49	37	12	0	0	0	0	3.0833333333333335	b bʲ d dz dʲ dʒ f fʲ j kʰ kʲʰ lʲ lˠ m mʲ n nʲ pʰ pʲʰ r rʲ s sʲ ts tsʲ tʰ tʲʰ tʃ v vʲ x z zʲ g gʲ ʃ ʒ i ĩ u ũ ɑ ɑ̃ ɔ ɔ̃ ɛ ɛ̃ ɤ ɤ̃
lith1251-168	Lithuanian	lith1251	Indo-European	Eurasia	55.1429	23.9601	47	36	11	0	0	0	6	3.272727272727273	b bʲ d dz dʲ dʒʲ j k k̟ lʲ lˠ m mʲ n p pʲ r rʲ s sʲ t ts tsʲ tʲ tʃʲ v vʲ x z g g̟ ɲ ʃ ʃʲ ʒ ʒʲ a aː eː iː oː uː æ æː ɔ ɪ ʊ
tosk1239-169	Northern Tosk Albanian	tosk1239	Indo-European	Eurasia	41.0	20.0	35	28	7	0	0	0	0	4.0	b cç d dz dʒ f h j k l lˠ m n p r s t ts tʃ v z ð ɟʝ g ɲ̟ ʃ ʒ θ a e̞ i o̞ u y ə
mode1248-170	Modern Greek	mode1248	Indo-European	Eurasia	38.36	23.13	26	21	5	0	0	0	0	4.2	b d dz f j k l m n p s t ts v x z ð g ɣ ɾ θ i u ɑ ɔ ɛ
nucl1235-171	Eastern Armenian	nucl1235	Indo-European	Eurasia	40.0	45.0	37	30	7	0	1	0	0	4.285714285714286	f h j k kʰ kʼ l m n p pʰ pʼ r s t ts tsʰ tsʼ tʰ tʼ tʃ tʃʰ tʃʼ v z ʁ̞ ʃ ɻ̝ ʒ χ a i ie̞ o̞ u ə ə̯
west2369-172	Western Farsi	west2369	Indo-European	Eurasia	32.9	53.3	30	24	6	0	0	0	0	4.0	b d dʒ f h j kʰ l m n pʰ r s tʰ tʃ v w z g ɢ ʃ ʒ ʔ χ a̟ e i o u ɑ
cent1973-173	Central Pashto	cent1973	Indo-European	Eurasia	31.9153	69.4529	38	31	7	0	0	0	3	4.428571428571429	b d dz dʒ f h j k l m n p r r̠ s t ts tʃ w z ɖ g ɳ ʁ ʂ ʃ ʈ ʐ ʒ β χ a e̞ː i o̞ː u ɑː ə
kash1277-174	Kashmiri	kash1277	Indo-European	Eurasia	34.166825	74.330455	56	27	29	0	0	0	14	0.9310344827586207	b d dz dʒʲ j k kʰ l m n p pʰ r s t ts tsʰ tʰ tʃʲ tʃʲʰ w ɖ g ɦ ʃʲ ʈ ʈʰ a aː ã ãː e eː ẽ ẽː i iː ĩ ĩː o oː õ õː u uː ũ ũː ə əː ə̃ ə̃ː ɨ ɨː ɨ̃ ɨ̃ː ɨ̆
hind1269-176	Hindi	hind1269	Indo-European	Eurasia	25.0	77.0	94	71	23	0	4	31	10	3.0869565217391304	b bː bʱ bʱː dʒ dʒː dʒʱ dʒʱː d̪ d̪ː d̪ʱ d̪ʱː f fː j jː k kʰ kʰː kː l lː lʱ m mː mʱ n̪ n̪ː n̪ʱ p pʰ pʰː pː q qː r rː s sː tʃ tʃʰ tʃʰː tʃː t̪ t̪ʰ t̪ʰː t̪ː z zː ɖ ɖː ɖʱ ɖʱː g gː gʱ gʱː ɦ ɽ̃ ʁ ʂ ʃː ʈ ʈʰ ʈʰː ʈː ʋ ʋː ʒ ʔ χ aː ãː eː ẽː iː ĩː oː õː uː ũː æe̯ æẽ̯ ɑ ɔo̯ ɔõ̯ ɔ̤ ɜ ɜ̃ ɪ ɪ̃ ɪ̈ ʊ ʊ̃
beng1280-177	Bengali	beng1280	Indo-European	Eurasia	24.0	90.0	53	36	17	0	0	0	0	2.1176470588235294	b bʱ d dʒ dʒʱ dʱ h j k kʰ l lʱ m mʱ n nʱ p pʰ s t tʰ tʃ tʃʰ w ç ŋ ɖ ɖʱ g gʱ ɽ ɽʱ ɾ ɾʱ ʈ ʈʰ a ã e̞ ẽ̞ e̯ o õ o̞ o̯ æ æ̃ ɔ ɔ̃ ɪ ɪ̃ ʊ ʊ̃
sinh1246-178	Sinhala	sinh1246	Indo-European	Eurasia	8.0	81.0	53	37	16	0	0	15	9	2.3125	b bː cç cçː d dː j k kː l lː m mː n nː p pː s sː t tː ŋ ɖ ɖː ɟʝ ɟʝː g gː ɦ ɲ ɲː ɸ ɾ ʃ ʈ ʈː ʋ a aː ãː a̟ eː e̞ iː oː o̞ uː æː æ̃ː ə əː ɪ ʊ
basq1248-179	Basque	basq1248		Eurasia	43.2787	-1.31622	28	23	5	0	0	0	0	4.6	b c d f k l m n p r s̻ t tʃ ts̻ ɟ g ɲ ɾ ʂ ʃ ʈʂ ʎ χ a e̞ o̞ u ɪ
finn1318-180	Finnish	finn1318	Uralic	Eurasia	64.7628	25.5577	42	25	17	0	0	9	8	1.4705882352941178	b d f h k kː l lː m mː n nː p pː r rː s sː t tː v ŋː g ʃ ʔ a aː eː e̯ i iː o oː u uː y yː æ æː ø øː ɛ
east2328-181	Eastern Mari	east2328	Uralic	Eurasia	55.8307	48.405	34	25	9	0	0	0	0	2.7777777777777777	f j k l m n p pʲ s sʲ t ts tʲ tʃ x z ð ŋ ɣ ɲ ɾ ʃ ʎ ʒ β i o u y ø̞ ə ə̥ ɛ ʌ
komi1268-182	Komi-Zyrian	komi1268	Uralic	Eurasia	64.0527	54.946	36	29	7	0	0	0	0	4.142857142857143	b c cç d dʒ f j k l m n p r s t ts tʃ v x z ç ɟ ɟʝ g ɲ ʃ ʎ ʒ ʝ a e̞ i o̞ u ə ɨ
hung1274-183	Hungarian	hung1274	Uralic	Eurasia	46.9068585714	19.6555271429	65	50	15	0	0	24	7	3.3333333333333335	b bː cç cçː d dz dzː dː dʒ f fː h hː j jː k kː l lː m mː n nː p pː r rː s sː t ts tsː tː tʃ tʃː v vː w z zː ɟʝ ɟʝː g gː ɲ ɲː ʃ ʃː ʒ ʒː aː eː i iː o oː u uː y yː æ ø øː ɒ ɛ
khan1273-184	Kazym-Berezover-Suryskarer Khanty	khan1273	Uralic	Eurasia	62.4308	66.1218	32	19	13	0	0	0	0	1.4615384615384615	c j kʰ l m n p r s tʰ w ŋ ɣ ɭ ɲ ɳ ʃ ʈʂ ʎ a e̞ ĕ̞ i o̞ ŏ̞ u æ ɒ̆ ɯ ɵ̞ ɵ̞̆ ʉ
nene1249-185	Tundra Nenets	nene1249	Uralic	Eurasia	66.1775	71.0234	34	26	8	0	0	0	0	3.25	j k l lʲ m mʲ n nʲ p pʲ p̚ p̚ʲ r rʲ s sʲ t ts tsʲ tʲ t̚ t̚ʲ w x ŋ ʔ a ă e̞ i ĭ o̞ u ŭ
nucl1301-186	Turkish	nucl1301	Turkic	Eurasia	39.8667	32.8667	40	24	16	0	0	0	8	1.5	b cʰ d dʒ f h j kʰ l m n pʰ s tʰ tʃʰ v z ɟ g ɾ ʃ ʎ ʒ ʔ a aː i iː o̞ o̞ː u uː y yː œ œː ɛ ɛː ɯ ɯː
nort2697-187	North Azerbaijani	nort2697	Turkic	Eurasia	40.9777	46.4737	34	25	9	0	0	0	0	2.7777777777777777	c cʰ dʒ f h j k kʰ l m n p pʰ s t tʰ tʃ v x z ð̠ ɣ ʃ ʒ ʔ a̟ o ø ɑ ɛ ɪ ɯ̞ ʊ ʏ
kirg1245-188	Kirghiz	kirg1245	Turkic	Eurasia	42.0	74.0	36	20	16	0	0	0	8	1.25	f j l m n p pʰ q qʰ r s t ts tʰ tʃ x z ŋ ʃ β a o oː y yː ø øː ɒː ɛ ɛː ɪ ɪː ɪ̈ ɪ̈ː ʊ ʊː
chuv1255-189	Chuvash	chuv1255	Turkic	Eurasia	55.487	47.163	39	30	9	0	0	6	0	3.3333333333333335	b d f j jː k l lʲ lː m mː n nʲ nː p r rː s t ts tʲ tʃ w wː x z ç g ʃ ʒ e̞ i o̞ u y ø̞ ɑ ɔ̆ ɯ
yaku1245-190	Sakha	yaku1245	Turkic	Eurasia	61.6974	133.98	49	33	16	0	0	11	8	2.0625	b d dʒ dʒː f j j̃ k kː l lː m mː n nː p pː r s sː t tː tʃ tʃː v z ŋ ŋː g ɲ ɲː ʃ ʒ a aː i iː u uː y yː œ œː ɔ ɔː ɛ ɛː ɯ ɯː
halh1238-191	Halh Mongolian	halh1238	Mongolic-Khitan	Eurasia	48.324	106.289	35	21	14	0	0	0	7	1.5	b d dz dʒ j kʰ l l̥ m n pʰ r s tsʰ tʰ tʃʰ x g ɸ ʃ β e eː i o̞ː ɑ ɑː ɔ ɔː ɪː ɵ̞ ɵ̞ː ʉ ʉː ʊ
even1260-192	Even	even1260	Tungusic	Eurasia	70.6687	130.914	36	18	18	0	3	0	7	1.0	b d dʒ j k l m n p r s t tʃ z ŋ g ɲ β a aː ie ioː iæ iː i̙ː o u uː ɔ ɔː ɛ ɛː ɪ ɪ̙ ʊ̙ ʊ̙ː
nort2745-193	Northern Yukaghir	nort2745	Yukaghir	Eurasia	70.498	157.853	32	20	12	0	0	0	6	1.6666666666666667	b c d j k l lˠ m n p q r s t w ŋ ɟ g ɲ ʁ a̟ a̟ː o̞ o̞ː u uː ɛ ɛː ɪ ɪː ɵ̞ ɵ̞ː
gily1242-194	Amur Nivkh	gily1242	Nivkh	Eurasia	52.59	140.681	44	34	10	0	1	0	4	3.4	b c d f h j k kʰ l m n p pʰ q qʰ r r̥ s sʲ t tʰ tʃʰ w x z ŋ ɟ g ɢ ɣ ɲ ʁ ʋ χ ie̞ iː o̞ o̞ː u uː æ æː ɤ ɪ
chuk1273-195	Chukchi	chuk1273	Chukotko-Kamchatkan	Eurasia	68.6436	170.045	22	15	7	0	0	0	0	2.142857142857143	j k m n p q sʲ t ts w ŋ ɣ ɬ ɻ̝ ʔ a e o u ə̆ ɛ ɪ
ainu1240-196	Hokkaido Ainu	ainu1240	Ainu	Eurasia	43.633654	142.46167	17	12	5	0	0	0	0	2.4	h j k m n p r s t tʃ w ʔ a i u ɔ ɛ
nucl1643-197	Japanese	nucl1643	Japonic	Eurasia	35.0	135.0	38	27	11	0	0	8	5	2.4545454545454546	b d dʒ h j k kː m n p pː s sː t tsː tː tʃ tʃː w z çː ŋ g ɾ ʃ ʃː ʔ a aː i iː ɔ ɔː ɛ ɛː ɯ ɯː ɯ̃
