ID	Name	Glottocode	Family	Macroarea	Latitude	Longitude	Sounds	Consonants	Vowels	Clusters	Diphthongs	LongConsonants	LongVowels	Ratio	Phonemes
afad1236-198	Afade	afad1236	Afro-Asiatic	Africa	12.0551	14.6343	36	27	9	0	0	0	0	3.0	b cʼ d f h j k kp kʼ l m n p pfʼ r s t tθʼ w ɓ ɗ ɟ g gb ɬ ʃ ʔ a̟ e i o u ɑ ɔ ɛ ɤ
achu1247-199	Achumawi	achu1247	Palaihnihan	North America	41.0979	-121.191	23	17	6	0	0	0	0	2.8333333333333335	r dʒ h j k l m n p q s t w x ʃ ʔ χ a e̞ i o̞ u ə
adze1240-200	Adzera	adze1240	Austronesian	Papunesia	-6.39394	146.294	25	18	7	0	0	0	3	2.5714285714285716	b dz d f h j kʰ m n pʰ r s tsʰ tʰ ŋ g ɰ ʔ a aː i iː o̞ o̞ː ɯ
east2379-201	Eastern Arrernte	east2379	Pama-Nyungan	Australia	-23.3583	135.046	30	27	3	0	0	0	0	9.0	bⁿ d̠ⁿ d̪ⁿ dⁿ j k l l̠ l̪ m n n̠ n̪ p t t̠ t̪ w ŋ ɖⁿ gⁿ ɭ ɰ ɳ ɻ ɾ ʈ a i u
amel1241-202	Amele	amel1241	Nuclear Trans New Guinea	Papunesia	-5.29126	145.687	20	15	5	0	0	0	0	3.0	b d f h k l m n s t w g gb ʔ ʝ i u æ ɔ ɛ
anga1290-203	Angaataha	anga1290	Angan	Papunesia	-7.15012	146.352	21	12	9	0	2	0	1	1.3333333333333333	j k m n p t tʃ w ŋ ɲ ɺ ʔ a ai au aː e̞ i o̞ u ə̆
aghe1239-204	Aghem	aghe1239	Atlantic-Congo	Africa	6.38956	10.0807	35	25	10	0	0	0	0	2.5	b bv d dz dʒ f j k kp l m n s t ts tʃ w z ŋ ŋm g gb ɣ ɲ ʔ a e i o u ɒ ɔ ɛ ɪ ʊ
apro1235-205	Aproumu Aizi	apro1235	Atlantic-Congo	Africa	5.20273	-4.52192	33	24	9	0	0	0	0	2.6666666666666665	b c d f j k kp l m n p s t v w z ŋ ɓ ɟ g gb ɲ ʃ ʒ a e i o u ɛ ɪ ɯ̞ ʌ
ahte1237-206	Ahtena	ahte1237	Athabaskan-Eyak-Tlingit	North America	61.7068	-144.889	35	30	5	0	0	0	0	6.0	b d dz dɮ h j j̊ kʰ kʼ m n qʰ qʼ s tsʰ tsʼ tɬʰ tɬʼ tʰ tʼ z ŋ g ɢ ɬ ɮ ʁ ʍ ʔ χ a e̞ i o̞ u
ainu1240-207	Hokkaido Ainu	ainu1240	Ainu	Eurasia	43.633654	142.46167	16	11	5	0	0	0	0	2.2	h j k m n p s t tʃ w ɾ a i u ɔ ɛ
akan1250-208	Akan	akan1250	Atlantic-Congo	Africa	6.34756	-1.33254	35	21	14	0	0	0	0	1.5	b cç cçʷ d f h j kʰ m n pʰ r s tʰ çʷ ɟʝ ɟʝʷ g ɥ ɲ ɲʷ a ã e i ĩ o u ũ ɔ ɛ ɪ ɪ̃ ʊ ʊ̃
akaw1239-209	Akawaio	akaw1239	Cariban	South America	6.16277	-60.862	23	13	10	0	3	0	0	1.3	r b d j k m n p s t w z g a ai au e̞ i o̞ u ɔi ə ɨ
alab1237-210	Alabama	alab1237	Muskogean	North America	30.76738	-94.62848	17	14	3	0	0	0	0	4.666666666666667	b h j k l m n p s tʃ t̪ w ɬ ɸ a e o
qawa1238-211	Qawasqar	qawa1238	Kawesqar	South America	-49.303195	-74.707536	19	16	3	0	0	0	0	5.333333333333333	f j k kʼ l m n p s t tʼ tʃ tʃʼ w x ɾ a o̞ ə
alla1248-212	Alladian	alla1248	Atlantic-Congo	Africa	5.22371	-4.42647	36	25	11	0	0	0	0	2.272727272727273	b c d f h j k kp l m n p s t v w z ɟ g gb ɥ ɲ ɾ ʃ ʒ a ã e i o u ɔ ɔ̃ ɛ ɛ̃ ɪ
aleu1260-213	Aleut	aleu1260	Eskimo-Aleut	North America	52.1228	-174.29	27	24	3	0	0	0	0	8.0	h j j̊ k l m m̥ n n̥ q ts t w x ð ŋ ŋ̊ ɣ ɬ ʁ ʃ ʍ ʒ χ a i u
alaw1244-214	Alawa	alaw1244	Mangarrayi-Maran	Australia	-15.5458	134.282	26	22	4	0	0	0	0	5.5	j k l l̠ m ⁿb n ⁿd n̠ ⁿd̠ p r t t̠ w ŋ ⁿg ɭ ɳ ⁿɖ ɹ ʈ a e̞ ɪ ɯ̞
tosk1239-215	Northern Tosk Albanian	tosk1239	Indo-European	Eurasia	41.0	20.0	35	28	7	0	0	0	0	4.0	b cç dʒ d̪ dz f h j k l lˠ m n n̠ p r s̪ tʃ t̪ ts v z̪ ð ɟʝ g ʃ ʒ θ a e̞ i o̞ u y ə
amah1246-216	Amahuaca	amah1246	Pano-Tacanan	South America	-10.2012	-72.3208	22	14	8	0	0	0	0	1.75	h j k m n p s tʃ t w x ɾ ʔ θ a ã o̞ õ̞ ɪ ɪ̃ ɯ ɯ̃
yane1238-217	Yanesha'	yane1238	Arawakan	South America	-10.5454	-75.315	26	23	3	0	0	0	0	7.666666666666667	j k lʲ m mʲ n p pʲ s t tsʰ tʃʰ tʃʲʰ w x ɣ ɲ ɾ ʃ ʈʂʰ ʐ ʔ β a e o
hame1242-218	Hamer-Banna	hame1242	South Omotic	Africa	5.06515	36.5176	35	25	10	0	0	0	0	2.5	b c d h j k l m n p qʼ s t ts w z ŋ ɓ ɗ ɟ ɠ g ɲ ɾ ʃ e e̞ˤ i o u ɐˤ ɑ ɔˤ ɪˤ ʊˤ
amha1245-219	Amharic	amha1245	Afro-Asiatic	Africa	11.708182	39.543456	37	30	7	0	0	0	0	4.285714285714286	b dʒ d f h hʷ j k kʷ kʼʷ kʼ l m n p pʼ s sʷ tʃ tʃʼ t tʼ w z g gʷ ɲ ɾ ʃ ʒ a e̞ i o̞ u ə ɨ
amoo1242-220	Amo	amoo1242	Atlantic-Congo	Africa	10.3229	8.65405	35	25	10	0	0	0	0	2.5	b d dʒ f h j k kp l m n p r s t ts tʃ v w z ŋ g gb ɲ ʃ a e i o u ɐ ɔ ɛ ɪ ʊ
alam1246-221	Alamblak	alam1246	Sepik	Papunesia	-4.66307	143.316	25	18	7	0	0	0	0	2.5714285714285716	b d dʒ j kʰ m n n̠ pʰ s tʰ tʃ w x g ɸ ʃ ɾ a e̞ i o̞ u ə ɨ
guer1243-222	Guerrero Amuzgo	guer1243	Otomanguean	North America	16.77226	-98.18953	37	25	12	0	0	0	0	2.0833333333333335	h j k kʲ kʷ l m ⁿb n ⁿd n̠ ⁿd̠ p r s t ts t̠ tʃ w ⁿg ɾ ʃ ʔ β a ã e̞ ẽ̞ i o̞ õ̞ u æ æ̃ ɒ ɒ̃
ngas1240-223	Ngas	ngas1240	Afro-Asiatic	Africa	9.32042	9.46146	43	32	11	0	1	0	4	2.909090909090909	b bʲ c d dʒ f h j k l m mʲ n p pʲ r s t tʃ v w z ŋ ɓ ɗ ɟ g ɣ ɲ ʃ ʄ ʒ a aː e iː o u uː ɛ ɜi ɨː ɪ
ando1256-224	Andoque	ando1256		South America	-0.53751	-72.0869	26	11	15	0	0	0	0	0.7333333333333333	b dʒ d̪ h k p r̪ tʃ t̪ ɸ ʔ a̟ ã̟ e̞ ẽ̞ i ĩ o̞ õ̞ u ɑ̃ ɒ ə ə̃ ɜ ɨ
anta1253-225	Antakarinya	anta1253	Pama-Nyungan	Australia	-27.1152	134.838	20	17	3	0	0	0	0	5.666666666666667	j k l l̠ m n n̠ p t t̠ w ŋ ɭ ɳ ɻ ɾ ʈ a i u
apin1244-226	Apinayé	apin1244	Nuclear-Macro-Je	South America	-6.10774	-47.6315	30	13	17	0	0	0	0	0.7647058823529411	k ⁿb ⁿd p s t tʃ v ⁿg ⁿɟ ɽ ʒ ʔ a ã e i ĩ o õ u ũ ɔ ɛ ɛ̃ ɤ ɯ ɯ̃ ʌ ʌ̃
apuc1241-227	Apucikwar	apuc1241	Great Andamanese	Eurasia	12.241	92.7965	24	16	8	0	0	0	0	2.0	b dʒ d j k l m n p tʃ t w ŋ g ɲ ɹ a e̞ i o̞ u æ ɔ ɛ
arch1244-228	Archi	arch1244	Nakh-Daghestanian	Eurasia	42.3239	46.8267	91	81	10	0	0	18	0	8.1	r b d dʷ h j kʰ kʷʰ kʼʷ kʷː kʼ kː l m n pʰ pʼ pː qχ qχʷ qχʼʷ qχʷˤ qχʼʷˤ qχʼ qχʼː qχˤ qχʼˤ qχˤː s sʷ sʷː sː tʃʰ tʃʷʰ tʃʼʷ tʃʼ tʃʼː tsʰ tsʷʰ tsʼʷ tsʼ tsʼː tɬʰ tɬʷʰ tɬʼʷ tɬʼ tʰ tʷʰ tʼ tː w z zʷ ħ g gʷ ɬ ɬʷ ɬʷː ɬː ɮ ʁ ʁʷ ʁʷˤ ʁˤ ʃ ʃʷ ʃʷː ʃː ʒ ʒʷ ʔ ʕ χ χʷ χʷː χʷˤ χʷˤː χː χˤ χˤː a aˤ e̞ e̞ˤ i iˤ o̞ o̞ˤ u uˤ
arab1268-229	Arabela	arab1268	Zaparoan	South America	-1.96126	-75.0612	18	11	7	0	2	0	0	1.5714285714285714	h j k m n p r s t w ʃ a ai au e̞ i o̞ u
mapu1245-230	Mapudungun	mapu1245	Araucanian	South America	-38.7392	-71.277	26	20	6	0	0	0	0	3.3333333333333335	j k l l̪ m n n̪ p s t tʃ t̪ w ŋ ɲ ɸ ʈɻ̝̊ ʎ ɻ̝ θ a i u ɔ ɛ ɯ
egyp1253-231	Egyptian Arabic	egyp1253	Afro-Asiatic	Africa	31.0	31.0	35	27	8	0	0	0	5	3.375	b dʒ d̪ d̪ˤ f h j k l̪ m n̪ q r s̪ s̪ˤ t̪ t̪ˤ w z̪ z̪ˤ ħ g ʁ ʃ ʔ ʕ χ a eː iː oː uː æː ɪ ʊ
waor1240-232	Waorani	waor1240		South America	-1.12312	-76.683	21	11	10	0	0	0	0	1.1	b d k m n p t w ŋ g ɲ a ã e̞ ẽ̞ i ĩ o̞ õ̞ æ æ̃
avar1256-233	Avar	avar1256	Nakh-Daghestanian	Eurasia	41.7047	46.558	49	44	5	0	0	15	0	8.8	r b d f h j kxʼː kxː kʰ kʼ l m n pʰ pʼ qχʼː qχː s sː tʃʰ tʃʼ tʃʼː tʃː tsʰ tsʼ tsʼː tsː tɬʼː tɬː tʰ tʼ w xː z ħ g ɬ ɬː ʃ ʃː ʒ ʕ̝ χ χː a e̞ i o̞ u
awng1244-234	Awngi	awng1244	Afro-Asiatic	Africa	10.9819	36.6916	35	28	7	0	0	0	0	4.0	b dʒ dz f j k kʷ l m n p q qʷ s tʃ ts t w z ŋ ŋʷ ɖ g gʷ ɢ ɢʷ ɾ ʃ a e̞ i o̞ u æ ɨ
abip1241-235	Abipon	abip1241	Guaicuruan	South America	-29.0	-61.0	20	15	5	0	0	0	0	3.0	r h j k l m n p q tʃ t w ɣ ɲ ʁ a e̞ i o̞ ɨ
nort2697-236	North Azerbaijani	nort2697	Turkic	Eurasia	40.9777	46.4737	33	24	9	0	0	0	0	2.6666666666666665	b c dʒ d̪ f h j k l m n̪ p s tʃ t̪ v x z ɟ g ɣ ɾ ʃ ʒ a̟ o ø ɑ ɛ ɤ̟ ɪ ʊ ʏ
bash1264-237	Bashkir	bash1264	Turkic	Eurasia	53.5967	56.5594	38	27	11	0	0	0	0	2.4545454545454546	b d f h j k l m n p q r s t ts tʃ v w x z ŋ g ʁ ʃ ʒ ʔ θ i o̞ y æ ø ɑ ɔ ə ɛ ɤ̞ ʊ
bamb1269-238	Bambara	bamb1269	Mande	Africa	12.9	-7.65	35	21	14	0	0	0	0	1.5	b d dʒ f h j k l m n p s t tʃ w z ŋ g ɲ ʃ ɾ a ã e ẽ i ĩ o õ u ũ ɔ ɔ̃ ɛ ɛ̃
waim1255-239	Waimaha	waim1255	Tucanoan	South America	0.30416	-70.1644	23	11	12	0	0	0	0	0.9166666666666666	b d h j k p s t w g ɾ a ã e̞ ẽ̞ i ĩ o õ u ũ ɨ ɨ̃
baat1238-240	Baatonum	baat1238	Atlantic-Congo	Africa	9.63186	2.99607	30	18	12	0	0	0	0	1.5	b d f h j k kp l m n p s t w z g gb ɾ a ã e i ĩ o u ũ ɔ ɔ̃ ɛ ɛ̃
bata1289-241	Batak Toba	bata1289	Austronesian	Papunesia	2.35498	99.1761	21	16	5	0	0	0	0	3.2	b dʒ d h j k l m n p s t w ŋ g ʀ a i o̞ u ɛ
bats1242-242	Bats	bats1242	Nakh-Daghestanian	Eurasia	42.1806	45.344	45	35	10	0	0	0	0	3.5	b dʒ d̪ dz̪ h j kʰ kʼ l m n pʰ pʼ qʰ qʼ r s̪ tʃʰ tʃʼ ts̪ʰ ts̪ʼ t̪ʰ t̪ʼ z̪ ħ g ɬ ɸ ʁ ʃ ʒ ʔ ʕ̝ β χ ẽ i ĩ o õ u ũ ɑ ɑ̃ ɛ
nort2819-243	Northern Bobo Madaré	nort2819	Mande	Africa	12.4182	-4.47538	33	21	12	0	0	0	0	1.75	b d f h j kp kʰ l m n pʰ s tʰ v w z ŋ g gb ɲ ɾ a ã e i ĩ o u ũ ɔ ɔ̃ ɛ ɛ̃
cent2004-244	Central Bai	cent2004	Sino-Tibetan	Eurasia	26.1666	99.7052	29	18	11	0	0	0	0	1.6363636363636365	f j k kʰ l̪ m n̪ p pʰ s t̪ ts tsʰ t̪ʰ v x z̪ ŋ a e i o u ɔ ɛ ɞ ɯ ɿ ɵ
bard1255-245	Bardi	bard1255	Nyulnyulan	Australia	-16.6274	122.906	24	17	7	0	0	0	3	2.4285714285714284	j k l l̠ m n n̠ p r t t̠ w ŋ ɭ ɳ ɻ ʈ a aː i iː u uː ɔ
kohu1244-246	Kohumono	kohu1244	Atlantic-Congo	Africa	5.92596	7.96202	38	28	10	0	0	0	0	2.8	b d dʒ f h j kpʰ kʰ kʷʰ m n pʰ r s t tʰ tʃ v w z ŋ ŋʷ ɓ g gb gʷ ɲ β a e i o u ɔ ɘ ɛ ɪ ʊ
indo1317-247	Indonesian Bajau	indo1317	Austronesian	Papunesia	-3.68664	122.253	32	26	6	0	0	0	0	4.333333333333333	b dʒ d h j k l m ⁿb ⁿp ⁿdʒ ⁿtʃ ⁿs ⁿt n p r s tʃ t w ŋ ⁿk g ɲ ʔ a e̞ i o̞ u ə
twee1234-248	Tweed-Albert	twee1234	Pama-Nyungan	Australia	-28.028726	153.286993	16	12	4	0	0	0	0	3.0	b d dʒ j l m n n̠ r w ŋ g a e̞ i u
beja1238-249	Beja	beja1238	Afro-Asiatic	Africa	17.2436	36.6666	26	21	5	0	0	0	0	4.2	r b dʒ d̪ f h j k kʷ l m n̪ s̪ t̪ w ɖ g gʷ ʃ ʈ ʔ a e̞ i o̞ u
beng1280-250	Bengali	beng1280	Indo-European	Eurasia	24.0	90.0	43	29	14	0	0	0	0	2.0714285714285716	b bʱ dʒ dʒʱ d̪ d̪ʱ h k kʰ l m n p pʰ s̪ tʃ tʃʰ t̪ t̪ʰ ŋ ɕ ɖ ɖʱ g gʱ ɽ ɾ ʈ ʈʰ a ã e̞ ẽ̞ o õ æ æ̃ ɔ ɔ̃ ɪ ɪ̃ ʊ ʊ̃
beem1239-251	Beembe	beem1239	Atlantic-Congo	Africa	-3.95895	14.1	26	16	10	0	0	0	0	1.6	f h kʰ l m n p pf pfʰ pʰ s t ts tsʰ tʰ v a ã i ĩ u ũ ɔ ɔ̃ ɛ ɛ̃
dalo1238-252	Daloa Bété	dalo1238	Atlantic-Congo	Africa	6.69281	-6.63944	37	24	13	0	0	0	0	1.8461538461538463	b c d f j k kp l m n p s t v w z ŋ ŋʷ ɓ ɟ g gb ɰ ɲ a e i o u ɔ ɘ ɛ ɜ ɨ ɨ̞ ɪ ʊ
biss1248-253	Bissa	biss1248	Mande	Africa	10.4257	-1.67332	24	18	6	0	0	0	0	3.0	b d f j k l m n p r s t v w z ŋ g ɲ a e i o u ɔ
baka1277-254	Bakairí	baka1277	Cariban	South America	-14.2628	-54.7034	29	17	12	0	0	0	0	1.4166666666666667	r b d h j k l m n p s t w z g ʃ ʒ a ã e ẽ i ĩ o õ u ũ ɘ ɛ
bell1243-255	Bella Coola	bell1243	Salishan	North America	52.3448	-126.689	31	28	3	0	0	0	0	9.333333333333334	c cʼ h j kʷ kʼʷ l m n̪ p pʼ q qʷ qʼʷ qʼ s ts tsʼ t̪ tɬʼ t̪ʼ w xʷ ç ɬ ʔ χ χʷ a ɪ ʊ
muin1242-256	Muinane	muin1242	Boran	South America	-0.8652	-72.4249	28	22	6	0	0	0	0	3.6666666666666665	r rʲ b c d dʒ k m n p s t tʃ x ɟ g ɲ ɸ ʃ ʑ ʔ β a i o̞ u ɛ ɨ
bero1242-257	Berom	bero1242	Atlantic-Congo	Africa	9.67037	8.81221	29	22	7	0	0	0	0	3.142857142857143	b c d f h j k kp l m n p r s t v w z ŋ ɟ g gb a e i o u ɔ ɛ
boro1282-258	Bororo	boro1282	Bororoan	South America	-16.6029	-55.2004	20	13	7	0	0	0	0	1.8571428571428572	r b dʒ d j k m n p tʃ t w g a e̞ i o̞ u ə ɨ
lave1249-259	Brao	lave1249	Austroasiatic	Eurasia	14.5994	107.008	31	22	9	0	0	0	0	2.4444444444444446	cç j k l m n n̠ ⁿtʃ p pʰ s t tʰ v ħ ŋ ɓ ɗ g ɾ ʔ β̞ a a̟ e i o u ɘ ɛ ɨ
bret1244-260	Breton	bret1244	Indo-European	Eurasia	48.2452	-3.78934	45	25	20	0	7	0	0	1.25	b c d̪ f h j k l m n̪ p s t̪ v w x z ŋ ɟ g ɣ ɲ ʃ ʎ ʒ ao̞ au aɛ e̞ ẽ̞ i o o̞ u y ø̞ ɑ ɑ̃ ɑ̃ɔ̃ ɔ̃ ɛ ɛi ɛo̞ ɛ̃ ɛ̃ɔ̃
brah1256-261	Brahui	brah1256	Dravidian	Eurasia	29.04	66.56	33	24	9	0	0	0	5	2.6666666666666665	b d dʒ d̪ f h k l m n̪ p r s t tʃ t̪ v x z g ɣ ɬ ɾ ʔ a e eː i iː oː u uː ɑː
west2397-262	Western Bru	west2397	Austroasiatic	Eurasia	16.4906	104.754	42	20	22	0	0	0	0	0.9090909090909091	r b d h j k kʰ l m n p pʰ s tɕ t tʰ w ŋ ɲ ʔ a a̤ e e̤ i i̤ o o̤ u ṳ ɒ ɒ̤ ɔ ɔ̤ ɛ ɛ̤ ɤ ɤ̤ ɯ ɯ̤ ʌ ʌ̤
bodo1269-263	Bodo-Mech	bodo1269	Sino-Tibetan	Eurasia	26.1	92.0	21	15	6	0	0	0	0	2.5	b d h j k l m n p s t z ŋ g ɾ a e i o u ə
buru1296-264	Burushaski	buru1296		Eurasia	36.2161	74.8236	43	38	5	0	0	0	0	7.6	r b dʒ d f h j k kʰ l m n p pʰ q qʰ s tʃ tʃʰ ts tsʰ t tʰ w z ŋ ɖ ɖʐ g ʁ ʂ ʃ ʈ ʈʂ ʈʂʰ ʈʰ ɻ̝ χ a e̞ i o̞ u
bulg1262-265	Bulgarian	bulg1262	Indo-European	Eurasia	43.3646	25.047	42	36	6	0	0	0	0	6.0	b bʲ dʒ d̪ d̪ʲ f fʲ j k kʲ l̪ʲ l̪ˠ m mʲ n nʲ p pʲ r rʲ s̪ s̪ʲ tʃ t̪ ts̪ ts̪ʲ t̪ʲ v vʲ x z̪ z̪ʲ g gʲ ʃ ʒ a i u ɔ ɘ ɛ
bura1267-266	Burarra	bura1267	Maningrida	Australia	-12.3061	134.365	21	16	5	0	0	0	0	3.2	c j k l m n p t w ŋ ɭ ɲ ɳ ɻ ɾ ʈ a i u ɔ ɛ
qaqe1238-267	Qaqet	qaqe1238	Baining	Papunesia	-4.45258	151.702	22	14	8	0	3	0	0	1.75	k l m ⁿb n ⁿd p s t w ŋ ⁿg ɣ ɾ a ai au i o̞ u ɛ ɛi
brib1243-268	Bribri	brib1243	Chibchan	North America	9.39794	-83.0539	27	18	9	0	0	0	0	2.0	r b d j k m n p s tʃ ts t w x z g ɲ ʃ a ã e̞ ẽ̞ i o̞ õ̞ u ũ
cadd1256-269	Caddo	cadd1256	Caddoan	North America	33.33	-93.5	23	20	3	0	0	0	0	6.666666666666667	b d h j k kʼ m n p s tʃ tʃʼ ts tsʼ t tʼ w ŋ ʃ ʔ a ɪ ʊ
carn1240-271	Car Nicobarese	carn1240	Austroasiatic	Eurasia	9.18853	92.7671	25	16	9	0	0	0	0	1.7777777777777777	f h j k l m n n̠ p r s̪ t tʃ w ŋ ɾ e i o u ɒ ɔ ɘ ɛ ɯ
gali1262-272	Galibi Carib	gali1262	Cariban	South America	5.83772	-56.8323	22	16	6	0	0	0	0	2.6666666666666665	b d h j k m n p s t w ŋ g ɾ ʔ β i u ɐ ɔ ɛ ɯ
chac1249-273	Cha'palaa	chac1249	Barbacoan	South America	0.71489	-79.0508	28	24	4	0	0	0	0	6.0	r b d d̠ h j k l l̠ m n n̠ p s t ts t̠ tʃ w ŋ g ɸ ʃ ʔ i ɑ ɛ ʊ
nyah1250-274	Nyahkur	nyah1250	Austroasiatic	Eurasia	15.8909	101.515	50	26	24	0	6	0	0	1.0833333333333333	r r̥ b c cʰ d h j k kʰ l l̥ m m̥ n n̥ p pʰ t tʰ w ç ŋ ɲ ʍ ʔ a a̤ e e̤ i iə i̤ i̤ə̤ o o̤ u uə ṳ ṳə̤ ɔ ɔ̤ ɛ ɛ̤ ɤ ɤ̤ ɯ ɯə ɯ̤ ɯ̤ə̤
cacu1241-275	Kakua	cacu1241	Kakua-Nukak	South America	0.88778	-69.5659	22	12	10	0	0	0	0	1.2	h k l m n p t tʃ w ŋ ʍ ʔ a ã i ĩ o õ ɘ̃ ɛ ɛ̃ ɨ
mind1253-276	Min Dong Chinese	mind1253	Sino-Tibetan	Eurasia	26.0	119.5	21	14	7	0	0	0	0	2.0	k kʰ l m n p pʰ s ts tsʰ t tʰ x ŋ a i u y œ ɔ ɛ
cham1312-277	Chamorro	cham1312	Austronesian	Papunesia	13.438011	144.74474	26	20	6	0	0	0	0	3.3333333333333335	b d dz f h j k l m n p s t ts w ŋ g ɲ ɻ ʔ e̞ i o̞ u æ ɑ
chip1261-278	Chipewyan	chip1261	Athabaskan-Eyak-Tlingit	North America	58.98	-104.44	52	38	14	0	0	0	6	2.7142857142857144	h j k kxʰ kxʷʰ kʷ kʼʷ kʼ l l̥ n p r s tʃ tʃʰ tʃʼ ts tsʰ tsʼ t tɬ tɬʰ tɬʼ tʼ tˠʰ tθ tθʰ tθʼ x xʷ z ð ɣ ɣʷ ʃ ʔ θ a aː ã ãː e i iː ĩ ĩː o u uː ũ ũː
quio1240-279	Quiotepec Chinantec	quio1240	Otomanguean	North America	17.5621	-96.602	41	26	15	0	0	0	0	1.7333333333333334	dz j k kʷ l l̥ m m̥ n̠ n̠̥ n n̥ p t̠ ts t w ð̠ ç ŋ ŋ̊ ɣ ɸ ʂ ʐ ʔ a ã i ĩ o̞ u ũ y ỹ æ̃ œ ɔ̃ ɛ ɯ ɯ̃
cher1273-280	Cherokee	cher1273	Iroquoian	North America	35.4664	-83.163	17	11	6	0	0	0	0	1.8333333333333333	d dz h j l m n w g ʃ ʔ a e̞ i o̞ u ə̃
chuv1255-281	Chuvash	chuv1255	Turkic	Eurasia	55.487	47.163	30	21	9	0	0	0	0	2.3333333333333335	b d f j k l m n p r s tʃ ts t w x z ɕ g ʃ ʒ e̞ i o̞ u y ø̆ ɑ ɔ̆ ɯ
east2563-282	Eastern Cham	east2563	Austronesian	Eurasia	11.2853	108.49	32	21	11	0	2	0	0	1.9090909090909092	b̰ c cʰ d̰ h j k kʰ l m n p pʰ t tʰ w ŋ ɲ ɾ ʃ ʔ a e i iə o u uə ɔ ə ɛ ɨ
uppe1439-283	Upper Chehalis	uppe1439	Salishan	North America	46.7981	-123.169	34	30	4	0	0	0	0	7.5	h j k kʷ kʼʷ kʼ l m n p pʼ q qʷ qʼʷ qʼ s t ts tsʼ tʼ tʃ tʃʼ tɬʼ w xʷ ɬ ʃ ʔ χ χʷ a e̞ o̞ ə
chua1250-284	Chuave	chua1250	Nuclear Trans New Guinea	Papunesia	-6.17824	145.139	17	12	5	0	0	0	0	2.4	b d f j k m n s t w g ɾ a e̞ i o̞ u
chuk1273-285	Chukchi	chuk1273	Chukotko-Kamchatkan	Eurasia	68.6436	170.045	22	15	7	0	0	0	0	2.142857142857143	j k m n p q sʲ ts t w ŋ ɣ ɬ ɻ̝ ʔ a e o̞ u ə̆ ɛ ɪ
mand1415-286	Mandarin Chinese	mand1415	Sino-Tibetan	Eurasia	40.0209	116.228	32	25	7	0	0	0	0	3.5714285714285716	cç cçʰ f j k kʰ l m n p pʰ s ts tsʰ t tʰ w ç ŋ ɥ ʂ ʈʂ ʈʂʰ ʐ χ a a˞ i u y ə˞ ɤ̟
haka1240-287	Haka Chin	haka1240	Sino-Tibetan	Eurasia	22.8735	92.8208	52	45	7	0	0	0	1	6.428571428571429	f h j̊ j̰ k kʰ kʲ kʷ kʷʰ l lʲ m ⁿb ⁿbʲ mʲ ⁿd ⁿdʲ n p pʰ pʲ pʲʰ q qʰ s sʲ tɕ tɕʰ t tʰ tʲ tʲʰ v vʲ w̰ x ŋ ɕ ɣ ɬ ɬʲ ɲ ʍ ʑ ʔ a aː e̞ i o̞ u ə
asha1243-288	Asháninka	asha1243	Arawakan	South America	-11.9311	-73.9073	19	15	4	0	0	0	0	3.75	h j k m n n̠ p s t ts t̠ tʃ ɾ ʃ β a e i o
cofa1242-289	Cofán	cofa1242		South America	0.276675	-77.0643	35	30	5	0	0	0	0	6.0	r b c cʰ dʒ d f h j k kʰ m n p pʰ s tʃ tʃʰ t tʰ w ɟ g ɣ ɰ ɲ ʃ ʑ ʔ β a i o̞ ɛ ɨ
wame1240-290	Wamey	wame1240	Atlantic-Congo	Africa	12.5421	-13.177	46	39	7	0	0	0	0	5.571428571428571	b c d j j̃ k kʷ l l̃ m ⁿb ⁿp n ⁿd ⁿt p r r̠̙ s t w w̃ x xʷ ŋ ⁿk ⁿkʷ ŋʷ ɓ ɗ ɟ g gʷ ɲ ⁿc ⁿɟ ɸ ʄ β a i u æ ɔ ə ɛ
chua1256-291	Chuanqiandian Cluster Miao	chua1256	Bookkeeping	Eurasia	22.5638	101.95	56	46	10	0	4	0	0	4.6	f h k kʰ l l̥ m ⁿp ⁿpʰ m̥ n̠ ⁿtʃ ⁿtʃʰ n̠̥ n̪ ⁿt̪ ⁿts̪ ⁿts̪ʰ ⁿt̪ʰ n̪̥ p pʰ q qʰ s̪ tʃ tʃʰ t̪ ts̪ ts̪ʰ t̪ʰ v w ŋ ⁿk ⁿkʰ ⁿʈʂ ⁿʈʂʰ ⁿq ⁿqʰ ʂ ʃ ʈʂ ʈʂʰ ʐ ʒ a ai au e̞ i o̞ u ɒ əu ɛɯ
isla1278-292	Island Carib	isla1278	Arawakan	North America	15.364795	-61.342957	27	16	11	0	1	0	0	1.4545454545454546	b d f h j k l m n p s tʃ t w g ɾ a aɯ ã e̞ ẽ̞ i ĩ u ũ ɤ̞ ɤ̞̃
tedi1235-293	Tedim Chin	tedi1235	Sino-Tibetan	Eurasia	23.6079	93.519	26	21	5	0	0	0	0	4.2	b d h k l l̰ m n p pʰ s t ts tʰ v w̰ x z ŋ g ʔ a i u ɔ ɛ
west2644-294	Western Highland Chatino	west2644	Otomanguean	North America	16.2495	-97.3244	25	16	9	0	0	0	0	1.7777777777777777	r b d h j k l m n p s t w g ʃ ʔ a e̞ ẽ̞ i ĩ o̞ õ̞ u ũ
cube1242-295	Cubeo	cube1242	Tucanoan	South America	1.32382	-70.1939	23	11	12	0	0	0	0	0.9166666666666666	b d d̠ k p t tʃ x ð ɺ β a ã e̞ ẽ̞ i ĩ o̞ õ̞ u ũ ɨ ɨ̃
cayu1262-296	Cayubaba	cayu1262		South America	-13.2482	-65.4822	33	17	16	0	0	0	0	1.0625	b dʒ d̪ h j k m n n̠ p s t tʃ w ɾ ʃ β a ã i ĩ o̞ õ̞ u ũ æ æ̃ ɔ ɔ̃ ɛ ɛ̃ ɨ ɨ̃
dang1274-297	Dangaleat	dang1274	Afro-Asiatic	Africa	12.1517	18.385	28	21	7	0	0	0	0	3.0	b c d j k l̠ m n p r t w ŋ ɓ ɗ ɟ g ɲ ʃ ʄ ʒ a e i o u ɔ ɛ
dann1241-298	Dan	dann1241	Mande	Africa	7.22812	-8.24535	39	19	20	0	0	0	0	0.95	b d f j k kp l m n p s t v w z ɓ g gb ᶑ a ã a̟ ã̟ e ẽ̞ i ĩ o õ̞ u ũ ɒ ɒ̃ ɔ ɘ ə̃ ɛ ɜ ɨ
dagb1246-299	Dagbani	dagb1246	Atlantic-Congo	Africa	9.64745	-0.43227	29	23	6	0	0	0	0	3.8333333333333335	b dʒ d f j k kp l m n p s tʃ t v w z ŋ ŋm g gb ɲ ʃ a e̞ i o̞ u ə
darf1239-300	Dar Fur Daju	darf1239	Dajuic	Africa	12.2598	25.3127	30	24	6	0	0	0	0	4.0	b c d h j k l m n p r s t w ŋ ɓ ɗ ɟ g ɲ ɽ ʃ ʄ χ a e̞ i u ɔ ə
daha1245-301	Dahalo	daha1245	Afro-Asiatic	Africa	-2.1843	40.37	59	54	5	0	0	0	0	10.8	r b d dz dʒ d̪ dɮ f h j k ǀ͓ kʷ kʼʷ kʼ l m ⁿb n ⁿd ⁿdz n̠ ⁿdʒ ⁿd̪ p pʼ s t ts tsʼ tʼ tʃ tʃʼ t̪ tɬ tɬʼ t̪ʼ v w ð ħ ŋǀ͓ ⁿg ⁿgʷ ɓ ɗ ɗ̠ g gʷ ɬ ʃ ʔ ʕ β a e̞ i o̞ u
nyis1236-302	Nyishi-Hill Miri	nyis1236	Sino-Tibetan	Eurasia	27.278263	93.675529	24	15	9	0	0	0	0	1.6666666666666667	b d j k l̪ m n p r s t x ŋ g ɦ i i̥ u u̥ ɑ ɔ ɛ ɯ ʌ
dyir1250-303	Dyirbal	dyir1250	Pama-Nyungan	Australia	-17.4516	145.544	16	13	3	0	0	0	0	4.333333333333333	b d j l m n r w ŋ ɟ g ɲ ɻ a i u
stan1295-304	German	stan1295	Indo-European	Eurasia	48.649	12.4676	41	22	19	0	3	0	8	1.1578947368421053	b d f h j k l m n p pf s t ts v x z ŋ g ʀ ʃ ʒ ai au aː eː iː oː uː yː øː œ ɐ ɔ ɔi ə ɛ ɛː ɪ ʊ ʏ
dier1241-305	Dieri	dier1241	Pama-Nyungan	Australia	-28.1667	138.0	25	22	3	0	0	0	0	7.333333333333333	c j k l l̪ m n n̪ p r t t̪ w ŋ ɖ ɭ ɲ ɳ ɻ ʈ ʎ ɾ a i u
kumi1248-306	Tipai	kumi1248	Cochimi-Yuman	North America	32.331	-116.604	34	25	9	0	0	0	4	2.7777777777777777	j k kʷ l l̪ m n n̠ n̪ p q r s s̪ t tʃ t̪ w x xʷ ɬ ɮ̪ ɹ ʔ β a aː eː oː ɔ ɔː ə ɪ ʊ
nort2815-307	Northeastern Dinka	nort2815	Nilotic	Africa	9.27995	31.8392	32	19	13	0	0	0	0	1.4615384615384615	b c d d̪ j k l m n n̪ p r t t̪ w ŋ ɟ g ɲ a̤ a̰ e̤ ḛ i̤ ḭ o̤ o̰ ṳ ɔ̤ ɔ̰ ɛ̤ ɛ̰
lowe1415-308	Lower Grand Valley Dani	lowe1415	Nuclear Trans New Guinea	Papunesia	-4.25684	138.992	24	12	12	0	5	0	0	1.0	h j k kʷ l m n p s t w ʔ a ai au e̞ e̞i i o̞ o̞i o̞u u ɪ ʊ
nort2735-309	Northern Dong	nort2735	Tai-Kadai	Eurasia	26.9944	109.204	27	20	7	0	0	0	0	2.857142857142857	c j k kʷ l lʲ m mʲ n p pʲ s t w ç ŋ ŋʷ ɲ ʔ χ a e̞ i o̞ u ɐ ə
doya1240-310	Doyayo	doya1240	Atlantic-Congo	Africa	8.68604	13.0768	34	22	12	0	0	0	0	1.8333333333333333	r b d f h j k kp l m n p s t v w z ŋ ɓ ɗ g gb a ã e i ĩ o u ũ ɔ ɔ̃ ɛ ɛ̃
ruka1240-311	Rukai	ruka1240	Austronesian	Papunesia	22.7738	120.844	27	23	4	0	0	0	0	5.75	b d̪ h j k l m n p r s ts t̪ v w ð ŋ ɖ g ɭ ʈ ʔ θ a i u ɯ
daur1238-312	Dagur	daur1238	Mongolic-Khitan	Eurasia	48.0	124.0	29	22	7	0	0	0	0	3.142857142857143	r b dʒ d f j k l m n p tʃ t w x ŋ ɖʐ g ʂ ʃ ʈʂ ʐ a e i u y ɔ ə
toro1252-313	Toro So Dogon	toro1252	Dogon	Africa	14.40749	-3.10006	28	16	12	0	0	0	0	1.3333333333333333	b dʒ d h j k l m n p s t w g ɲ ɾ a ã e ẽ i ĩ o õ u ũ ɔ ɛ
dhuw1249-314	Dhuwal	dhuw1249	Pama-Nyungan	Australia	-12.7825	136.008	23	20	3	0	0	0	0	6.666666666666667	j k l m n n̠ n̪ p r t t̠ t̪ w ŋ ɭ ɳ ɻ ɽ ʈ ʔ ɐ ɪ ʊ
jola1263-315	Jola-Fonyi	jola1263	Atlantic-Congo	Africa	12.75752	-15.7354766667	29	19	10	0	0	0	0	1.9	b c d f h j k l m n p s t w ŋ ɟ g ɲ ɾ a e i o u ɔ ɘ ɛ ɪ ʊ
efik1245-316	Efik	efik1245	Atlantic-Congo	Africa	4.89379	8.38121	20	13	7	0	0	0	0	1.8571428571428572	b d f j k kp m n s t w ŋ ɲ a e i o u ɔ ɛ
ekar1243-317	Ekari	ekar1243	Nuclear Trans New Guinea	Papunesia	-3.88974	136.018	15	10	5	0	0	0	0	2.0	b d j k m n p t w gˡ a i u ɔ ɛ
mode1248-318	Modern Greek	mode1248	Indo-European	Eurasia	38.36	23.13	26	21	5	0	0	0	0	4.2	b dz d̪ f j k l̪ m n̪ p s ts t̪ v x z ð g ɣ ɾ θ i u ɑ ɔ ɛ
cent2128-319	Central Siberian Yupik	cent2128	Eskimo-Aleut	Eurasia	63.4308	-170.272	36	32	4	0	0	0	0	8.0	f h j k kʷ l l̥ m m̥ n n̥ p q qʷ s t v x xʷ z ŋ ŋʷ ŋ̊ ŋ̥ʷ ɣ ɣʷ ɹ ɹ̥ ʁ ʁʷ χ χʷ a i u ə
ejag1239-320	Ejagham	ejag1239	Atlantic-Congo	Africa	5.54442	8.90959	27	20	7	0	0	0	0	2.857142857142857	b d d̠ f j k kp m n p s t t̠ w ŋ g gb ɲ ɾ β a i u y ɔ ɛ ʌ
basq1248-321	Basque	basq1248		Eurasia	43.2787	-1.31622	28	23	5	0	0	0	0	4.6	b c d f k l m n p r s tʃ ts t ɟ g ɲ ɾ ʂ ʃ ʈʂ ʎ χ a e̞ o̞ u ɪ
even1260-322	Even	even1260	Tungusic	Eurasia	70.6687	130.914	27	17	10	0	2	0	0	1.7	b dʒ d j k l m n p r s tʃ t ŋ g ɲ β̞ ia̟ ie̞ o̞ u ɑ ɔˤ ɛ ɪ ɪˤ ʊˤ
ewee1241-323	Ewe	ewee1241	Atlantic-Congo	Africa	6.46061	0.814975	40	26	14	0	0	0	0	1.8571428571428572	b d̪ dz̪ f j kp kʰ l m n pʰ s ts̪ t̪ʰ v z ħ ŋ g gb ɰ ɲ ɸ ɾ̠ ʕ β a ã e ẽ i ĩ o õ u ũ ɔ ɔ̃ ɛ ɛ̃
ewon1239-324	Ewondo	ewon1239	Atlantic-Congo	Africa	4.21141	11.93646	34	26	8	0	0	0	0	3.25	b d dz f j k kp l m ⁿb n ⁿd ⁿdz s t ts v w z ŋ ⁿgb ⁿg g gb ⁿv ɲ a e i͓ o ʮ ɔ ɘ ɛ
eyak1241-325	Eyak	eyak1241	Athabaskan-Eyak-Tlingit	North America	60.4232	-144.762	45	32	13	0	0	0	7	2.4615384615384617	dʒ dz d dɮ h j kʰ kʼ l m n qʰ qʼ s tʃʰ tʃʼ tsʰ tsʼ tɬʰ tɬʼ tʰ tʼ w x xʷ g gʷ ɢ ɬ ʃ ʔ χ i iː ĩ ĩː u uː ũ ũː ɑː ɑ̃ ɑ̃ː ɛ ɛː
fasu1242-326	Fasu	fasu1242		Papunesia	-6.62687	143.284	21	11	10	0	0	0	0	1.1	h j k m n p s t w ɸ ɾ a ã e̞ ẽ̞ i ĩ o̞ õ̞ u ũ
nobi1240-327	Nobiin	nobi1240	Nubian	Africa	22.8142	31.8376	21	16	5	0	0	0	0	3.2	b dʒ d̪ f h k l m n̪ r s tʃ t̪ g ɲ ʃ a e̞ i o̞ u
fiji1243-328	Fijian	fiji1243	Austronesian	Papunesia	-18.0	178.33	30	19	11	0	6	0	0	1.7272727272727273	f j k l m ⁿb ⁿr n̪ ⁿd̪ p r s t̪ ð ŋ ⁿg ɰ ʔ β a ai au e̞ e̞i e̞u i o̞ o̞i o̞u u
finn1318-329	Finnish	finn1318	Uralic	Eurasia	64.7628	25.5577	25	17	8	0	0	0	0	2.125	b d̪ f h j k l̪ m n̪ p r s t̪ v ŋ g ʃ a i o u y æ ø ɛ
fefe1239-330	Fe'fe'	fefe1239	Atlantic-Congo	Africa	5.18158	10.1442	25	17	8	0	0	0	0	2.125	b dʒ d f h k m n s tʃ t v w z ŋ g ʔ a̟ e̞ i o̞ u ɑ ɤ̞ ɯ
stan1290-331	French	stan1290	Indo-European	Eurasia	48.0	2.0	37	21	16	0	0	0	2	1.3125	b d̪ f j k l̪ m n̪ p s̪ t̪ v w z̪ ŋ g ɥ ɲ ʀ ʃ ʒ a̟ e i oː õ u y æ̃ ø œ œ̃ ɒ ɒ̃ ɔ ɛ ɛː
fuln1247-332	Fulniô	fuln1247		South America	-9.02591	-37.1402	30	18	12	0	0	0	0	1.5	c cç cʰ k kʰ l m n p pʰ ts tsʰ t tʰ ɟʝ ɦ ʎ ʔ a ã e ẽ i ĩ o õ u ũ ɔ ɛ
furr1244-333	Fur	furr1244	Furan	Africa	12.0455	23.6401	30	19	11	0	0	0	3	1.7272727272727273	b d dʒ f h j k l m n p r s t w ŋ g ɲ ʃ a aː e i iː o u uː ɔ ə ɛ
guib1244-334	Guibian Zhuang	guib1244	Tai-Kadai	Eurasia	24.3	106.2	35	19	16	0	1	0	0	1.1875	f h j k kʰ l m n p pʰ tʃ tʃʰ t tʰ v ŋ ɬ ʃ ʔ a aɨ ă e i ĭ ŏ u ŭ ɔ ɔ̆ ə ɛ ɛ̆ ɨ ɨ̆
gaaa1244-335	Ga	gaaa1244	Atlantic-Congo	Africa	5.65488	-0.18598	41	29	12	0	0	0	0	2.4166666666666665	b d dʒ dʒʷ f h j kp kʰ l m n pʰ r s tʃʰ tʃʷ t̪ʰ v w z ŋ ŋm g gb ɥ ɲ ʃ ʃʷ a ã e i ĩ o u ũ ɔ ɔ̃ ɛ ɛ̃
gads1258-336	Gadsup	gads1258	Nuclear Trans New Guinea	Papunesia	-6.31631	145.997	15	9	6	0	0	0	3	1.5	d j k m n p t ʔ β a̟ː eː i oː u ɜ
gara1269-337	Garrwa	gara1269	Garrwan	Australia	-17.4504	137.72014	22	19	3	0	0	0	0	6.333333333333333	c j k l l̠ m n n̠ p r t t̠ w ŋ ɭ ɲ ɳ ɻ ʈ a ɪ ʊ
gbay1287-338	Gbaya-Bossangoa	gbay1287	Atlantic-Congo	Africa	6.61896	17.645	43	31	12	0	0	0	0	2.5833333333333335	b d f h j k kp l m ⁿb m̰ n ⁿd n̰ p t v w ŋ ŋm ⁿgb ⁿg ɓ ɕ ɗ g gb ɾ ʑ ʔ ⱱ a ã e i ĩ o u ũ æ̃ ɔ ɔ̃ ɛ
gbag1258-339	Gbagyi	gbag1258	Atlantic-Congo	Africa	9.29842	6.90495	26	20	6	0	0	0	0	3.3333333333333335	b d f h j k kp l m n p s t v w z ɓ g gb ɾ a e̞ i ĩ o̞ u
qaua1234-340	Central Gelao-Qau	qaua1234	Tai-Kadai	Eurasia	26.155438	106.16455	43	31	12	0	5	0	0	2.5833333333333335	f h k kʰ l m ⁿp ⁿtɕ ⁿts ⁿt n p pʰ q qʰ s tɕ tɕʰ ts tsʰ t tʰ v w x z ŋ ⁿk ɕ ɲ ʑ a ai au e̞ e̞i i o̞ u ɒ əu əɯ ə˞
nana1257-341	Nanai	nana1257	Tungusic	Eurasia	48.4343	134.797	24	18	6	0	0	0	0	3.0	b dʒ d k l m n p r s tʃ t x ŋ g ɲ ʝ β a i o u ɘ ɪ
iris1253-342	Irish	iris1253	Indo-European	Eurasia	53.2186	-7.61509	69	45	24	0	4	0	10	1.875	bʲ bʷˠ d dʒ d̪ h j kʰ kʲʰ lʲ lˠ l̠ l̥ʲ l̥ˠ l̪ˠ mʲ mʷˠ nʲ nˠ n̠ n̥ʲ n̥ˠ n̪ pʲʰ pʷˠʰ s tʰ tʃ t̪ʰ w x ç ŋ ŋʲ g gʲ ɣ ɸʲ ɸʷˠ ɾʲ ɾˠ ɾ̥ʲ ɾ̥ˠ ʃ βʲ a ã eː ẽː e̞ ẽ̞ iə iː ĩː oː õː o̞ õ̞ uə uː ũː ɑː ɑ̃ː əi əu ɪ ɪ̃ ʊ ʊ̃
dawr1236-343	Dawro	dawr1236	Ta-Ne-Omotic	Africa	6.95	37.0	29	24	5	0	0	0	0	4.8	r b dʒ d f h j k kʼ l m n s tʃ ts tsʼ t tʼ w z ɗ g ʃ ʔ a e̞ i o̞ u
wayu1243-344	Wayuu	wayu1243	Arawakan	South America	11.395566	-72.199791	26	14	12	0	0	0	0	1.1666666666666667	h j k m n p r s tʃ t w ɺ ʃ ʔ a ã e ẽ i ĩ u ũ ɔ ɔ̃ ɛ ɛ̃
para1311-345	Paraguayan Guaraní	para1311	Tupian	South America	-25.60551	-57.08816	36	24	12	0	0	0	0	2.0	f k kʷ l̪ m n̪ p r͓ s s̪ tʃ t̪ v x xʷ ð ŋ ŋʷ ɣ ɣʷ ɲ ɾ ʎ ʔ a ã e ẽ i ĩ o õ u ũ ɨ ɨ̃
guah1255-346	Guahibo	guah1255	Guahiboan	South America	5.81736	-68.9839	29	17	12	0	0	0	0	1.4166666666666667	b d f h j k l m n p r s t ts t̪ʰ v x a ã e̞ ẽ̞ i ĩ o̞ õ̞ u ũ ə ə̃
guam1248-347	Guambiano	guam1248	Barbacoan	South America	2.55849	-76.582	24	18	6	0	0	0	0	3.0	j k kʷ l m n p s t ts tʃ ɲ ɾ ʂ ʃ ʈʂ ʎ β̞ a e̞ i o̞ u ə
ache1246-348	Aché	ache1246	Tupian	South America	-25.5865	-56.4697	21	11	10	0	0	0	0	1.1	dʒ k m ⁿb ⁿd p tʃ t ⁿg ɺ β a ã e̞ ẽ̞ i ĩ o̞ õ̞ u ũ
kuku1273-349	Kuku-Yalanji	kuku1273	Pama-Nyungan	Australia	-16.0036	145.188	16	13	3	0	0	0	0	4.333333333333333	r c j k l m n p t w ŋ ɲ ɻ a i u
hakk1236-350	Hakka Chinese	hakk1236	Sino-Tibetan	Eurasia	25.0	116.0	22	16	6	0	0	0	0	2.6666666666666665	f h k kʰ l ⁿb ⁿd p pʰ s ts tsʰ t tʰ w ⁿg a i u æ ɔ ɛ
haus1257-351	Hausa	haus1257	Afro-Asiatic	Africa	11.1513	8.7804	38	31	7	0	2	0	0	4.428571428571429	b d dʒ h j j̰ k kʲ kʼʲ kʷ kʼʷ kʼ l m n r s sˀ t tʃ w z ɓ ɗ g gʲ gʷ ɸ ɽ ʃ ʔ a ai au e̞ i o̞ u
hawa1245-352	Hawaiian	hawa1245	Austronesian	Papunesia	19.6297	-155.43	13	8	5	0	0	0	0	1.6	h k l m n p w ʔ a i o̞ u ɛ
sout2956-353	Southern Haida	sout2956	Haida	North America	53.2616	-132.008	49	46	3	0	0	0	0	15.333333333333334	c cʰ cʼ dɮ h j j̰ k kʰ kʷ kʷʰ kʼʷ kʼ l l̰ m m̰ n n̰ p pʰ q qʰ qʷ qʷʰ qʼʷ qʼ tʃ tʃʰ tʃʼ t tɬ tɬʼ tʰ tʼ w w̰ x xʷ ç ŋ ŋ̰ ɬ ʔ χ χʷ a i ʊ
hind1269-354	Hindi	hind1269	Indo-European	Eurasia	25.0	77.0	61	40	21	0	0	0	11	1.9047619047619047	b bʱ dʒ dʒʱ d̪ d̪ʱ f j k kʰ l lʱ m mʱ n̪ n̪ʱ p pʰ q r s tʃ tʃʰ t̪ t̪ʰ z ɖ ɖʱ g gʱ ɦ ɽ̃ ʁ ʃ ʈ ʈʰ ʒ ʔ β̞ χ aː ãː eː ẽː iː ĩː oː õː uː ũː æː ɔ ɔ̃ ɛ ɛ̃ ɜ ɜ̃ ɪ ɪ̃ ʊ ʊ̃
hixk1239-355	Hixkaryána	hixk1239	Cariban	South America	-0.16265	-58.80153	23	18	5	0	0	0	0	3.6	b d d̠ h j k m n n̠ p s t tʃ w ɸ ɺ̠ ɾ ʃ e̞ u æ ɔ ɯ
hopi1249-356	Hopi	hopi1249	Uto-Aztecan	North America	35.7653	-110.535	28	22	6	0	1	0	0	3.6666666666666665	h j j̊ k kʷ m m̥ n n̥ p q s t v w ŋ ŋʷ ŋ̊ ɲ ɻ̝̊ ʍ ʔ a i o̞u æ ø ɤ
hadz1240-357	Hadza	hadz1240		Africa	-3.83115	35.0458	62	57	5	0	0	0	0	11.4	b dz dʒ d̪ f h j k ǀ͓ ǀʰ͓ ǁ͓ ǁʰ͓ ǃ̠ ǃ̠ʰ kʰ kʷ kʷʰ kʼʷ kʼ l m ⁿb ⁿpʰ ⁿdz ⁿdʒ n̪ ⁿd̪ ⁿt̪ʰ p pʰ pʼ s ts tsʰ tsʼ tɬ tɬʰ tɬʼ tʃ tʃʰ tʃʼ t̪ t̪ʰ w ŋ ŋǀ͓ ŋǁ͓ ŋǃ̠ ⁿg ⁿǀˀ͓ ⁿǁˀ͓ ⁿǃ̠ˀ g ɬ ɲ ʃ ʔ a e̞ i o̞ u
hung1274-358	Hungarian	hung1274	Uralic	Eurasia	46.9068585714	19.6555271429	40	26	14	0	0	0	7	1.8571428571428572	b cç dʒ d̪ dz̪ f h j k l̪ m n̪ p r̪ s̪ tʃ t̪ ts̪ v w z̪ ɟʝ g ɲ ʃ ʒ aː eː i iː o oː u uː y yː ø øː ɒ ɛ
hupa1239-359	Hupa-Chilula	hupa1239	Athabaskan-Eyak-Tlingit	North America	41.0982	-123.68	35	28	7	0	0	0	3	4.0	c cʰ cʼ h hʷ j l m n q qʼ s t ts tsʰ tsʼ tɬʼ tʰ tʼ tʃ tʃʷʰ tʃʼ w x xʷ ŋ ɬ ʔ a aː e̞ e̞ː o̞ o̞ː ɪ
huas1242-360	Huastec	huas1242	Mayan	North America	21.6153	-98.5028	26	21	5	0	0	0	0	4.2	h j̟ k kʷ kʼʷ kʼ l m n p t ts tsʼ tʼ tʃ tʃʼ ʃ ʔ β β̞ θ a e̞ i o̞ u
sanm1287-361	San Mateo del Mar Huave	sanm1287	Huavean	North America	16.2129	-95.0077	29	23	6	0	0	0	0	3.8333333333333335	b d h j k kʷ l m ⁿb ⁿd n p r s ts t w ð̠ ⁿg ⁿgʷ ɣ ɸ ɾ a e̞ i o̞ u ɯ
nucl1235-362	Eastern Armenian	nucl1235	Indo-European	Eurasia	40.0	45.0	36	30	6	0	1	0	0	5.0	f h j k kʰ kʼ l̪ m n̪ p pʰ pʼ r s̪ tʃ tʃʰ tʃʼ t̪ ts̪ ts̪ʰ ts̪ʼ t̪ʰ t̪ʼ v z̪ ʁ̞ ʃ ɻ̝ ʒ χ a e̞ i ie̞ o̞ u
iaai1238-363	Iaai	iaai1238	Austronesian	Papunesia	-20.6301	166.59	52	36	16	0	0	0	7	2.25	b dʒ d f h k m m̥ n p s tʃ t w x ð ŋ ŋm ŋ̊ ŋ̥m̥ ɖ g gb ɭ ɭ̊ ɲ ɲ̊ ɳ ɳ̊ ɸ ɹ ʃ ʈ ʍ β θ e eː i iː o oː u uː y æ æː œ ɔ ɔː ɛ ɛː
iban1264-364	Iban	iban1264	Austronesian	Papunesia	2.09041	112.934	25	19	6	0	0	0	0	3.1666666666666665	b d dʒ h j k l m n p r s t tʃ w ŋ g ɲ ʔ a e̞ i o̞ u ə
nucl1417-365	Igbo	nucl1417	Atlantic-Congo	Africa	4.62705	7.23441	59	43	16	0	0	0	0	2.6875	b bʲ bʱ bʲʱ dʒ dʒʱ d dʱ f h hʷ j k kʰ kʷ kʷʰ l m n p pʰ pʲ pʲʰ s tʃʰ t tʰ v w z ŋ ŋm ɓ ɓ̥ ɗ̥ g gʷ gʱ gʷʱ ɣ ɲ ɾ ɾʲ a ã e ẽ i ĩ o õ u ũ ɔ ɔ̃ ɛ ɛ̃ ʊ ʊ̃
igna1246-366	Ignaciano	igna1246	Arawakan	South America	-15.1188	-65.3993	25	21	4	0	0	0	0	5.25	b d f h j k l m n n̠ p s t ts tʃ w ŋ ɾ ʃ ʔ β a i u ɛ
izon1238-367	Izon	izon1238	Ijoid	Africa	5.17986	5.51702	37	19	18	0	0	0	0	1.0555555555555556	b d f j k kpʷ l m n p s t v w z ŋ g gbʷ ɾ a ã e ẽ i ĩ o õ u ũ ɔ ɔ̃ ɛ ɛ̃ ɪ ɪ̃ ʊ ʊ̃
ikkk1242-368	Ik	ikkk1242	Kuliak	Africa	3.61407	34.2507	44	31	13	0	0	0	0	2.3846153846153846	b dz dʒ d̪ f h j k kʼ l m n̪ p r s ts tsʼ tʃ t̪ tɬʼ w z ŋ ɓ ɗ ɠ g ɬ ɮ ɲ ʄ a ḁ e e̞̥ i i̥ o o̞̥ u u̥ ɔ ɛ ɪ
irar1238-369	Irarutu	irar1238	Austronesian	Papunesia	-2.94438	133.586	19	12	7	0	0	0	0	1.7142857142857142	k m ⁿb n̪ ⁿd̪ s̪ t̪ w ⁿg ɸ ɾ ʝ a e i o u ɔ ɛ
iraq1241-370	Iraqw	iraq1241	Afro-Asiatic	Africa	-4.19948	35.2939	45	33	12	0	0	1	5	2.75	r b d f h j k kʷ l m n p q qʷ s sː t tsʼ tɬʼ w x xʷ ħ ŋ ŋʷ ɓ ɗ g gʷ ɬ ʃ ʔ ʕ̝ a eː iː oː uː ɑː ɔ ɛ ɜ ɪ ɵ ʊ
iran1263-371	Irántxe-Münkü	iran1263		South America	-12.7178	-57.9806	39	21	18	0	6	0	0	1.1666666666666667	b bʷ d h j k kʲ l m mʷ n p pʷ s t tʷ w ɾ ʃ ʍ ʔ a ai ã ãĩ i ĩ u ũ ɔ ɔi ɔ̃ ɔ̃ĩ ɛ ɛ̃ ɨ ɨi ɨ̃ ɨ̃ĩ
isok1239-372	Isoko	isok1239	Atlantic-Congo	Africa	5.52889	6.24682	37	28	9	0	0	0	0	3.111111111111111	b d d̪ f h j k l m n n̪ p r s t t̪ v vʱ z ŋʷ ɓ̥ g gb ɣ ɣʷ ɹ ɾ β̞ a e i o u ɔ ɛ ɪ ʊ
itel1242-373	West Itelmen	itel1242	Chukotko-Kamchatkan	Eurasia	56.046173	156.30704	32	27	5	0	0	0	0	5.4	k kʼ l m n nʲ p pʼ q qʼ r s tʃ tsʼ t tʼ x z ŋ ɣ ɬʲ ɮʲ ɸ ʔ ʝ β χ a̟ e̞ i o̞ u
iton1250-374	Itonama	iton1250		South America	-12.80431	-64.35748	25	19	6	0	0	0	0	3.1666666666666665	b d h j k kʼ l m n p s tʃ tʃʼ t tʲ tʼ w ɾ ʔ a e̞ i o̞ u ɨ
iumi1238-375	Iu Mien	iumi1238	Hmong-Mien	Eurasia	20.83	101.17	41	33	8	0	0	0	1	4.125	b c cʰ d̪ dz f h j j̊ k kʰ l l̥ m m̥ n̪ n̪̥ p pʰ s t̪ ts tsʰ t̪ʰ w ŋ ŋ̊ ɟ g ɲ ɲ̊ ʍ ʔ a aː e i o u æ ɔ
ivat1242-376	Itbayat	ivat1242	Austronesian	Papunesia	20.77	121.85	23	19	4	0	0	0	0	4.75	b d dʒ h j k l m n n̠ p r s tʃ t̪ v w ŋ g a i u ə
iwam1256-377	Iwam	iwam1256	Sepik	Papunesia	-4.27346	141.817	17	11	6	0	0	0	0	1.8333333333333333	r h j k m n p s t w ŋ a e̞ i o̞ u ə
popt1235-378	Popti'	popt1235	Mayan	North America	15.6609	-91.6633	32	27	5	0	0	0	0	5.4	h j kʰ kʼ l m n pʰ s tsʰ tsʼ tʰ tʼ tʃʰ tʃʼ w ŋ ɓ ɸ ɾ ʂ ʃ ʈʂʰ ʈʂʼ ʔ ʛ̥ χ a i o u ɛ
yany1243-379	Yanyuwa	yany1243	Pama-Nyungan	Australia	-15.7621	136.055	32	29	3	0	0	0	0	9.666666666666666	j k kʲ l l̠ l̪ m ⁿp n ⁿt n̠ ⁿt̠ n̪ ⁿt̪ p r t t̠ t̪ w ŋ ⁿk ⁿkʲ ŋʲ ɭ ɳ ⁿʈ ɽ ʈ a ɪ ʊ
java1254-380	Javanese	java1254	Austronesian	Papunesia	-7.001	109.287	29	21	8	0	0	0	0	2.625	h j k kʱ l m n p pʱ r s̪ t ts tsʱ tʱ t̪ t̪ʱ w ŋ ɲ ʔ a e i o u ɔ ə ɛ
jebe1250-381	Jebero	jebe1250	Cahuapanan	South America	-5.40317	-76.4103	23	19	4	0	0	0	0	4.75	cç j k kˀ l m n̪ p s t̪ w ŋ ɲ ɹ ɾ ɾ̰ ʃ ʎ ʔ a i u ɘ
toll1241-382	Tol	toll1241	Jicaquean	North America	14.6686	-87.0372	28	22	6	0	0	0	0	3.6666666666666665	h j k kʰ kˀ l m n p pʰ pˀ s ts tsʰ tsˀ t tʰ tˀ w ŋ ʔ β a e̞ i o̞ u ɨ
shua1257-383	Shuar	shua1257	Chicham	South America	-3.45136	-78.1892	23	15	8	0	0	0	0	1.875	j k m n̠ n p s tʃ ts t w x ɾ ʃ ʔ a ã i ĩ u ũ ɯ ɯ̃
nucl1643-384	Japanese	nucl1643	Japonic	Eurasia	35.0	135.0	20	15	5	0	0	0	0	3.0	b d̪ h j k m n̪ p s̪ t̪ w z̪ g ɴ ɾ a i ɔ ɛ ɯ
jaqa1244-385	Jaqaru	jaqa1244	Aymaran	South America	-12.741939	-75.809231	39	36	3	0	0	0	0	12.0	c cʰ cʼ j k kʰ kʼ l m n p pʰ pʼ q qʰ qʼ s t ts tsʰ tsʼ tʰ tʼ tʃ tʃʰ tʃʼ w x ŋ ɲ ɾ ʃ ʈʂ ʈʂʰ ʈʂʼ ʎ a i ɯ
japr1238-386	Japrería	japr1238	Cariban	South America	10.5523	-72.7101	24	12	12	0	0	0	0	1.0	b h j k m n p tʃ t ɺ ʃ ʔ a ã e̞ ẽ̞ i ĩ o̞ õ̞ u ũ ɨ ɨ̃
kach1280-387	Southern Jinghpaw	kach1280	Sino-Tibetan	Eurasia	25.4634	97.3278	30	25	5	0	0	0	0	5.0	r b dʒ dz d h j k kʰ l m n p pʰ s tʃ tʃʰ ts t tʰ w ŋ g ʃ ʔ a e̞ i o̞ u
kala1399-388	Kalaallisut	kala1399	Eskimo-Aleut	North America	69.3761	-52.864	22	19	3	0	0	4	0	6.333333333333333	fː k l̪ m n̪ p q s t̪ ts xː ŋ ɣ ɬ̪ː ʁ ʃ ʝ β χː a i u
kash1277-389	Kashmiri	kash1277	Indo-European	Eurasia	34.166825	74.330455	55	27	28	0	0	0	14	0.9642857142857143	b dz dʒʲ d̪ j k kʰ l m n p pʰ r s ts tsʰ tʃʲ tʃʲʰ t̪ t̪ʰ w ɖ g ɦ ʃʲ ʈ ʈʰ aː ã ãː e ẽ i iː ĩ ĩː o õ u uː ũ ũː ɒ ɔː ɔ̃ː ɘ ɘː ɘ̃ː ɛː ɛ̃ː ɜ ɜ̃ ɨ ɨː ɨ̃ː
nucl1302-390	Georgian	nucl1302	Kartvelian	Eurasia	41.850397	43.78613	34	28	6	0	0	0	0	4.666666666666667	h k kʰ kʼ lˠ m n p pʰ pʼ qʼ r s ts tsʰ tsʼ tʃ tʃʰ tʃʼ t̪ t̪ʰ t̪ʼ z ʁ ʃ ʒ β χ a̟ e̞ o̞ ə̆ ɪ ʊ
kaba1278-391	Kabardian	kaba1278	Abkhaz-Adyge	Eurasia	43.5082	43.3918	56	49	7	0	0	0	5	7.0	b d̪ dz̪ f fʼ j kʲʰ kʼʲ kʷʰ kʼʷ m n̪ pʰ pʼ qʼʷ qʼ qχ qχʷ r s̪ ts̪ ts̪ʼ t̪ʰ t̪ʼ v w xʲ xʷ z̪ ħ gʲ gʷ ɣʲ ɦ ɬ̪ʲ ɬ̪ʼʲ ɮ̪ʲ ʁ ʁʷ ʃ ʃʼ ɹ̠̊˔ ʒ ɹ̠˔ ʔ ʔʷ ʕ χ χʷ a̟ː e̞ː iː o̞ː uː ɜ ɨ
cams1241-392	Camsá	cams1241		South America	1.14537	-76.8931	28	22	6	0	0	0	0	3.6666666666666665	b d f j k l m n p s t ts tʃ w x g ɲ ɾ ʂ ʃ ʈʂ ʎ a e̞ i o̞ u ɨ
gras1249-393	Grass Koiari	gras1249	Koiarian	Papunesia	-9.51218	147.437	16	11	5	0	0	0	0	2.2	b d f h k m n t ð g ɾ a e̞ i o̞ u
kafa1242-394	Kafa	kafa1242	Ta-Ne-Omotic	Africa	7.34022	36.1718	27	22	5	0	0	0	0	4.4	r b dʒ d f h j k kʼ l m n p pʼ tʃ tʃʼ t tʼ w g ʃ ʔ a e̞ i o̞ u
dera1245-395	Dera (Indonesia)	dera1245	Senagi	Papunesia	-3.52309	140.947	17	11	6	0	0	0	0	1.8333333333333333	b d j k m n p t w ŋ g a e̞ i o̞ u ə
khan1273-396	Kazym-Berezover-Suryskarer Khanty	khan1273	Uralic	Eurasia	62.4308	66.1218	32	19	13	0	0	0	0	1.4615384615384615	c j k l m n p r s t w ŋ ɣ ɭ ɲ ɳ ʃ ʈʂ ʎ a e̞ ĕ̞ i o̞ ŏ̞ u æ ɒ̆ ɯ ɵ̞ ɵ̞̆ ʉ
kekc1242-397	Kekchí	kekc1242	Mayan	North America	15.3788	-89.2452	26	21	5	0	0	0	0	4.2	b̰ j k kʼ l m n p q qʼ s t ts tsʼ tʼ tʃ tʃʼ w x ʃ ʔ a e̞ i o̞ u
kera1255-398	Kera	kera1255	Afro-Asiatic	Africa	9.88165	15.1419	30	24	6	0	0	0	0	4.0	b b̰ d dʒ d̰ f h j k l m n p r s t tʃ v w z ŋ g ɲ ʔ a i u ɔ ə ɛ
kett1243-399	Ket	kett1243	Yeniseian	Eurasia	63.7551	87.5466	25	18	7	0	0	0	0	2.5714285714285716	b d dʲ h k lʲ lˠ m n q s sʲ t tʲ ŋ ɲ ʔ ʝ a i u æ ɔ ɨ ɵ̞
kota1263-400	Kota (India)	kota1263	Dravidian	Eurasia	11.4978	76.9387	28	23	5	0	0	0	0	4.6	b d dʒ d̪ j kʰ l m n pʰ r tʰ tʃʰ t̪ʰ v ŋ ɖ g ɭ ɳ ɽ ʂ ʈʰ a e̞ i o̞ u
koya1251-401	Koya	koya1251	Dravidian	Eurasia	17.6772	81.2096	24	19	5	0	0	0	0	3.8	b dʒ d̪ h j k l m n p s̪ tʃ t̪ ɖ g ɳ ɾ ʈ ʋ e i u ɐ ɑ
kain1272-402	Kaingang	kain1272	Nuclear-Macro-Je	South America	-27.7671	-52.5394	27	13	14	0	0	0	0	0.9285714285714286	r h j k ⁿb ⁿd ⁿd̠ p t w ⁿg ʃ ʔ a ã e i ĩ o õ u ɔ ɘ ɘ̃ ɛ ɛ̃ ɨ
khas1269-403	Khasi	khas1269	Austroasiatic	Eurasia	24.977	91.9998	29	21	8	0	3	0	0	2.625	b dʒ d h j k kʰ m n p pʰ r s t tʰ w ŋ ɭ ɲ ʃ ʔ a i ia ie̞ u uo ɔ ɛ
luuu1242-404	Lü	luuu1242	Tai-Kadai	Eurasia	21.0321	101.282	31	22	9	0	0	0	0	2.4444444444444446	b d f h j k kʰ kʷ kʷʰ l m n p pʰ s t tʰ tʃ tʃʰ v ŋ ʔ a e i o u ɔ ɛ ɤ ɯ
halh1238-405	Halh Mongolian	halh1238	Mongolic-Khitan	Eurasia	48.324	106.289	33	21	12	0	4	0	0	1.75	b dʒ dz d j kʰ l l̥ m n pʰ r s tʃʰ tsʰ tʰ x g ɸ ʃ β a ae̞ e̠ i o̟ u ui ɔ ɔi ɪ ʊ ʊi
lusi1240-406	Lusi	lusi1240	Austronesian	Papunesia	-5.55033	149.148	21	16	5	0	0	0	0	3.2	h k l m ⁿb ⁿd n p r s t ŋ ⁿg ɽ ʍ β a e̞ i o̞ u
cent1989-407	Central Khmer	cent1989	Austroasiatic	Eurasia	12.0515	105.015	42	21	21	0	3	0	10	1.0	c cʰ h j k kʰ lˠ m n p pʰ s t tʰ ŋ ɓ ɗ ɲ ɽ ʋ ʔ a̟ a̟ː eː e̞ə iː oː uə uː ɑ ɑː ɔ ɔː əː ɛ ɛː ɤ ɪ ɯ ɯə ɯː ʊ
khar1287-408	Kharia	khar1287	Austroasiatic	Eurasia	22.3571	84.3922	36	31	5	0	0	0	0	6.2	b bʱ dʒ dʒʱ d̪ d̪ʱ j k kʰ l m n p pʰ s tʃ tʃʰ t̪ t̪ʰ w ŋ ɖ ɖʱ g gʱ ɦ ɲ ɽ ɾ ʈ ʈʰ a e i o̞ u
kiow1266-409	Kiowa	kiow1266	Kiowa-Tanoan	North America	34.9403	-98.9042	42	22	20	0	8	0	0	1.1	b d̪ d̪ɮ h j k kʰ kʼ m n̪ p pʰ pʼ s ts tsʼ t̪ t̪ʰ t̪ʼ z g ʔ a̟ a̟i ã̟ ã̟ĩ e̞ ẽ̞ i ĩ o̞ o̞i õ̞ õ̞ĩ u ui ũ ũĩ ɔ ɔi ɔ̃ ɔ̃ĩ
kirg1245-410	Kirghiz	kirg1245	Turkic	Eurasia	42.0	74.0	30	22	8	0	0	0	0	2.75	b d̪ f j k l m n p q r s ts tʃ t̪ x z ŋ g ɢ ʃ β o y ø ɑ ɛ ɨ̞ ɪ ʊ
sout2949-411	Southern Kiwai	sout2949	Kiwaian	Papunesia	-8.64889	143.244	19	12	7	0	2	0	0	1.7142857142857142	r b d k m n p s t w g ʔ a au e̞ i o̞ o̞u u
khmu1256-412	Khmu	khmu1256	Austroasiatic	Eurasia	20.2463	101.671	41	23	18	0	3	0	10	1.2777777777777777	c cʰ h j j̰ k kʰ l m n p pʰ r s t tʰ w w̰ ŋ ɓ ɗ ɲ ʔ a aː e eː i ia iː o oː u ua uː ɔː ɘː ɛː ɜː ɨa ɨː
west2632-413	Western Keres	west2632	Keresan	North America	34.9733	-107.517	51	39	12	0	7	0	0	3.25	b cʰ cʼ dʒ d̪ dz̪ h j j̰ kʰ kʼ m m̰ n̪ n̪̰ pʰ pʼ s̪ s̪ʼ tʃʰ tʃʼ ts̪ʰ ts̪ʼ t̪ʰ t̪ʼ w w̰ ɕʼ ɖʐ ɟ g ʂ ʂʼ ʃ ʈʂʰ ʈʂʼ ʔ ɾ̪ ɾ̪̰ ai au a̟ e̞i e̞o̞ i iu u ui ɛ ɨ ɨi
east2516-414	East Kewa	east2516	Nuclear Trans New Guinea	Papunesia	-6.32989	143.931	20	15	5	0	0	0	0	3.0	c j m ⁿb n ⁿd s t w x g ɲ ɸ ɺ ɾ a e̞ i o̞ u
teke1280-415	Teke-Kukuya	teke1280	Atlantic-Congo	Africa	-2.27122	14.4407	28	21	7	0	0	0	0	3.0	b bv d dʒ f h j k l m n p pf s t tʃ w ŋ g ɱ ɲ a e̞ i o̞ u ɪ ʊ
klam1254-416	Klamath-Modoc	klam1254		North America	42.5861	-121.704	37	33	4	0	0	0	0	8.25	b cʰ cʼ d h j j̊ j̰ kʰ kʼ l l̥ l̰ m m̥ m̰ n n̥ n̰ pʰ pʼ qʰ qʼ s tʰ tʼ w w̰ ɟ g ɢ ʍ ʔ a e̞ i o̞
klao1243-417	Klao	klao1243	Atlantic-Congo	Africa	5.05	-8.85	27	11	16	0	0	0	0	0.6875	b cç d f kp p s t w ɟʝ gb a ã e e̞ ẽ̞ i ĩ o o̞ õ̞ u ũ ɔ ɔ̃ ɛ ɛ̃
kwom1262-418	Kwoma	kwom1262	Sepik	Papunesia	-4.08721	142.664	31	24	7	0	0	0	0	3.4285714285714284	h j k kʷ m ⁿb ⁿbʷ mʷ n ⁿd ⁿdʒ s t tʃ w ⁿg ⁿgʷ ɲ ɸ ɸʷ ɾ ʃ ʔ β a e i o̞ u ɛ ɨ
nort2641-419	Northern Kurdish	nort2641	Indo-European	Eurasia	37.0	43.0	47	30	17	0	8	0	5	1.7647058823529411	b dʒ d̪ f j k lˤ l m n̪ p q r sˤ s̪ tʃ t̪ v w x z̪ ħ ŋ g ɣ ɾ ʃ ʒ ʔ ʕ ai au aː e̞i e̞u e̞ː iː o̞i o̞ː ui uː ə əi əu ɨ ɪ ʊ
dera1248-420	Dera (Nigeria)	dera1248	Afro-Asiatic	Africa	10.072	12.0256	35	24	11	0	0	0	5	2.1818181818181817	b b̰ d d̰ j k l m ⁿb n ⁿd p t w ŋ ⁿg ɟ g ɮ ɰ ɲ ⁿɟ ɹ ʃ a aː e̞ e̞ː i iː o̞ o̞ː u uː ə
cent2050-421	Central Kanuri	cent2050	Saharan	Africa	11.8	13.13	29	23	6	0	0	0	0	3.8333333333333335	b d dʒ f h j k l m n p s t tʃ w z g ɭ ɲ ɸ ɾ ʃ ʔ a e̞ i o̞ u ɨ
konk1267-422	Maharashtrian Konkani	konk1267	Indo-European	Eurasia	19.2414	73.9166	37	19	18	0	0	0	0	1.0555555555555556	b dʑ d̪ f h j k l n p s tɕ t̪ w ɖ g ɭ ɾ ʈ a ã a̟ ã̟ e ẽ i ĩ o õ u ũ ɔ ɔ̃ ə ə̃ ɛ ɛ̃
kore1280-423	Korean	kore1280	Koreanic	Eurasia	37.5	128.0	32	21	11	0	1	0	0	1.9090909090909092	h j k kʰ kˀ l m n̪ p pʰ pˀ s̪ s̪ˀ tʃ tʃʰ tʃˀ t̪ t̪ʰ t̪ˀ w ŋ a e i o u y æ ø ɤ̞ ɯ ɯi
kpan1246-424	Kpan	kpan1246	Atlantic-Congo	Africa	7.58343	10.1642	34	24	10	0	0	0	0	2.4	r b d dz f j k kp ⁿb ⁿd p s t ts v w x z ⁿg g gb ɣ ʃ ʒ a ã i ĩ u ũ ɔ ɔ̃ ɛ ɛ̃
koho1244-425	Koho	koho1244	Austroasiatic	Eurasia	11.6444	108.057	37	27	10	0	0	0	0	2.7	b c cʰ d h j k kʰ l m m̥ n n̥ p pʰ s t tʰ w ŋ ɓ ɗ ɟ g ɲ ɲ̊ ʔ a e i o u ɒ ɔ ɛ ɤ ɯ
komi1268-426	Komi-Zyrian	komi1268	Uralic	Eurasia	64.0527	54.946	33	26	7	0	0	0	0	3.7142857142857144	b c cç dʒ d j k l m n p r s tʃ t v z ç ɟ ɟʝ g ɲ ʃ ʎ ʒ ʝ a e̞ i o u ə ɯ
kory1246-427	Koryak	kory1246	Chukotko-Kamchatkan	Eurasia	63.8977	166.695	21	16	5	0	0	0	0	3.2	k l m n p q r tʃ t v ŋ ɣ ʎ ʔ ʝ β̞ a̟ e̞ i o̞ u
kups1238-428	Kupsabiny	kups1238	Nilotic	Africa	1.33197	34.5991	26	14	12	0	0	0	0	1.1666666666666667	c j k l m n p r s t w ŋ ɲ ɾ a e i o u ɐ̆ ɞ̞̆ ɔ ə̆ ɨ̆ ɵ̞̆ ʉ̆
kuru1302-429	Kurukh	kuru1302	Dravidian	Eurasia	24.4644	86.4657	32	21	11	0	0	0	0	1.9090909090909092	b c d h j k l m n p r̠ r s t w ɖ ɟ g ʈ ʔ χ a ã e̞ ẽ̞ i ĩ o̞ õ̞ u ũ ə
sgaw1245-430	S'gaw Karen	sgaw1245	Sino-Tibetan	Eurasia	17.9872	97.7126	36	27	9	0	0	0	0	3.0	c cʰ j k kʰ l m n p pʰ s sʰ t tʰ w x z ð̠ ŋ ɓ ɗ ɣ ɦ ɲ ʃ ʔ θ a e e̠ i o u ɔ ɛ ɨ̞
kalk1246-431	Kalkutung	kalk1246	Pama-Nyungan	Australia	-21.0	139.5	23	20	3	0	0	0	0	6.666666666666667	c j k l l̪ m n n̪ p t t̪ w ŋ ɭ ɲ ɳ ɻ ɾ ʈ ʎ a i u
juho1239-432	South-Eastern Ju	juho1239	Kxa	Africa	-19.688	20.7673	135	89	46	7	22	1	11	1.934782608695652	b bʼ d dzʼ dzˠ dzʱ dʼ dˠ dʒʼ dʒˠ dʒʱ j k ǀ͓ ǀʰ͓ ǂ ǂx ǂʰ ǂˡ͓ ǂˡ͓x ǂˡʰ͓ ǃ ǃx ǃʰ kʰ kʼ m mː mʱ m̰ n p pʰ s t ts tsʰ tsʼ tsˠ tʰ tʼ tˠ tʃ tʃʰ tʃʼ tʃˠ w x z ŋ ŋǀ͓ ŋǂ ŋǂˡ͓ ŋǃ ŋˤ ⁿǀ͓ ŋǂʱ ⁿǂˡ͓ ŋǃʱ ⁿǀˀ ⁿǀʰ͓ ⁿǀˀ͓ ⁿǂˀ ŋǂʰ ŋǂˀ ⁿǂˡˀ ⁿǂˡʰ͓ ⁿǂˡˀ͓ ŋǃˀ ŋǃˠˀ g gǀ͓ gǀ͓x gǂ gǂx gǂˡ͓ gǂˡ͓x gǃ gǃx gʼ gʱ ǀ gǂʱ ǂˡ gǃʱ ɦ ɾ ʃ ʒ a ae̞ ae̞ˤ ao̞ ao̞ˤ aː aˤ aˤː ã ãẽ̞ˤ ãõ̞ˤ ãː ãˤ ãˤː e̞ e̞i e̞u e̞ː ẽ̞ĩ ẽ̞ũ i ia iː ĩ o̞ o̞a o̞aˤ o̞e̞ o̞i o̞iˤ o̞ː o̞ˤ o̞ˤː õ̞ õ̞ã õ̞ãˤ õ̞ĩ õ̞ĩˤ õ̞ˤ u ui uː ũ ũĩ ũː ɔ̃ˤː
kuna1268-433	Kunama	kuna1268		Africa	14.5879	37.5292	26	19	7	0	0	0	0	2.7142857142857144	b dʒ d̪ f h j k l m n r s tʃ t̪ w ŋ g ɲ ʃ a e̞ i o̞ u ɪ ʊ
kuni1267-434	Kunimaipa	kuni1267	Goilalan	Papunesia	-8.09371	146.908	20	15	5	0	0	0	0	3.0	b d̪ k l m n p s t z ŋ g ɢ ɽ β̞ a e i u ʊ
bord1248-435	Border Kuna	bord1248	Chibchan	South America	7.92993	-77.1664	21	16	5	0	0	0	0	3.2	b d j k kʷ l m n p s tʃ t w g gʷ ɾ a e̞ i o̞ u
kwai1243-436	Kwaio	kwai1243	Austronesian	Papunesia	-8.93744	160.965	21	16	5	0	0	0	0	3.2	l m ⁿb n ⁿd s t w x xʷ ŋ ⁿg ⁿgʷ ŋʷ ɸ ʔ a e̞ i o̞ u
kwak1269-437	Kwak'wala	kwak1269	Wakashan	North America	50.9269	-127.308	48	42	6	0	0	0	0	7.0	b cʰ cʼ d dz dɮ h j j̰ kʷʰ kʼʷ l l̰ m m̰ n n̰ pʰ pʼ qʰ qʷʰ qʼʷ qʼ s tsʰ tsʼ tɬʰ tɬʼ tʰ tʼ w w̰ xʷ ç ɟ gʷ ɢ ɢʷ ɬ ʔ χ χʷ a i u ɔ ə ɛ
karo1304-438	Karok	karo1304		North America	41.8228	-123.315	27	16	11	0	0	0	5	1.4545454545454546	f h j k m n p s s̪ tʃ t x ɾ ʃ ʔ β̞ a aː ã eː i iː ĩ oː ɛ ʊ ʊː
lakk1238-439	Lakkia	lakk1238	Tai-Kadai	Eurasia	24.1169	110.106	55	33	22	0	3	0	10	1.5	b̰ f h j j̊ k kʰ kʲ kʲʰ kʷ kʷʰ l l̥ m m̥ n n̥ p pʰ ts tsʰ t tʰ w ŋ ŋʲ ŋʷ ŋ̥ʲ ɥ ʍ ʔ β̞ θ a aː ã ãː e i ie̞ iː ĩẽ̞ ĩː õ u uo uː ũ ũː ɔː ɔ̃ː ɛ ɛː ɛ̃ ɛ̃ː
lakk1252-440	Lak	lakk1252	Nakh-Daghestanian	Eurasia	42.1328	47.0809	69	60	9	0	0	17	3	6.666666666666667	b d h j kʰ kʷʰ kʼʷ kʷː kʼ kː l m n pʰ pʼ pː qʰ qʷʰ qʼʷ qʷː qʼ qː r s sː tʃʰ tʃʷʰ tʃʼʷ tʃʷː tʃʼ tʃː tsʰ tsʷʰ tsʼʷ tsʷː tsʼ tsː tʰ tʼ tː w x xʷ xʷː xː z ħ g ɢ ɢʷ ʃ ʃʷ ʃʷː ʃː ʒ ʔ χ χʷ χʷː χː a aː e̞ˤ i iː u uː æˤ ø̞ˤ
lele1264-441	Lelemi	lele1264	Atlantic-Congo	Africa	7.34549	0.50746	34	22	12	0	0	0	0	1.8333333333333333	b d dz f h j k kp l m n p s t ts v w ŋ ɖ g gb ɲ a ã e i ĩ o u ũ ɔ ɔ̃ ɛ ɛ̃
lugb1240-442	Lugbara	lugb1240	Central Sudanic	Africa	3.02245	30.8642	36	26	10	0	0	0	0	2.6	b b̰ dz d̪ d̪̰ f h j j̰ k kp m n p r s ts t̪ v w w̰ z g gb ɺ ʔ a e i o u ɔ ɛ ɜ ɪ ʊ
lahu1253-443	Lahu	lahu1253	Sino-Tibetan	Eurasia	21.2701	100.214	35	26	9	0	0	0	0	2.888888888888889	b dʒ d f h j k kʰ l m n p pʰ q qʰ tʃ tʃʰ t tʰ v w ŋ g ɣ ʃ ʔ a e e̞ i o u ɔ ɘ ɨ
lith1251-444	Lithuanian	lith1251	Indo-European	Eurasia	55.1429	23.9601	52	36	16	0	6	0	6	2.25	b bʲ dʒ dz d dʲ j k kʲ l lʲ m mʲ n nʲ p pʲ r rʲ s sʲ tʃ ts tsʲ t tʲ v vʲ x z g gʲ ʃ ʃʲ ʒ ʒʲ a ai au eː ie̞ iː oː ui uo uː æ æi æː ɑː ɪ ʊ
lako1247-445	Lakota	lako1247	Siouan	North America	46.3699	-103.95	36	28	8	0	0	0	0	3.5	b h j k kʰ kʼ l m n p pʰ pʼ s sʼ tʃ tʃʰ tʃʼ t tʰ tʼ w x xʼ z ɣ ʃ ʃʼ ʒ a ã i ĩ o u ũ ɛ
peve1243-446	Peve	peve1243	Afro-Asiatic	Africa	9.16111	14.441	38	30	8	0	3	0	0	3.75	b b̰ d dz d̰ f h j k l m ⁿb n ⁿd ⁿdz p s t ts v w z ŋ ⁿg g ɦ ɬ ɮ ɾ ʔ a ai ao̞ e e̞o̞ i o u
luis1253-447	Luiseno-Juaneño	luis1253	Uto-Aztecan	North America	33.3184	-116.939	26	21	5	0	0	0	0	4.2	h j k kʷ l̪ m n̪ p q qʷ r tʃ t̪ v w x xʷ ŋ ʂ ʃ ʔ a e̞ o̞ ɪ ʊ
luok1236-448	Luo (Kenya and Tanzania)	luok1236	Nilotic	Africa	-0.93296	34.4896	32	23	9	0	0	0	0	2.5555555555555554	b d dʒ dð f h j k l m n p s t tʃ tθ w ŋ g ɲ ɾ ʃ ʔ a e̞ i o̞ u æ ɒ ɪ ʊ
sout2965-449	Southern Puget Sound Salish	sout2965	Salishan	North America	47.263	-122.141	37	33	4	0	0	0	0	8.25	b d dz dʒ h j k kʷ kʼʷ kʼ p pʼ q qʷ qʼʷ qʼ s t ts tsʼ tɬʼ tʼ tʃ tʃʼ w xʷ g gʷ ɬ ʃ ʔ χ χʷ a ə ɪ ʊ
chiq1250-450	Chiquihuitlán Mazatec	chiq1250	Otomanguean	North America	18.0541	-96.6659	33	25	8	0	0	0	0	3.125	b h j k l m n ⁿdz n̠ ⁿdʒ ⁿd p r s ts tʃ t ð ⁿg ɣ ⁿɖʐ ʂ ʈʂ ʔ β a ã i ĩ o õ ɛ ɛ̃
masa1300-451	Masai	masa1300	Nilotic	Africa	-3.1419	36.4573	28	19	9	0	0	0	0	2.111111111111111	j k l m n p r̥ s t tʃ w ŋ ɓ ɗ ɠ ɲ ɾ ʃ ʄ a e i o u ɔ ɛ ɪ ʊ
cent2144-452	Central Mazahua	cent2144	Otomanguean	North America	19.7357	-100.018	60	45	15	0	0	0	0	3.0	r h j j̊ j̰ k kʰ kʷ kʷʰ kʼʷ kʼ l m m̥ m̰ n n̥ p pʰ s sʰ sʼ tʃ tʃʰ tʃʼ ts tsʰ tsʼ t tʰ tʼ w w̰ z ɓ ɗ g gʷ ɲ ɲ̊ ɲ̰ ʃ ʍ ʒ ʔ a ã e ẽ i ĩ o õ u ũ ɐ ɔ ə ə̃ ɛ
maxa1247-453	Maxakalí	maxa1247	Nuclear-Macro-Je	South America	-16.9402	-40.7891	20	10	10	0	0	0	0	1.0	h k ⁿb ⁿd ⁿdʒ p t tʃ ⁿg ʔ a ã e̞ ẽ̞ i ĩ o̞ õ̞ ɯ ɯ̃
came1252-454	Donga Mambila	came1252	Atlantic-Congo	Africa	6.43829	11.41953	25	19	6	0	0	0	0	3.1666666666666665	b bv d dʒ f h j k l m n n̠ p s t tʃ w ŋ g a e i o u ɔ
mbum1254-455	Mbum	mbum1254	Atlantic-Congo	Africa	7.5789	14.2722	38	30	8	0	0	0	0	3.75	b b̪ d f h j k kp l m ⁿb n ⁿd ⁿʒ p r s t v w ŋ ⁿgb ⁿg ɓ ɗ g gb ⁿv ɲ ʒ a ã e̞ i ĩ o̞ u ũ
maba1277-456	Maba (Chad)	maba1277	Maban	Africa	12.89147	20.8889	29	22	7	0	0	0	0	3.142857142857143	b d f j k l m n r s t w z ŋ ɖ ɟ g ɲ ʃ ʈ ʒ ʔ a e i o u ɔ ɛ
dizi1235-457	Dizin	dizi1235	Dizoid	Africa	6.1405	35.5763	30	24	6	0	0	0	0	4.0	r b dʒ d f h j k kʼ l m n s tʃ tʃʼ tsʼ t tʼ w z g ʃ ʒ β a e̞ i o̞ u ɐ
mbaa1245-458	Mba	mbaa1245	Atlantic-Congo	Africa	1.06885	25.143	31	24	7	0	0	0	0	3.4285714285714284	b dʒ d f j k kp l ⁿb n̠ ⁿdʒ ⁿd n p tʃ t v w ⁿgb ⁿg ɓ ɗ g gb a e i o u ɔ ɛ
mogh1245-459	Mogholi	mogh1245	Mongolic-Khitan	Eurasia	34.2504	62.2802	29	24	5	0	0	0	0	4.8	b dʒ d f h k l m n p q r s tʃ t w x z ŋ g ʀ ʃ ʔ ʝ a i u ɔ ɛ
east2328-460	Eastern Mari	east2328	Uralic	Eurasia	55.8307	48.405	33	25	8	0	0	0	0	3.125	f j k l m n p pʲ s sʲ tʃ ts t tʲ x z ð ŋ ɣ ɲ ɾ ʃ ʎ ʒ β i o̞ u y ø ə ɛ ʌ
sanm1295-461	San Miguel El Grande Mixtec	sanm1295	Otomanguean	North America	17.046881	-97.622482	25	15	10	0	0	0	0	1.5	h k kʷ l p r s tʃ t ð ŋ ʃ ʒ ʔ β a ã e̞ ẽ̞ i ĩ o̞ õ̞ u ũ
tuuu1240-462	Tu	tuuu1240	Mongolic-Khitan	Eurasia	36.8177	102.117	28	23	5	0	0	0	0	4.6	b dʒ dz d h k l m n p q r s tʃʰ t v x z ŋ g ɢ ʃ ʝ a e̞ i o̞ u
manc1252-463	Manchu	manc1252	Tungusic	Eurasia	47.3122	126.557	25	18	7	0	0	0	0	2.5714285714285716	b dʒ d̪ f j k l̪ m n̪ p r s̪ tʃ t̪ x ŋ g ʃ a e̞ i o̞ u ø ɵ̞
morb1239-464	Mor (Bomberai Peninsula)	morb1239		Papunesia	-2.85747	132.845	19	14	5	0	0	0	0	2.8	r h j k m ⁿb ⁿd n s t w ⁿg ʔ β a e̞ i o̞ u
moro1285-465	Moro	moro1285	Heibanic	Africa	10.9194	30.2138	29	22	7	0	0	0	0	3.142857142857143	b dʒ d̪ f j k l m n p r s tʃ t̪ w ð ŋ ɖ g ɲ ɺ̠ ʈ a e i o u ɘ ɤ
mull1237-466	Mullukmulluk	mull1237	Northern Daly	Australia	-13.427	130.664	19	14	5	0	0	0	0	2.8	j k l l̠ m n n̠ p r t t̠ w ŋ ɹ a i ø̠ ɛ ʊ
maun1240-467	Mawng	maun1240	Iwaidjan Proper	Australia	-11.66	133.376	22	17	5	0	0	0	0	3.4	j k l m n n̠ p r t t̠ ŋ ɣ ɭ ɳ ɹ ɽ ʈ a i u ɔ ɛ
dadi1250-468	Dadibi	dadi1250	Teberan	Papunesia	-6.65765	144.511	23	13	10	0	0	0	0	1.3	h j k kʰ m n p pʰ s t tʰ w ɾ a ã e̞ ẽ̞ i ĩ o̞ õ̞ u ũ
west2600-469	West Makian	west2600	North Halmahera	Papunesia	0.45332	127.63	23	17	6	0	0	0	0	2.8333333333333335	b dʒ d̪ h k l m n̠ n̪ p r s tʃ t̪ ŋ g ɸ a e̞ i o̞ u ə
marg1265-470	Marghi Central	marg1265	Afro-Asiatic	Africa	10.93854	13.0521	34	30	4	0	0	0	0	7.5	b d dz dʒ f j k l m n p r s t ts tʃ v w x z ŋ ɓ ɗ g ɣ ɬ ɮ ʃ ʒ ʔ a o̞ ɛ ɨ
mara1404-471	Maranao	mara1404	Austronesian	Papunesia	7.79414	124.175	17	13	4	0	0	0	0	3.25	b d h k l m n p t ŋ g ɾ ʔ a i o̞ ɨ
toto1305-472	Totontepec Mixe	toto1305	Mixe-Zoque	North America	17.2157	-96.0179	23	14	9	0	0	0	0	1.5555555555555556	d̪ j k m n p s̪ tθ̠ t̪ v g ʃ ʒ ʔ a e̞ i o u æ ɔ ə ɨ
murs1242-473	Mursi	murs1242	Surmic	Africa	5.69801	36.0971	26	21	5	0	0	0	0	4.2	b c d h j k l m n p r t w ŋ ɓ ɗ ɟ g ɲ ʃ θ a e̞ i o̞ u
murr1258-474	Murriny Patha	murr1258	Southern Daly	Australia	-14.74852	129.70152	25	21	4	0	0	0	0	5.25	b d d̪ j k l m n n̪ p r t t̪ w ŋ ɖ g ɭ ɳ ɽ ʈ a i ɛ ʊ
kala1377-475	Kala Lagaw Ya	kala1377	Pama-Nyungan	Australia	-10.6748	142.196	24	18	6	0	0	0	0	3.0	b d d̪ j k l m n n̠ p r s t t̪ w z ŋ g a e̞ i o̞ u ə
nucl1310-476	Burmese	nucl1310	Sino-Tibetan	Eurasia	20.7926	93.9665	46	33	13	0	2	0	0	2.5384615384615383	b dʒ d h j k kʰ l l̥ m m̥ n n̥ p pʰ s sʰ tʃ tʃʰ t tʰ w z ð ŋ ŋ̊ g ɲ ɲ̊ ʃ ʍ ʔ θ a e ẽ̞ĩ i o õ̞ũ u æ̃ ɔ ə ɛ ɪ̃ ʊ̃
pira1253-477	Pirahã	pira1253		South America	-6.77713	-61.8167	11	8	3	0	0	0	0	2.6666666666666665	b h k p s t g ʔ a i o̞
nucl1240-478	Mumuye	nucl1240	Atlantic-Congo	Africa	8.90347	11.71545	34	23	11	0	0	0	0	2.090909090909091	b d f h j k kp l m n p r s t v w z ŋʷ ɓ g gb ʃ ʒ a ã i ĩ o̞ õ̞ u ũ ɔ ɛ ɛ̃
movi1243-479	Movima	movi1243		South America	-13.8115	-65.6348	23	18	5	0	0	0	0	3.6	h j k kʷ l m n p t tʃ w ɓ ɗ ɬ ɾ ʂ ʔ β a e̞ i o̞ u
sout2994-480	Southern Nambikuára	sout2994	Nambiquaran	South America	-14.3707	-59.5187	43	25	18	0	0	0	0	1.3888888888888888	h hˀ j k kʰ kʷ kʷʰ kʼʷ kʼ n n̰ p pʰ pʼ s sˀ t tʼ tʰ w ɓ ɗ ɺ̠ ɺ̠̰ ʔ a ã a̰ ã̰ e̞ ẽ̞ e̞̰ ẽ̞̰ i ĩ ḭ ḭ̃ o̞ õ̞ o̞̰ õ̞̰ u ṵ
minn1241-481	Min Nan Chinese	minn1241	Sino-Tibetan	Eurasia	24.5	118.17	25	19	6	0	0	0	0	3.1666666666666665	b dʒ dz d h k kʰ m n p pʰ s ts tsʰ t tʰ ŋ g ʔ a e i o u ɔ
nama1264-482	Nama (Namibia)	nama1264	Khoe-Kwadi	Africa	-25.0747	17.9767	40	31	9	2	0	0	0	3.4444444444444446	h k kxʰ ǀ͓ ǀˠʰ͓ ǁ͓ ǁʰ͓ ǃ ǃxʰ ǃ̠ ǃ̠xʰ m n̪ p r s t̪ ts̪ʰ x ŋǀ͓ ŋǁ͓ ŋǃ ŋǃ̠ ⁿǀʰ͓ ⁿǀˀ͓ ⁿǁʰ͓ ⁿǁˀ͓ ŋǃˀ ŋǃ̠ʰ ⁿǃ̠ˀ ʔ a ã e i ĩ o u ũ ə
naas1242-483	Naasioi	naas1242	South Bougainville	Papunesia	-6.46022	155.632	13	8	5	0	0	0	0	1.6	b k m n p t ɾ ʔ a i o u ɛ
nava1243-484	Navajo	nava1243	Athabaskan-Eyak-Tlingit	North America	36.33	-109.38	47	31	16	0	0	0	8	1.9375	dɮ h j k kʰ kʷʰ kʼ l m n p s tʃ tʃʰ tʃʼ ts tsʰ tsʼ t tɬ tɬʼ tʰ tʼ w x z ɣ ɬ ʃ ʒ ʔ a aː ã ãː iː ĩː oː õː ɔ ɔ̃ ɛ ɛː ɛ̃ ɛ̃ː ɪ ɪ̃
naxi1245-485	Naxi	naxi1245	Sino-Tibetan	Eurasia	27.5	100.0	49	38	11	0	0	0	0	3.4545454545454546	b d dʑ dz̪ f k kʰ l m ⁿb n ⁿd ⁿdʑ ⁿdz̪ p pʰ s̪ t tɕ tɕʰ tʰ ts̪ ts̪ʰ v z̪ ⁿg ɕ ɖʐ g ɣ ɲ ⁿɖʐ ʂ ʈʂ ʈʂʰ ʐ ʑ χ i o̞ u y æ ɑ ə ə˞ ɛ ɯ ɿ
nort2957-486	Northern Puebla Nahuatl	nort2957	Uto-Aztecan	North America	20.1356	-97.9814	20	16	4	0	0	0	0	4.0	j k kʷ l m n̪ p s ts tɬ tʃ t̪ ɸ̞ ʃ ʔ β̞ a i o̞ ɛ
ndut1239-487	Ndut	ndut1239	Atlantic-Congo	Africa	14.925	-16.9811	34	27	7	0	0	0	0	3.857142857142857	r b c d f h j k l m ⁿb ⁿd n p s t w ŋ ⁿg ɓ ɗ ɟ g ɣ ɲ ⁿɟ ʔ a e i u ɔ ɘ ɛ
nepa1254-488	Nepali	nepa1254	Indo-European	Eurasia	28.0	85.0	39	27	12	0	0	0	0	2.25	b bʱ dz dzʱ d̪ d̪ʱ h k kʰ l m n̪ p pʰ s ts tsʰ t̪ t̪ʰ ŋ ɖ ɖʱ g gʱ ɾ ʈ ʈʰ a ã e̞ ẽ̞ i ĩ o̞ õ̞ u ũ ə ə̃
newa1246-489	Kathmandu Valley Newari	newa1246	Sino-Tibetan	Eurasia	27.67	85.326	32	24	8	0	0	0	0	3.0	b bʱ dz dzʱ d dʱ k kʰ l lʱ m mʱ n nʱ p pʰ s ts tsʰ t tʰ g gʱ ɦ a̟ ã̟ i ĩ u ũ ɤ̞ ɤ̞̃
nezp1238-490	Nez Perce	nezp1238	Sahaptian	North America	46.3073	-116.408	30	25	5	0	0	0	0	5.0	h j j̰ k kʼ l l̰ m m̰ n̪ n̪̰ p pʼ qʼ qχ s t tʼ t̪ t̪ʼ w w̰ x ɬ ʔ a æ ɔ ɪ ɯ
ngiz1242-491	Ngizim	ngiz1242	Afro-Asiatic	Africa	12.1051	11.0178	40	34	6	0	0	0	3	5.666666666666667	b b̰ c d d̰ f h j k kʷ l m ⁿb n ⁿd p r s t v w z ⁿg ⁿgʷ ɟ ɟ̰ g gʷ ɬ ɮ ɲ ɾ ʃ ʒ a aː e̞ː i o̞ː u
noon1243-492	Noone	noon1243	Atlantic-Congo	Africa	6.37256	10.5707	33	19	14	0	0	0	7	1.3571428571428572	b dʒ d f j k l m n s tʃ t w ŋ g ɰ ɲ ʃ ʔ a aː e̞ː i iː o oː uː ɔ ɔː ə ɛ ɛː ʊ
niel1243-493	Niellim	niel1243	Atlantic-Congo	Africa	9.70362	17.81346	36	23	13	0	0	0	0	1.7692307692307692	b d dʒ h j k l m ⁿb n ⁿd ⁿdʒ p s t tʃ w ⁿg ɓ ɗ g ɾ ʔ a ã e̞ ẽ̞ i ĩ o̞ õ̞ u ũ ə ə̃ ɨ
ngan1291-494	Nganasan	ngan1291	Uralic	Eurasia	73.1354	86.2106	29	20	9	0	0	0	0	2.2222222222222223	b c d j k kx l m n p r s t ð ŋ ɟ g ɲ ʎ ʔ a a̟ e̞ i o̞ u y ə ɨ
nucl1633-495	Nimboran	nucl1633	Nimboranic	Papunesia	-2.5803	140.179	18	12	6	0	0	0	0	2.0	r̪ b d̪ h k m n̪ p s̪ t̪ ŋ g a e̞ i ɤ̞ ɨ ɯ
gily1242-496	Amur Nivkh	gily1242	Nivkh	Eurasia	52.59	140.681	35	28	7	0	1	0	0	4.0	h j k kʰ l m n n̠ p pʰ q qʰ r r̥ s t tʰ t̠ t̠ʰ w x z ŋ ɣ ɸ ʁ β χ a u ɔ ɛ ɪ ɪe̞ ʌ
aona1235-497	Ao Naga	aona1235	Sino-Tibetan	Eurasia	26.3241	94.3824	20	14	6	0	0	0	0	2.3333333333333335	cç j k l m n p s t w z ŋ ɭ͓ ʔ a e i o u ɯ
nort2952-498	Northeast Maidu	nort2952	Maiduan	North America	40.4102	-120.645	23	17	6	0	0	0	0	2.8333333333333335	cʰ cʼ h j kʰ kʼ l m n pʰ pʼ s tʰ tʼ w ɓ ɗ a e̞ i o̞ u ɨ
norw1259-499	Norwegian Bokmål	norw1259	Indo-European	Eurasia	61.112	8.886	46	22	24	0	5	0	9	0.9166666666666666	b d̪ f h j kʰ l m n̪ pʰ s t̪ʰ ç ŋ ɖ g ɭ ɳ ɾ ʃ ʈʰ ʋ a ai eː e̞ iː o̞ː uː yː æ æi æʉ æː øy ø̞ː œ ɑː ɒ̝ ɔy ə ɪ ʉ ʉː ʊ ʏ
nuuc1236-500	Nuu-chah-nulth	nuuc1236	Wakashan	North America	49.67	-126.67	42	37	5	0	0	0	0	7.4	h j j̰ k kʷ kʼʷ kʼ m m̰ n n̰ p pʼ q qʷ qʼʷ qʼ s ts tsʼ tʃ tʃʼ t̪ tɬ tɬʼ t̪ʼ w w̰ x xʷ ħ ɬ ʃ ʔ ʔˤ χ χʷ a i o ɔ ɛ
nara1262-501	Nara	nara1262		Africa	15.3251	37.499	22	17	5	0	0	0	0	3.4	b dʒ d f h j k l m n r s t w ŋ g ʃ a e̞ i o̞ u
nung1283-502	Nung (Viet Nam)	nung1283	Tai-Kadai	Eurasia	20.8965	104.286	32	21	11	0	1	0	0	1.9090909090909092	b̰ d̰ f h j k kʰ l m n p pʰ tʃ tʃʰ t tʰ w ŋ ɬ ʃ ʔ aɯ ă a̟ e̞ i o̞ u ɪ̆ ɯ ɯ̞̆ ʊ̆
nung1290-503	Wubuy	nung1290	Gunwinyguan	Australia	-14.2623	135.753	23	19	4	0	0	0	0	4.75	j k l l̪ m n n̠ n̪ p r t t̠ t̪ w ŋ ɭ ɳ ɻ ʈ a ɐ ɪ ɯ̞
amas1236-504	Ama (Sudan)	amas1236	Nyimang	Africa	12.0993	29.4332	25	18	7	0	0	0	0	2.5714285714285716	r b d d̪ j k l m n s t t̪ w ŋ ɟ g ɲ ɺ a e i o u ɔ ɛ
nyan1313-505	Nyang'i	nyan1313	Kuliak	Africa	3.4997	33.73651	25	18	7	0	0	0	0	2.5714285714285716	c j k l m n p r s̪ t w ŋ ɓ ɗ ɠ ɬ ɲ ʄ a e i o u ɔ ɛ
ocai1244-506	Ocaina	ocai1244	Huitotoan	South America	-2.159	-72.1422	34	25	9	0	0	3	0	2.7777777777777777	b dz dʲ h k m mː n nː p s t ts tʲ tʃ x g ɲ ɲː ɸ ɾ ʃ ʒ ʔ β a ã i ĩ o õ ɛ ɯ ɯ̃
ogbi1239-507	Ogbia	ogbi1239	Atlantic-Congo	Africa	4.75352	6.34034	34	24	10	0	0	0	0	2.4	r b d f j k kp l m n nʷ p s t v w z ɓ ɗ g gb ɣ ɲ β a e i o u ɐ ɔ ɛ ɪ ʊ
east2542-508	Eastern Ojibwa	east2542	Algic	North America	45.0112	-79.7503	27	16	11	0	0	0	8	1.4545454545454546	k l m n p s t tʃ ʃ ʔ ʰk ʰp ʰs ʰt ʰtʃ ʰʃ a aː ãː iː ĩː oː õː ɛː ɛ̃ː ɪ ʊ
toho1245-509	Tohono O'odham	toho1245	Uto-Aztecan	North America	31.7973	-111.995	24	19	5	0	0	0	0	3.8	b dʒ d̪ h j k m n̠ n̪ p s̪ tʃ t̪ w ɖ g ɺ̠ ʂ ʔ a i u ɔ ɨ
ormu1247-510	Ormuri	ormu1247	Indo-European	Eurasia	32.6819	69.3444	31	25	6	0	0	0	0	4.166666666666667	b dʒ dz d f h j k l m n p r s tʃ ts t x z g ʁ ʃ ʒ β̞ χ a̟ e o ɔ ɪ ʊ
paco1243-511	Pacoh	paco1243	Austroasiatic	Eurasia	16.3353	107.094	33	18	15	0	3	0	0	1.2	b̰ d̠̰ d̰ h j k l m n n̠ p r t t̠ ŋ ʃ ʔ β̞ a e i iə o u uə æ ɒ ɔ ɘ ɛ ɜ ɨ ɨə
pech1241-512	Pech	pech1241	Chibchan	North America	15.8033	-85.558	28	18	10	0	0	0	0	1.8	b h j k kʷ l m n p r s t w w̃ ɲ ɾ ʃ ʔ a ã e̞ ẽ̞ i ĩ o̞ õ̞ u ũ
paez1247-513	Páez	paez1247		South America	2.61516	-76.31254	37	29	8	0	0	0	0	3.625	h j k m ⁿb n ⁿd ⁿdʲ ⁿz ⁿʒ p s t ts tʲ tʃ w ç ⁿg ɣ ɲ ɸʲ ɺ ɺʲ ɾ ʃ ʃʲ ʔ β a ã i ĩ u ũ ɛ ɛ̃
enap1235-514	Panare	enap1235	Cariban	South America	6.95035	-65.8483	25	12	13	0	0	0	0	0.9230769230769231	r j k m n p t̠ tʃ ts t w ʔ a ã e̞ ẽ̞ i ĩ o̞ õ̞ u ũ ə̃ ɤ̞ ɯ
bouy1240-515	Bouyei	bouy1240	Tai-Kadai	Eurasia	24.8484	106.187	34	23	11	0	3	0	1	2.090909090909091	r b c cʰ d f h j k kʰ l m n p pʰ s t tʰ w ŋ ɲ ʔ θ a aː i ia u ua ɔ ə ɛ ɯ ɯa
west2369-516	Western Farsi	west2369	Indo-European	Eurasia	32.9	53.3	30	24	6	0	0	0	0	4.0	b dʒ d̪ f h j kʰ l m n̪ pʰ r s tʃ t̪ʰ v w z g ɢ ʃ ʒ ʔ χ a̟ e i o u ɑ
plat1254-517	Plateau Malagasy	plat1254	Austronesian	Africa	-19.5907	47.1211	25	21	4	0	0	0	0	5.25	b d̪ dz̪ f h j k l m n p r s t̪ ts̪ v w z ɖɻ̝ g ʈʳ a e̞ i o
sout2982-518	Southeastern Pomo	sout2982	Pomoan	North America	38.9354	-122.599	32	27	5	0	0	0	0	5.4	b d f h j k kʼ l m n p pʼ q qʼ s t ts tsʼ tʼ t̪ t̪ʼ w x ɾ ʃ ʔ χ a ɔ ɛ ɪ ʊ
pohn1238-519	Pohnpeian	pohn1238	Austronesian	Papunesia	6.87212	158.223	20	14	6	0	0	0	0	2.3333333333333335	j k l̪ m mʷ n̪ p pʷ r s t̪ w ŋ ʈʂ a o u ɔ ɛ ɪ
para1301-520	South Wa	para1301	Austroasiatic	Eurasia	22.8658	99.375	77	34	43	0	25	0	0	0.7906976744186046	b bʱ dʒ dʒʱ d dʱ f k kʰ l̠ l̠ʱ l lʱ m mʱ n̠ n̠ʱ n nʱ p pʰ tʃ tʃʰ t tʰ v vʱ ŋ ŋʱ g gʱ ʃ ʒ ʒʱ a ai au aɯ a̤ a̤i̤ a̤ṳ a̤ɯ̤ e e̤ i ia io̞ iu iɛ i̤ i̤a̤ i̤ṳ i̤ɛ̤ o o̞i o̤ o̤i̤ u ua ui ṳ ṳa̤ ṳi̤ ɔ ɔi ɔ̤ ɔ̤i̤ ɛ ɛ̤ ɤ ɤi ɤ̤ ɤ̤i̤ ɯ ɯi ɯ̤ ɯ̤i̤
cent1973-521	Central Pashto	cent1973	Indo-European	Eurasia	31.9153	69.4529	38	31	7	0	0	0	3	4.428571428571429	b dʒ d̪ dz̪ f h j k l̠ m n̪ p r s tʃ t̪ ts̪ w z ɖ g ɳ ɺ̠ ʁ ʂ ʃ ʈ ʐ ʒ β χ a e̞ː i o̞ː u ɑː ə
paiw1248-522	Paiwan	paiw1248	Austronesian	Papunesia	22.3271	120.806	26	22	4	0	0	0	0	5.5	b d dʲ j k lʲ m n p q r t tʲ v ŋ ɖ g ɺ̠ ʂ ʈʂ ʐ ʔ a i u ə
pwon1235-523	Pwo Northern Karen	pwon1235	Sino-Tibetan	Eurasia	18.016	98.2709	37	25	12	0	3	0	0	2.0833333333333335	fʷ h k kʰ l m n p pʰ r s̪ t tʰ tʃ tʃʰ vʷ x ŋ ɓ ɗ ɣ ɲ ʃ ʔ ʝ a ai au aɨ a̟ e i o u ɔ ɘ ɨ
sout2991-524	South Bolivian Quechua	sout2991	Quechuan	South America	-20.9201	-66.3331	36	31	5	0	0	0	0	6.2	h j k kʰ kʼ l m n p pʰ pʼ q qʰ qʼ r s tʃ tʃʰ tʃʼ t tʰ tʼ w ð ɣ ɲ ɸ ɾ ʃ ʎ β a ɔ ɛ ɪ ʊ
quil1240-525	Quileute	quil1240	Chimakuan	North America	47.9106	-124.603	37	33	4	0	0	0	0	8.25	b d h j k kʷ kʼʷ kʼ l p pʼ q qʷ qʼʷ qʼ s t ts tsʼ tɬ tɬʼ tʼ tʃ tʃʼ w x xʷ g ɬ ʃ ʔ χ χʷ a i u æ
resi1247-526	Resígaro	resi1247	Arawakan	South America	-1.169535	-71.60524	35	30	5	0	0	0	0	6.0	b d dz dʲ dʒ h j k kʰ m m̥ n n̥ p pʰ s t ts tsʰ tʰ tʲ tʃ tʃʰ w g ɲ ɲ̊ ɸ ʃ ʔ a i ɔ ɛ ɯ
roma1327-527	Romanian	roma1327	Indo-European	Eurasia	46.3913	24.2256	32	22	10	0	3	0	0	2.2	b dʒ d̪ f h j k l̪ m n̪ p r̪ s̪ tʃ t̪ ts̪ v w z̪ g ʃ ʒ a e e̞a e̞o̞ i o o̞a u ə ɨ
roto1249-528	Rotokas	roto1249	North Bougainville	Papunesia	-5.94339	155.154	11	6	5	0	0	0	0	1.2	k p t g β ɾ a e̞ i o̞ u
waim1251-529	Waima	waim1251	Austronesian	Papunesia	-8.67145	146.544	14	9	5	0	0	0	0	1.8	b h k m n̪ p t̪ ɾ̪ ʔ a e̞ i o̞ u
russ1263-530	Russian	russ1263	Indo-European	Eurasia	59.0	50.0	38	33	5	0	0	0	0	6.6	b bʲ d̪ d̪ʲ f fʲ j k kʲ l̪ʲ l̪ˠ m mʲ n̪ n̪ʲ p pʲ r̪ r̪ʲ s̪ s̪ʲ ts tʃ t̪ t̪ʲ v vʲ x z̪ z̪ʲ g ʃˠ ʒˠ a i u ɔ ɛ
rutu1240-531	Rutul	rutu1240	Nakh-Daghestanian	Eurasia	41.6187	47.3244	64	59	5	0	0	0	0	11.8	b dʒ dʒʷ dz d h j kʰ kʷʰ kʼʷ kʼ l m n pʰ pʼ qʰ qʷʰ qʼʷ qʷˤʰ qʼʷˤ qʼ qˤʰ qʼˤ r s sʷ tʃʰ tʃʼʷ tʃʼ tsʰ tsʷʰ tsʼʷ tsʼ tʰ tʼ x xʷ z ħ g gʷ ɢ ɢʷ ɢʷˤ ɢˤ ɣ ʁ ʁʷ ʁʷˤ ʁˤ ʃ ʔ ʔˤ β̞ χ χʷ χʷˤ χˤ a e̞ i u ɨ
sand1273-532	Sandawe	sand1273		Africa	-5.26918	35.4808	54	47	7	0	0	0	0	6.714285714285714	b d dz dɮ f h j k ǀ͓ ǀʰ͓ ǀˀ͓ ǁ͓ ǁʰ͓ ǁˀ͓ ǃ̠ ǃ̠ʰ ǃ̠ˀ kʰ kʼ l m n p pʰ pʼ s t ts tsʰ tsʼ tɬ tɬʼ tʰ tʼ w x ŋ ŋǀ͓ ŋǁ͓ ŋǃ̠ g gǀ͓ gǁ͓ gǃ̠ ɬ ɾ ʔ a e̞ i i̥ o̞ u u̥
sang1328-533	Sango	sang1328	Atlantic-Congo	Africa	6.78584	20.1702	37	26	11	0	0	0	0	2.3636363636363638	b d f h j k kp l m ⁿb ⁿʒ ⁿd n p t v w ⁿgb ⁿg ɓ g gb ⁿv ɺ̠ ʃ ʒ a ã e i o u ũ ɔ ɔ̃ ɛ ɛ̃
yaku1245-534	Sakha	yaku1245	Turkic	Eurasia	61.6974	133.98	34	22	12	0	4	0	0	1.8333333333333333	b dʒ d f j j̃ k lˠ m n̪ p r s̪ tʃ t v z̪ ŋ g ɲ ʃ ʒ a i ie̞ u uo y yø̞ œ ɔ ɛ ɯ ɯa
seda1262-535	Sedang	seda1262	Austroasiatic	Eurasia	14.7793	108.027	55	41	14	0	0	0	0	2.9285714285714284	b̰ d̰ h j j̊ j̰ k kʰ l l̥ l̰ m ⁿb m̥ m̰ ⁿdʒ ⁿd n n̥ n̰ p pʰ r r̥ r̰ s tʃ t tʰ w w̰ ŋ ⁿg ŋ̊ ŋ̰ ɲ ɲ̊ ɲ̰ ʃ ʍ ʔ a a̰ e ḛ i ḭ o o̰ u ṵ ɔ ɔ̰ ɛ ɛ̰
sene1264-536	Seneca	sene1264	Iroquoian	North America	42.56	-77.53	19	11	8	0	0	0	0	1.375	b dz h j k m n s t w ʔ a e i o̞ u æ ɔ̃ ɛ̃
ceba1235-537	Senari	ceba1235	Atlantic-Congo	Africa	9.50768	-6.15264	36	24	12	0	0	0	0	2.0	b d dʲ f j k kp l m n p s sʲ t tʲ v w z zʲ ŋ g gb ɲ ʔ a ã e i ĩ o u ũ ɔ ɔ̃ ɛ ɛ̃
selk1253-538	Selkup	selk1253	Uralic	Eurasia	59.9409	82.3004	34	18	16	0	0	0	9	1.125	r j k l lʲ m n p q s t tʲ w ŋ ɣ ɲ ʃ ʈʂ a aː a̟ a̟ː e̞ e̞ː iː o̞ o̞ː u uː y yː ø̞ː ɤ̞ ɤ̞ː
koyr1242-539	Koyraboro Senni Songhai	koyr1242	Songhay	Africa	16.9634	-0.55187	24	15	9	0	0	0	0	1.6666666666666667	r b d f j k l m n s t w z ŋ g a ã e̞ ẽ̞ i o õ u ũ
nucl1632-540	Sentani	nucl1632	Sentanic	Papunesia	-2.6013	140.512	17	10	7	0	0	0	0	1.4285714285714286	d f h j k m n p t w a̟ e i u ɔ ə ɛ
xiri1243-541	Xiriâna	xiri1243	Arawakan	South America	0.83868	-63.452927	25	13	12	0	0	0	0	1.0833333333333333	h j k m n p s tʃ t tʰ w ɾ ʃ a ã e̞ ẽ̞ i ĩ o̞ õ̞ ə ə̃ ɯ ɯ̃
tach1250-542	Tachelhit	tach1250	Afro-Asiatic	Africa	29.7854	-7.77879	31	28	3	0	0	0	0	9.333333333333334	b d dˤ f h j k kˤ l lˤ m n r rˤ s sˤ t tˤ w x z zˤ ħ g ɣ ʃ ʒ ʕ i u æ
shus1248-543	Shuswap	shus1248	Salishan	North America	50.8734	-119.667	44	37	7	0	0	0	0	5.285714285714286	h j j̰ k kʷ kʷˀ kˀ l l̰ m m̰ n n̰ p pˀ q qʷ qʷˀ qˀ tʃ tʃˀ t tɬˀ w w̰ x xʷ ɬ ɰ ɰ̰ ʁ̞ ʁ̞ʷ ʁ̞̰ʷ ʃ ʔ χ χʷ a i u ɔ ə ɛ ʌ
shas1239-544	Shasta	shas1239	Shastan	North America	41.7587	-122.738	21	17	4	0	0	0	0	4.25	r h j k kʼ m n p pʼ s tʃ tʃʼ t tʼ w x ʔ a e̞ i u
sinh1246-545	Sinhala	sinh1246	Indo-European	Eurasia	8.0	81.0	36	22	14	0	0	0	7	1.5714285714285714	b cç d̪ j k l m n p s t̪ ŋ ɖ ɟʝ g ɦ ɲ ɸ ɾ ʃ ʈ ʋ aː a̟ eː e̞ iː oː o̞ uː æː ɑ ə əː ɪ ʊ
epen1239-546	Epena	epen1239	Chocoan	South America	4.25877	-77.3566	31	17	14	0	0	0	0	1.2142857142857142	b d h j k kʰ p pʰ r s t tʰ tʃ g ɾ ʔ β̞ a ã e ẽ i ĩ o õ u ũ ɨ ɨ̃ ɨ̞ ɨ̞̃
sout2985-547	Southern Sierra Miwok	sout2985	Miwok-Costanoan	North America	38.2363	-120.507	21	15	6	0	0	0	0	2.5	h j k l m n p s̪ t tʃ t̪ w ŋ ʃ ʔ a i u ɔ ɛ ɨ
sali1298-548	Sáliba	sali1298	Jodi-Saliban	South America	5.30115	-69.3843	32	22	10	0	0	0	0	2.2	b d dʒ h k kʷ l m n n̠ p r s t tʃ x g gʷ ɸ ɾ ʔ β a ã e̞ ẽ̞ i ĩ o̞ õ̞ u ũ
sout2674-549	South Saami	sout2674	Uralic	Eurasia	62.8801	13.7006	45	39	6	0	0	0	0	6.5	b bʲ dʒ dz dzʲ d dʲ f fʲ h hʲ j k kʲ l lʲ m mʲ n nʲ p pʲ r rʲ s sʲ tʃ ts tsʲ t tʲ ŋ ŋʲ g gʲ ɲ ʃ β̞ β̞ʲ a e̞ i o̞ u ɨ
sion1247-550	Siona-Tetete	sion1247	Tucanoan	South America	0.31733	-76.0237	30	18	12	0	0	0	0	1.5	h hʷ j k kʷ kʷˀ kˀ m n p pˀ s sˀ tʃ t̪ w ʈˀ ʔ a ã e̞ ẽ̞ i ĩ o̞ õ̞ u ũ ɨ ɨ̃
saba1265-551	Sa'ban	saba1265	Austronesian	Papunesia	3.58723	115.664	26	19	7	0	0	0	0	2.7142857142857144	b d dʒ h j k l m n p s t tʃ w ŋ g ɲ ɾ ʔ a i u ɔ ə ɛ ɨ
soma1255-552	Somali	soma1255	Afro-Asiatic	Africa	4.778704	45.152856	32	22	10	0	0	0	0	2.2	b d̪ f h j kʰ l m n s tʃ t̪ʰ w x ħ ɖ̰ g ɢ ɾ ʃ ʔ ʕ a e̞ i æ ɔ ɛ ɪ ɵ̞ ʉ̞ ʊ
stan1288-553	Spanish	stan1288	Indo-European	Eurasia	40.4414	-1.11788	25	20	5	0	0	0	0	4.0	f j k l̪ m n̪ p r s̪ tʃ t̪ w x ð ɣ ɲ ʎ β θ ɾ a e̞ i o̞ u
sele1250-554	Selepet	sele1250	Nuclear Trans New Guinea	Papunesia	-6.03532	147.234	21	15	6	0	0	0	0	2.5	h j kʰ l m ⁿb n̪ ⁿd̪ pʰ s t̪ʰ w ŋ ⁿg ɾ a i o u ɑ̝ ɛ
soqo1240-555	Soqotri	soqo1240	Afro-Asiatic	Eurasia	12.4892	53.9168	34	28	6	0	0	0	0	4.666666666666667	r r̰ b d f h j k kʼ l l̰ m n s sʼ t tʼ w z ħ g ɬ ɮ ʃ ʃʼ ʒ ʔ ʕ a e̞ i o̞ u ə
siri1273-556	Sirionó	siri1273	Tupian	South America	-15.5298	-63.9688	28	16	12	0	0	0	0	1.3333333333333333	b h j k kʲ ⁿb ⁿdʒ ⁿd p s tʃ t w ⁿg ɾ ʃ a ã e ẽ i iˠ ĩ ĩˠ o õ u ũ
natu1246-557	Natügu	natu1246	Austronesian	Papunesia	-10.6771	165.835	47	30	17	0	1	0	0	1.7647058823529411	j k kʰ kʲ kʷ l m ⁿb ⁿbʷ mʷ ⁿd ⁿdʷ n nʲ nʷ p pʰ pʲ pʷ s t tʰ tʲ tʷ v w ŋ ⁿg ⁿgʷ ŋʷ a ã e̞ e̞i i ĩ o̞ õ̞ u ũ æ æ̃ ɑ ɑ̃ ə ə̃ ʉ
suen1241-558	Suena	suen1241	Nuclear Trans New Guinea	Papunesia	-7.76339	147.534	18	13	5	0	0	0	0	2.6	b dz d j k m n p s t w g ɾ a i u ɔ ɛ
savo1255-559	Savosavo	savo1255		Papunesia	-9.12853	159.814	22	17	5	0	0	0	0	3.4	k l m ⁿb n ⁿd p s t z ŋ ⁿg ɣ ɲ ⁿɟ ɾ β a e̞ i o̞ u
suii1243-560	Sui	suii1243	Tai-Kadai	Eurasia	24.0488	106.563	54	47	7	0	0	0	0	6.714285714285714	b b̰ d d̰ h j j̰ k kʰ kʷ kʷʰ l m m̥ m̰ n n̥ n̰ p pʰ q qʰ s ts tsʰ tʃ tʃʰ t tʰ w w̰ x z ŋ ŋʷ ŋ̊ ŋ̥ʷ ŋ̰ ɣ ɣ̰ ɲ ɲ̊ ɲ̰ ɸ ʁ ʃ ʔ a e̞ i o̞ u ə ɜ
east2347-561	Eastern Tamang	east2347	Sino-Tibetan	Eurasia	27.3239	87.0832	29	19	10	0	0	0	0	1.9	h j k kʰ l̪ m n̪ p pʰ r̪ s̪ tθ̠ tθ̠ʰ t̪ ts̪ ts̪ʰ t̪ʰ w ŋ a a̤ e e̤ i i̤ o o̤ u ṳ
atay1247-562	Atayal	atay1247	Austronesian	Papunesia	24.5209	121.388	26	19	7	0	0	0	2	2.7142857142857144	j k l m n p q s ts t w x ħ ŋ ɣ ɾ ʒ ʔ β a i iː u uː ɔ ɛ
aika1237-563	Aikanã	aika1237		South America	-12.6695	-60.5353	32	22	10	0	0	0	0	2.2	b dʒ dz d f h j k m n p s tʃ ts t g ɲ ɺ̠ ʃ ʒ ʔ β̞ a ã e̞ i o̞ u ũ y ɨ ɪ̃
gaam1241-564	Gaam	gaam1241	Eastern Jebel	Africa	11.4674	33.9797	33	24	9	0	0	0	0	2.6666666666666665	b c d̪ f h j k l m n p r s t̪ w z ð ŋ ɟ g ɲ ʃ ʔ θ a e i o u ɔ ə ɛ ɪ
ticu1245-565	Ticuna	ticu1245	Ticuna-Yuri	South America	-3.66289	-69.8723	29	18	11	0	0	0	0	1.6363636363636365	b dʒ d f k kʷ m n p s tʃ t w ŋ g ɲ ɾ ʔ a ã e̞ i ĩ o̞ õ̞ u ũ ɨ ɨ̃
tulu1258-566	Tulu	tulu1258	Dravidian	Eurasia	12.8114	75.2651	37	24	13	0	0	0	6	1.8461538461538463	b dʒ d̪ j k l̪ m n̪ p r s tʃ t̪ x ŋ ɖ g ɭ ɲ ɳ ʂ ʃ ʈ ʋ aː e eː i iː o oː u uː ɐ ɛ ɛː ɯ
tehu1242-567	Tehuelche	tehu1242	Chonan	South America	-47.5796	-68.3235	35	28	7	0	0	0	0	4.0	b d̪ h j k kʼ l̪ l̪̥ m n̪ p pʼ q r̪ s̪ tɕ tɕʼ tʃ tʃʼ t̪ ts̪ ts̪ʼ t̪ʼ w x ɕ ʃ ʔ a e̞ i o̞ u ə ɨ
telu1262-568	Telugu	telu1262	Dravidian	Eurasia	16.4529	78.7024	43	32	11	0	0	1	6	2.909090909090909	b bʱ dz d̪ dʱ f j k kʰ l m n p pʰ s ts tɕ t̪ ɕ ɖ ɖʱ g gʱ ɦ ɭ ɳ ɾ ʂ ʈ ʈʰ β̞ β̞ː aː e eː i iː o oː u uː æː ɜ
timn1235-569	Timne	timn1235	Atlantic-Congo	Africa	8.90294	-12.3331	25	17	8	0	0	0	0	2.125	b d f h j k l m n p r s t t̪ w gb ʔ a e i o u ɑ ɔ ɛ
nucl1339-570	Temein	nucl1339	Temeinic	Africa	11.8275	29.3898	25	18	7	0	0	0	0	2.5714285714285716	b d d̪ j k l m n̪ p r s t t̪ w ŋ ɟ g ɲ a e i o u ɔ ɛ
tetu1245-571	Tetum	tetu1245	Austronesian	Papunesia	-9.11217	125.528	19	14	5	0	0	0	0	2.8	b d f h k l m n p r s t w ʔ a e̞ i o̞ u
tiga1245-572	Tigak	tiga1245	Austronesian	Papunesia	-2.70951	150.893	17	12	5	0	0	0	0	2.4	b k m n p r s t ŋ g ɮ β i u ɐ ɔ ɛ
taga1270-573	Tagalog	taga1270	Austronesian	Papunesia	14.06	121.747	23	18	5	0	0	0	0	3.6	b d̪ f h j k l m n̪ p s tʃ t̪ w ŋ g ɾ ʔ a e̞ o̞ ɪ ʊ
thai1261-574	Thai	thai1261	Tai-Kadai	Eurasia	14.192	100.671	30	21	9	0	0	0	0	2.3333333333333335	b d̪ f h j k kʰ l m n̪ p pʰ s̪ t̪ ts̪ ts̪ʰ t̪ʰ w ŋ ɾ ʔ a e i o u æ ɔ ɘ ɨ
taha1241-575	Tahaggart Tamahaq	taha1241	Afro-Asiatic	Africa	22.5908	8.73169	37	25	12	0	0	0	5	2.0833333333333335	b d̪ d̪ˤ f h j k l̪ m n̪ q r̪ s̪ t̪ t̪ˤ w z̪ z̪ˤ ɟ g ɲ ʁ ʃ ʒ χ e̞ e̞ː i iː o̞ o̞ː u uː æ æː ɐ ə
tigr1270-576	Tigre	tigr1270	Afro-Asiatic	Africa	17.3494	38.2233	33	26	7	0	0	0	5	3.7142857142857144	b dʒ d̪ f h j k kʼ l m n̪ r s tsʼ tʃ tʃʼ t̪ t̪ʼ w z ħ g ʃ ʒ ʔ ʕ a̟ː e̞ː iː o̞ː uː ə ɜ
tiwi1244-577	Tiwi	tiwi1244		Australia	-11.6308	130.949	26	22	4	0	0	0	0	5.5	j k l m ⁿp n ⁿt n̪ ⁿt̪ p t t̪ w ŋ ⁿk ɣ ɭ ɳ ⁿʈ ɻ ɾ ʈ a i u ɔ
tiru1241-578	Tiruray	tiru1241	Austronesian	Papunesia	6.77321	124.127	22	16	6	0	0	0	0	2.6666666666666665	b d h j k l m n r s t w ŋ g ɸ ʔ a i u ɔ ɛ ɨ
tlin1245-579	Tlingit	tlin1245	Athabaskan-Eyak-Tlingit	North America	59.4447	-135.29	48	43	5	0	0	0	0	8.6	b dʒ dz d dɮ j k kʷ kʼʷ kʼ n p pʼ q qʷ qʼʷ qʼ s sʼ tʃ tʃʼ ts tsʼ t tɬ tɬʼ tʼ w x xʷ xʼʷ xʼ g gʷ ɢ ɢʷ ɬ ɬʼ ʔ χ χʷ χʼʷ χʼ a e̞ i o̞ u
talo1250-580	Tasomi-Tata	talo1250	Narrow Talodi	Africa	10.6453	30.4815	21	14	7	0	0	0	0	2.0	r b d d̪ j l m n s w ŋ ɟ g ɲ a i u ɔ ɛ ɪ ʊ
tama1331-581	Tama (Chad)	tama1331	Tamaic	Africa	14.332	21.9951	30	21	9	0	0	0	0	2.3333333333333335	b d̪ f h j k l m n r s t̪ w ħ ŋ ɓ ɗ ɟ g ɲ ɾ a e i o u ɔ ɛ ɪ ʊ
tamn1235-582	Tamnim Citak	tamn1235	Nuclear Trans New Guinea	Papunesia	-5.57962	139.233	17	11	6	0	0	0	0	1.8333333333333333	f k m n p s t tʃ w ɾ ʝ a e i u ɔ ə
taca1256-583	Tacana	taca1256	Pano-Tacanan	South America	-13.39249	-68.04056	22	18	4	0	0	0	0	4.5	b d j k m n p t tʃ w ð ɾ ɾ͓ ʂ ʃ ʈʂ ʔ β a e̞ i o̞
lena1238-584	Lenakel	lena1238	Austronesian	Papunesia	-19.4763	169.261	21	15	6	0	0	0	0	2.5	f h k l m mʷ n p pʷ s t w ŋ ɰ ɾ a e̞ i o̞ u ə
papa1238-585	Papantla Totonac	papa1238	Totonacan	North America	20.5671	-97.2554	22	16	6	0	0	0	3	2.6666666666666665	h j k l m n p q s t ts tʃ w ɬ ʃ ʔ aː i iː u uː æ
tamp1252-586	Tampulma	tamp1252	Atlantic-Congo	Africa	9.75577	-1.35467	33	24	9	0	0	0	0	2.6666666666666665	b c d f h j k kp l m n p r s t v w z ŋ ŋm ɟ g gb ɲ a e i o u ɔ ɛ ɪ ʊ
acat1239-587	Acatepec Me'phaa	acat1239	Otomanguean	North America	17.1034	-99.0602	30	20	10	0	0	0	0	2.0	b dʒ d̪ h j k l m n̪ p r s ts tʃ t̪ w g ɸ ʃ ʔ a ã e̞ ẽ̞ i ĩ o̞ õ̞ u ũ
trum1247-588	Trumai	trum1247		South America	-11.8119	-53.5717	24	18	6	0	0	1	0	3.0	f h j k l̪ m̥ n̪ p r̪ s t ts t̪ w xː ɗ̥ ʃ ʔ a i o u ɘ ɛ
toar1246-589	Toaripi	toar1246	Eleman	Papunesia	-8.07231	146.206	14	8	6	0	0	0	0	1.3333333333333333	f h k l m p s t a e̞ i o̞ u ɔ
tonk1249-590	Tonkawa	tonk1249		North America	30.25	-96.75	25	15	10	0	0	0	5	1.5	h j k kʷ l̪ m n̪ p s ts t w x xʷ ʔ a aː eː i iː oː u uː ɔ ɛ
lish1246-591	Lishán Didán	lish1246	Afro-Asiatic	Eurasia	36.23	44.37	40	24	16	0	0	0	6	1.5	b dʒ d̪ f h j k l m n̪ p q s tʃ t̪ z g ɾ ʁ ʃ ʒ ʔ β χ a aː aˤ aˤː e̞ e̞ˤ i iː iˤ iˤː o̞ o̞ˤ u uː uˤ uˤː
nucl1649-592	Southern-Coastal Tsimshian	nucl1649	Tsimshian	North America	52.59103	-128.544545	41	38	3	0	0	0	0	12.666666666666666	b d dz h j j̰ k kʲ kʼʲ kʷ kʼʷ kʼ l l̰ m m̰ n n̰ p pʼ q qʼ s t ts tsʼ tʼ w w̰ g gʲ gʷ ɢ ɬ ɰ ɰ̰ ʔ χ a i u
tsou1248-593	Tsou	tsou1248	Austronesian	Papunesia	23.216	120.787	21	15	6	0	0	0	0	2.5	b̰ f h k l̰ m n p t v ŋ ʂ ʈʂ ʐ ʔ a e̞ i o̞ u ʉ
pure1242-594	Purepecha	pure1242	Tarascan	North America	19.2467	-101.631	39	33	6	0	0	0	0	5.5	b d f h j k kʰ kʷ kʷʰ l m n p pʰ r s t ts tsʰ tʰ tʃ tʃʰ w x ŋ g ɭ ɲ ɸ ɹ ʂ ʃ ʔ a i o u ɛ ɨ˞
tera1251-595	Tera	tera1251	Afro-Asiatic	Africa	11.0376	11.80953	48	42	6	0	0	0	0	7.0	b cç d f j k kʷ l m ⁿb n ⁿd p pʲ r s t v vʲ w x xʷ z ŋ ⁿg ⁿgʷ ɓ ɓʲ ɕ ɗ ɟʝ ɠ g gʷ ɣ ɣʷ ɬ ɮ ɲ ⁿɟʝ ʄ ʑ a e̞ i o̞ u ɨ
tuni1252-596	Tunica	tuni1252		North America	30.9888	-92.5403	24	17	7	0	0	0	0	2.4285714285714284	b d h j kʰ l m n pʰ r s tʰ tʃʰ w g ʃ ʔ a e i o u ɔ ɛ
nucl1301-597	Turkish	nucl1301	Turkic	Eurasia	39.8667	32.8667	33	25	8	0	0	0	0	3.125	b c dʒ d̪ f h j k l m n̪ p r s tʃ t̪ v z ɟ g ɣ ʃ ʎ ʒ ʔ a o̞ œ ɛ ɪ ɯ̞ ʊ ʏ
picu1248-598	Picuris Northern Tiwa	picu1248	Kiowa-Tanoan	North America	37.083011	-105.267144	38	26	12	0	0	0	0	2.1666666666666665	r b d h j k kʷ kʼʷ kʼ l m n p pʰ pʼ s tʃ t tʰ tʼ w x xʷ g ɬ ʔ e ẽ i ĩ o õ u ũ ɑ ɑ̃ ə ə̃
tuvi1240-599	Tuvinian	tuvi1240	Turkic	Eurasia	51.7	94.36667	29	20	9	0	0	0	0	2.2222222222222223	b dʒ d̪ dz̪ f j k l̪ m n̪ p r s̪ tʃ t̪ ts̪ ŋ g ʃ β e i o u y ø ɑ ɛ ɤ
tzel1254-600	Tzeltal	tzel1254	Mayan	North America	16.6384	-92.2786	28	22	6	0	0	0	0	3.6666666666666665	b d̪ h kʰ kʼ l̪ m n̪ p pʼ s s̪ ts tsʼ t̪ ts̪ ts̪ʼ t̪ʼ w g ɾ ʔ a e̞ o̞ y ɪ ʊ
ngar1284-601	Ngarinyin	ngar1284	Worrorran	Australia	-16.4006	126.433	24	18	6	0	0	0	0	3.0	c j k l m n p r t w ŋ ɭ ɲ ɳ ɻ ɾ ʈ ʎ a ɔ ɛ ɨ ɪ ʊ
mund1320-602	Mundari	mund1320	Austroasiatic	Eurasia	23.03	85.85	37	32	5	0	0	0	0	6.4	b bʱ dʒ dʒʱ d̪ d̪ʱ h j k kʰ l̪ m n̪ p pʰ r s tʃ tʃʰ t̪ t̪ʰ w ŋ ɖ ɖʱ g gʱ ɭ ɳ ʈ ʈʰ ʔ a e̞ o̞ ɪ ʊ
nort2690-603	Northern Uzbek	nort2690	Turkic	Eurasia	40.886	69.211	30	24	6	0	0	0	0	4.0	b dʒ d̪ f h j k l m n̪ p q s tʃ t̪ z ŋ g ɸ ɾ ʁ ʃ β̞ˠ χ e i æ ɒ ɵ ʉ
vani1248-604	Vanimo	vani1248	Sko	Papunesia	-2.68501	141.258	28	12	16	0	0	0	0	0.75	b d d̠ l m n n̠ p s t ɦ β a ã e ẽ i ĩ o õ u ũ ɔ ɔ̃ ɛ ɛ̃ ɵ ɵ̃
viet1252-605	Vietnamese	viet1252	Austroasiatic	Eurasia	20.681188	105.774071	36	22	14	0	3	0	0	1.5714285714285714	c f h j k l̪ m n̪ p s t̪ t̪ʰ v w x z ŋ ɓ ɗ ɣ ɲ ʔ a e iʌ o uʌ ɐ ɔ ɛ ɤ ɪ ɯʌ ɯ̞ ʊ ʌ
mbab1239-606	Mbabaram	mbab1239	Pama-Nyungan	Australia	-20.1389	143.438	24	20	4	0	0	0	0	5.0	b d̠ d j l m ⁿb n̠ ⁿd̠ ⁿd n r w ŋ ⁿg ⁿgʷ ŋʷ g gʷ ɽ a i u ɯ
wapp1239-607	Wappo	wapp1239	Yuki-Wappo	North America	38.25	-122.5	35	30	5	0	0	0	0	6.0	r r̰ b d̪ f h j j̰ k kʼ l l̰ m m̰ n n̰ p pʼ s t tʼ tʃ tʃʼ t̪ ts tsʼ t̪ʼ g ʃ ʔ a e̞ i o̞ u
wapi1253-608	Wapishana	wapi1253	Arawakan	South America	2.58744	-59.8021	25	17	8	0	0	0	0	2.125	b̰ d d̰ h kʰ m n̠ pʰ s tʰ tʃʰ w g ɾ ʃ ʐ̰ ʔ a ã i ĩ u ũ ɨ ɨ̃
wara1303-609	Warao	wara1303		South America	7.50851	-59.3528	21	11	10	0	0	0	0	1.1	b h j k kʷ m n s t ɺ β̞ a ã i ĩ o õ u ũ ɛ ɛ̃
nucl1620-610	Wahgi	nucl1620	Nuclear Trans New Guinea	Papunesia	-6.11629	144.665	23	17	6	0	0	0	0	2.8333333333333335	j k m ⁿb n ⁿd n̪ ⁿdz̪ p t ts̪ w ŋ ⁿg ɬ ɬ̪ ʟ̥͓ a e̞ i u ɔ ɪ
wich1260-611	Wichita	wich1260	Caddoan	North America	35.0665	-98.1831	29	21	8	0	0	3	4	2.625	r̰ k kʰ kʷ kʷʰ kʼ n nː s sʼ sː ts tsʼ tsː t tʰ w w̰ ɦ ʈʂʰ ʔ eː i oː u ɒ ɒː ɛ ɛː
wikm1247-612	Wik-Mungkan	wikm1247	Pama-Nyungan	Australia	-13.98051	141.81611	18	13	5	0	0	0	0	2.6	j k l m n n̠ p r t t̠ w ŋ ʔ a i ɔ ɛ ʊ
wint1259-613	Wintu	wint1259	Wintuan	North America	39.7176	-122.445	35	30	5	0	0	0	0	6.0	b d dʒ f h j k kʼ m n p pʰ pʼ q qʼ s t tsʼ tɬ tɬʼ tʰ tʼ tʃ tʃʼ w x ɹ ʔ θ χ a e̞ i o̞ u
wiyo1248-614	Wiyot	wiyo1248	Algic	North America	39.2492	-122.952	29	24	5	0	0	0	0	4.8	j k kʰ kʷ kʷʰ l m n p pʰ s tʃ tʃʰ ts tsʰ t tʰ w ɬ ɰ ɹ ɻ ʃ ʔ a e̞ i o̞ u
want1252-615	Wantoat	want1252	Nuclear Trans New Guinea	Papunesia	-6.15216	146.513	21	14	7	0	0	0	0	2.0	k kʷ m ⁿb ⁿd ⁿz n p s t ŋ ⁿg ⁿgʷ ŋʷ a e̞ i o̞ u æ ə
usan1239-616	Usan	usan1239	Nuclear Trans New Guinea	Papunesia	-4.84265	145.362	20	14	6	0	0	0	0	2.3333333333333335	b d j m ⁿb n ⁿd p s t w ⁿg g ʔ a i u ɔ ɛ ʌ
kama1365-617	Kamang	kama1365	Timor-Alor-Pantar	Papunesia	-8.26897	124.792	28	16	12	0	0	0	0	1.3333333333333333	b d f h j k l m n p r s t ŋ g ʋ a a̟ e̞̠ o̞̟ ɑ ɒ ɔ ɛ ɨ ɪ ʉ ʊ
nucl1347-618	Wolof	nucl1347	Atlantic-Congo	Africa	15.2534	-15.383	40	26	14	0	0	5	7	1.8571428571428572	b bː c d f j k l̪ l̪ː m mː n nː p qχ s t w ŋ ɟ ɟː g ɲ ɾ ʔ χ a aː e eː i iː oː u uː ø ɔ ɔː ɛ ɛː
wari1266-619	Waris	wari1266	Border	Papunesia	-3.139	140.931	22	13	9	0	0	0	0	1.4444444444444444	r j k l ⁿb ⁿd p s t w x ⁿg β a e i o̞ u æ ɒ ə ɛ
wara1290-620	Warray	wara1290	Gunwinyguan	Australia	-13.0941	131.236	21	16	5	0	0	4	0	3.2	c cː j k kː l m n p pː r t tː w ŋ ɲ a̟ i u ɔ ɛ
bert1248-621	Berta	bert1248		Africa	10.6474	34.7042	29	24	5	0	0	0	0	4.8	b dʒ d h j kʼ l m ⁿb ⁿd n pʼ r s sʼ w ŋ ⁿg ɗ g ɸ ʃ ʔ θ a e̞ i o̞ u
wuch1236-622	Wu Chinese	wuch1236	Sino-Tibetan	Eurasia	29.8621	119.682	34	25	9	0	0	0	0	2.7777777777777777	f h j k kʱ kʰ l m n p pʱ pʰ s ts tsʱ tsʰ t tʱ tʰ v w z ŋ ɦ ʔ a i ĩ o̞ õ̞ u y æ̃ ə
wang1291-623	Ngiyambaa	wang1291	Pama-Nyungan	Australia	-30.6481	146.18	18	15	3	0	0	0	0	5.0	j k l m n n̠ n̪ p t t̠ t̪ w ŋ ɻ ɾ a i u
kawa1283-624	Kawaiisu	kawa1283	Uto-Aztecan	North America	36.0538	-118.679	31	25	6	0	0	0	0	4.166666666666667	b d h hʷ j k kʷ l m n p s tʃ ts t v w z ŋ ɣ ɣʷ ɾ ʃ ʒ ʔ a e̞ i o̞ u ɯ
komo1258-625	Komo (Sudan-Ethiopia)	komo1258	Koman	Africa	8.94162	34.0939	31	23	8	0	0	0	0	2.875	b d h j k kʼ l m n p pʼ r s sʼ t tʼ w ŋ ɓ ɗ g ʃ ʔ a e i o u ɔ ə ɛ
libe1247-626	Liberia Kpelle	libe1247	Mande	Africa	6.92048	-9.96128	34	22	12	0	0	0	0	1.8333333333333333	b d f j k kp kʷ l m n p s t v z ŋ ɓ g gb gʷ ɣ ɾ a ã i ĩ u ũ ɔ ɔ̃ ɛ ɛ̃ ɪ ʊ
katc1249-627	Katcha-Kadugli-Miri	katc1249	Kadugli-Krongo	Africa	10.8423	29.4914	27	22	5	0	0	0	0	4.4	b c d d̪ f j k l m n p r s t t̪ w ŋ ɓ ɗ g ɲ ʄ a e̞ i o̞ u
yagu1244-628	Yagua	yagu1244	Peba-Yagua	South America	-3.42913	-72.2186	23	11	12	0	0	0	0	0.9166666666666666	h j k m n p t ts tʃ w ɾ a ã e ẽ i ĩ ɔ ɔ̃ ɨ ɨ̃ ʊ ʊ̃
yaqu1251-629	Yaqui	yaqu1251	Uto-Aztecan	North America	29.9446	-110.681	22	17	5	0	0	0	0	3.4	b d f h j k l m n p s t tʃ w g ɾ ʔ a e̞ i o̞ u
yucu1253-630	Yucuna	yucu1253	Arawakan	South America	-0.76075	-71.0033	21	16	5	0	0	0	0	3.2	h j k m n n̠ p pʰ s t tʰ tʃ w ɺ ɾ ʔ a i o̞ u ɛ
taro1263-631	Tarok	taro1263	Atlantic-Congo	Africa	8.98356	10.0288	32	26	6	0	0	0	0	4.333333333333333	r b dʒ d f h j k kp l m n p s tʃ t v w z ŋ ɓ ɗ g gb ʃ ʒ a e̞ i o̞ u ə
yaga1260-632	Yagaria	yaga1260	Nuclear Trans New Guinea	Papunesia	-6.32432	145.388	23	14	9	0	4	0	0	1.5555555555555556	b d h j k m n p s t v g ʔ ʟ a ae̞ ao̞ i o̞ o̞u u ɛ ɛi
yidi1250-633	Yidiñ	yidi1250	Pama-Nyungan	Australia	-17.1332	145.876	16	13	3	0	0	0	0	4.333333333333333	b d j l m n r w ŋ ɟ g ɲ ɻ a i u
nort2745-634	Northern Yukaghir	nort2745	Yukaghir	Eurasia	70.498	157.853	26	20	6	0	0	0	0	3.3333333333333335	b d j k l lˠ m n p q rˠ s tʃ t w ŋ ɟ g ɲ ʁ a̟ o̞ u ɛ ɪ ɵ̞
yana1271-635	Yana	yana1271		North America	39.2769	-121.608	30	22	8	0	3	0	0	2.75	r b dʒ d̪ h j kʰ kʼ l m n̪ pʰ pʼ s̪ tʃʰ tʃʼ t̪ʰ t̪ʼ w x g ʔ a ai au e̞ i o̞ u ui
yoru1245-636	Yoruba	yoru1245	Atlantic-Congo	Africa	7.15345	3.67225	29	18	11	0	0	0	0	1.6363636363636365	b d dʒ f h j k kp l m n s t w g gb ɾ ʃ a e i ĩ o u ũ ɔ ɔ̃ ɛ ɛ̃
yare1248-637	Yareba	yare1248	Yareban	Papunesia	-9.50651	148.605	18	13	5	0	0	0	0	2.6	b d dz j k m n s t w g ɸ ɾ a e̞ i o̞ u
nene1249-638	Tundra Nenets	nene1249	Uralic	Eurasia	66.1775	71.0234	35	27	8	0	0	0	0	3.375	b bʲ j k l lʲ m mʲ n nʲ p pʲ r rʲ s sʲ ts tsʲ t tʲ x ð ðʲ ŋ ʔ ʔ̬ β a ă e̞ i ĭ o̞ u ŭ
yess1239-639	Yessan-Mayo	yess1239	Sepik	Papunesia	-4.15721	142.574	20	16	4	0	0	0	0	4.0	h j kʰ kʷ l m ⁿb n ⁿd r s tʰ w ⁿg ⁿgʷ ɸ a ɒ ɜ ɨ
yuca1254-640	Yucatec Maya	yuca1254	Mayan	North America	18.7757	-88.9567	30	20	10	0	0	0	0	2.0	b̰ h j k kʼ l m n p pʼ s ts tsʼ tʃ tʃʼ t tʼ w ʃ ʔ a a̰ e̞ i ḭ o̞ u ṵ ɔ̰ ɛ̰
yuch1247-641	Yuchi	yuch1247		North America	35.75	-86.75	46	38	8	0	0	0	0	4.75	b dʒ dz d h j j̰ k kʰ kʼ l l̰ n n̰ p pʰ pʼ s sʼ tʃ tʃʰ tʃʼ ts tsʰ tsʼ t tʰ tʼ w w̰ g ɬ ɬʼ ɸ ɸʼ ʃ ʃʼ ʔ a e ẽ̞ i o õ̞ u æ
yuec1235-642	Yue Chinese	yuec1235	Sino-Tibetan	Eurasia	23.0	113.0	25	20	5	0	0	0	0	4.0	f h j k kʰ kʷ kʷʰ l l̥ m n p pʰ tʃ tʃʰ t tʰ w ŋ ʃ a i u æ ɔ
yulu1243-643	Yulu-Binga	yulu1243	Central Sudanic	Africa	8.04124	23.6166	42	35	7	0	0	0	0	5.0	b c d̪ dz̪ f h j k kp l̪ m ⁿb n̪ ⁿd̪ ⁿz̪ p r̪ s̪ t̪ v w z̪ ŋ ⁿgb ⁿg ɓ ɗ ɟ g gb ⁿv ɲ ⁿɟ ʄ ʔ a e i o u ɔ ɛ
nucl1454-644	Yawa	nucl1454	Yawa-Saweru	Papunesia	-1.77196	136.263	19	14	5	0	0	0	0	2.8	b d dʒ j k m n nʲ p s sʲ t w ɾ a e̞ i o̞ u
zand1248-645	Zande	zand1248	Atlantic-Congo	Africa	4.62047	26.7157	35	19	16	0	0	0	0	1.1875	b d f h j k kp m n p s t v w z g gb ɲ ɺ a ã i ĩ u ũ ɔ ɔ̃ ɛ ɛ̃ ɜ ɜ̃ ɪ ɪ̃ ʊ ʊ̃
copa1236-646	Copainalá Zoque	copa1236	Mixe-Zoque	North America	17.2157	-93.3183	22	16	6	0	0	0	0	2.6666666666666665	b d h j k l m n p s t ts w ŋ g ʔ a i o̞ u ɛ ɤ̞̟̃
zulu1248-647	Zulu	zulu1248	Atlantic-Congo	Africa	-28.9	30.2	37	32	5	0	0	0	0	6.4	dʒ f h j k ǁ͓ ǃ̠ ǃ͓ kʟ̥ʼ kʰ kʼ l m n n̠ p pʰ pʼ r s t tʰ tʼ tʃʼ v w z ɓ ɦ ɬ ɮ ʃ a i u ɔ ɛ
zuni1245-648	Zuni	zuni1245		North America	35.0056	-108.782	25	20	5	0	0	0	0	4.0	h j kʰ kʷʰ kʼʷ kʼ l m n p s tʃʰ tʃʼ tsʰ tsʼ t w ɬ ʃ ʔ a i u ɔ ɛ
