ID	Name	Glottocode	Family	Macroarea	Latitude	Longitude	Sounds	Consonants	Vowels	Clusters	Diphthongs	Consonantal	Vocalic	Ratio	Phonemes
cavi1250-854	Cavineña	cavi1250	Pano-Tacanan	South America	-13.3544	-66.6277	24	20	4	0	0	20	4	5.0	a b c ɕ d e h i j ɟ k kʷ ʎ m n ɲ p ɹ s t tɕ ts ʊ w
cham1318-855	Chamicuro	cham1318	Arawakan	South America	-5.1149	-75.6778	29	19	10	0	0	19	10	1.9	a aː ç e eː h i iː j k l ʎ m n ɲ o oː p r s ʂ ʃ t ts tʃ u uː w ʔ
chep1245-857	Chepang	chep1245	Sino-Tibetan	Eurasia	27.7206	84.9017	24	18	6	0	0	18	6	3.0	a b d̪ dz e ə g h i j k l̪ m n̪ ŋ o p r s t̪ ts u w ʔ
leal1235-859	Lealao Chinantec	leal1235	Otomanguean	North America	17.3162	-95.9265	35	28	7	0	0	28	7	4.0	a b d dʲ e f g gʲ gʷ h hʲ i ɨ j k kʲ kʷ l lʲ m n nʲ ɲ ŋ o ɵ p r s ʃ t tʲ u v ʔ
chra1242-861	Chrau	chra1242	Austroasiatic	Eurasia	10.8021	107.293	33	20	11	0	2	20	13	1.8181818181818181	aː ɐ b ɓ c d ɗ eː əː ɛ ɛː g h i iː iaː j ɟ k l m n ɲ ŋ oː ɔː p ɽ s t̪ uː uaː w
barb1263-862	Barbareño	barb1263	Chumashan	North America	34.462	-119.699	40	34	6	0	0	34	6	5.666666666666667	a e h i ɨ j j̰ k k̰ kʰ l l̰ m m̰ n n̰ o p p̰ pʰ q q̰ qʰ s sʰ ʃ t t̰ tʰ ts ts̰ tsʰ tʃ tʃ̰ tʃʰ u w w̰ x ʔ
coma1245-864	Comanche	coma1245	Uto-Aztecan	North America	34.5701	-98.424	18	12	6	0	0	12	6	2.0	ɑ e h i ɨ j k kʷ m n o p s t̪ ts̪ u w ʔ
cupe1243-865	Cupeño	cupe1243	Uto-Aztecan	North America	33.3148	-116.515	38	27	11	0	0	27	11	2.4545454545454546	a aː ð ə ɛ ɛː f ɣ h i iː j k kʷ l ʎ m n ɲ ŋ o oː p q qʷ ɾ s ʂ ʃ t tʃ u uː w x xʷ ʔ β
cuvo1236-866	Cuvok	cuvo1236	Afro-Asiatic	Africa	10.6448	14.0006	29	27	2	0	0	27	2	13.5	a b ɓ d dz ɗ ə f g h j k l ɬ ɮ m ⁿb n ⁿd ⁿdz ⁿg p ɾ s t ts v w z
deny1238-867	Denya	deny1238	Atlantic-Congo	Africa	5.97237	9.39989	30	22	8	0	0	22	8	2.75	a b d̪ dʒ e ɛ f g gb h i k kp l m n̪ ŋ ŋm o ɔ p ɾ s ʃ t̪ tʃ u v w y
nepa1253-868	Nepali Kurux	nepa1253	Dravidian	Eurasia	26.72057	86.00255	39	34	5	0	0	34	5	6.8	a b bʱ d̪ d̪ʱ dʒ dʒʱ ɗ ɗʱ e g gʱ h i j jʱ k kʰ l m mʱ n nʱ o p pʰ ɾ ɾʱ s t̪ t̪ʰ tʃ tʃʰ ʈ ʈʰ u w wʱ ʔ
mufi1238-869	Mufian	mufi1238	Nuclear Torricelli	Papunesia	-3.57932	142.955	22	17	5	0	0	17	5	3.4	a b d e ə f g gʷ h i k kʷ l m n p s t u w ʔ ʔʷ
usar1243-870	Usarufa	usar1243	Nuclear Trans New Guinea	Papunesia	-6.38898	145.633	22	17	5	0	0	17	5	3.4	ɑ e i j k m mː n nː o p r t u w ʔ ˀj ˀm ˀn ˀp ˀt ˀw
binu1245-872	Binumarien	binu1245	Nuclear Trans New Guinea	Papunesia	-6.22068	146.102	16	11	5	0	0	11	5	2.2	ɑ eː i j k m n oː p ɸ r s t u w ʔ
eggo1239-873	Eggon	eggo1239	Atlantic-Congo	Africa	8.71442	8.45686	42	30	7	0	0	30	7	4.285714285714286	⁵¹ ⁴ ³ ² ¹⁵ a b ɓ d dz e ɛ f g gb h i j k kp l m n ɲ ŋ o ɔ p ɽ ɾ s ʂ ʃ t ts u v w x z ʒ β
esim1238-876	Esimbi	esim1238	Atlantic-Congo	Africa	6.50094	9.86936	37	28	8	1	0	29	8	3.5	a b d dz e ə ɛ f g gb h i j k kp l m ⁿb n ⁿd ⁿdz ɲ ŋ ⁿg ⁿgb o ɔ p r s t ts u v w z β
fang1246-877	Fang (Equatorial Guinea)	fang1246	Atlantic-Congo	Africa	1.723965	11.61454	41	24	16	1	0	25	16	1.5	a aː b c d e eː ə əː ɛ ɛː f ɪ ɪː j ɟ k kp l m ⁿb ⁿv n ⁿd ɲ ⁿɟ ŋ ⁿg ⁿgb o oː ɔ ɔː s t u uː v w z ʔ
furu1242-878	Furu	furu1242	Central Sudanic	Africa	4.485	20.6448	41	31	7	0	3	31	10	4.428571428571429	a b ɓ d ɗ e ɛ f g gb gʲ h i j k kʲ kp l m ⁿb n ⁿd ⁿz ɲ ŋ ⁿg ŋʲ o ɔ p ɾ s t u ua ue ui v w z ʒ
kara1476-879	Karadjeri	kara1476	Pama-Nyungan	Australia	-18.6771	122.334	20	17	3	0	0	17	3	5.666666666666667	ɑ b d dʲ ɗ g i j l lʲ ɭ m n nʲ ɳ ŋ r rː u w
goli1247-881	Golin	goli1247	Nuclear Trans New Guinea	Papunesia	-6.2249	144.8505	23	13	10	0	0	13	10	1.3	ɑ ɑː b d ɛ ɛː g ɪ ɪː j k l m n ɔ ɔː p r s t ʊ ʊː w
guaj1255-882	Guajajára	guaj1255	Tupian	South America	-4.69461	-45.7081	21	14	7	0	0	14	7	2.0	a e ə h i ɨ k kʷ m n ŋ ŋʷ ɔ p ɾ t̪ ts u w z ʔ
gunw1252-883	Bininj Kun-Wok	gunw1252	Gunwinyguan	Australia	-12.3398	133.358	24	19	5	0	0	19	5	3.8	a b d̪ dʲ ɖ e g i j l ɭ ʎ m n ɲ ɳ ŋ o r ɻ ɽ u w ʔ
haya1250-884	Haya	haya1250	Atlantic-Congo	Africa	-1.70878	31.4846	29	19	10	0	0	19	10	1.9	a aː b d dʒ e eː f g h i iː j k l m n ɲ o oː p s ʃ t tʃ u uː w z
huic1243-886	Huichol	huic1243	Uto-Aztecan	North America	21.954	-104.062	25	15	10	0	0	15	10	1.5	a aː e eː h i iː ɨ ɨː j k kʷ l m n p ɽ t̪ ts tʃ u uː w ʐ ʔ
huay1240-887	Huaylas Ancash Quechua	huay1240	Quechuan	South America	-9.38709	-77.7768	30	20	10	0	0	20	10	2.0	a aː b d e eː f g h i iː j k l lʲ m n o oː p q r s ʃ t ts tʃ u uː w
sanm1287-888	San Mateo del Mar Huave	sanm1287	Huavean	North America	16.2129	-95.0077	24	18	6	0	0	18	6	3.0	a b d e g h i ɨ j k l m n o p r ɾ s ʃ t ts tʃ u w
jauj1238-889	Jauja Wanca Quechua	jauj1238	Quechuan	South America	-11.6747	-75.2786	27	22	5	0	0	22	5	4.4	a b d e f g h i j k l lʲ m n ɲ ŋ o p r s ʃ t ts tʃ u w x
luya1241-890	Luyi	luya1241	Atlantic-Congo	Africa	-15.01	22.67	22	17	5	0	0	17	5	3.4	a b d̪ dz dʒ e g i j k l m n ɲ ŋ o p s ʃ t̪ u w
imon1245-892	Imonda	imon1245	Border	Papunesia	-3.31228	141.171	23	13	10	0	0	13	10	1.3	a æ ɒ b d e ə ɛ f g h i k l m n o ɔ p r s t u
kris1246-894	I'saka	kris1246	Sko	Papunesia	-2.80084	141.303	18	9	5	0	0	9	5	1.8	⁵¹ ⁴ ² ¹⁵ a b d ɛ i j k ɔ p ɸ s t u w
yalu1240-895	Yalunka	yalu1240	Mande	Africa	9.97186	-11.2836	33	19	14	0	0	19	14	1.3571428571428572	ɑ ɑː b d e eː ɛ ɛː f g h i iː j ɟ k l m n ɲ ŋ o oː ɔ ɔː p ɾ s t u uː w χ
jama1261-897	Madi	jama1261	Arawan	South America	-7.62223	-66.5662	15	11	4	0	0	11	4	2.75	a b e h̃ i j k m n ɸ ɹ s t̪ ɯ w
kaby1243-900	Kabyle	kaby1243	Afro-Asiatic	Africa	36.4103	4.76137	30	27	3	0	0	27	3	9.0	ɑ b c d d̪ f g gʷ ɣ ɣʷ h ħ ɪ ɟ k kʷ m n q qʷ r s t t̪ ts tʃ ʊ z χ χʷ
gida1247-901	Gidar	gida1247	Afro-Asiatic	Africa	9.874715	14.07845	38	28	8	0	0	28	8	3.5	⁴ ² a b ɓ d ɗ e ə f g gb h i ɟ k kp l m ⁿb n ⁿd ⁿg ŋ o ø p r s ʂ t u ʉ v w z ʐ ʔ
kama1367-903	Kamasau	kama1367	Nuclear Torricelli	Papunesia	-3.8503	143.842	29	23	6	0	0	23	6	3.8333333333333335	a b d dz e g ɣ i ɨ j k m ⁿb n ⁿd ⁿdz ɲ ŋ ⁿg o ɸ ɾ s t tʃ u w ʔ β
kens1251-905	Kenswei Nsei	kens1251	Atlantic-Congo	Africa	6.01713	10.412	65	55	10	0	0	55	10	5.5	a æ b bʲ bʷ c cʲ cʷ d e ə ɛ f fʲ fʷ g gʲ gʷ ɣ h i j jʷ ɟ ɟʲ ɟʷ k kʲ kʷ l lʷ m ⁿb ⁿf n ⁿd ⁿdʷ ⁿs ⁿsʷ ⁿt ⁿtʷ ɲ ⁿc ⁿcʲ ⁿɟ ɲʷ ŋ ⁿg ⁿgʷ ⁿk ŋʷ o ɔ s sʲ sʷ t tʲ tʷ u ʉ w z ʒ ʒʷ
east2398-906	Eastern Karaboro	east2398	Atlantic-Congo	Africa	10.4987	-4.52253	26	16	7	0	0	16	7	2.2857142857142856	⁴ ³ ² a b d e ɛ f g gb i j k l m n ŋ o ɔ p r s t u w
khar1287-909	Kharia	khar1287	Austroasiatic	Eurasia	22.3571	84.3922	47	37	6	0	4	37	10	6.166666666666667	a æ ao b bʱ d̪ d̪ʱ ɗ ɗʱ e f g gʱ ɦ i j ɟ ɟʱ k kʰ l m n ɲ ɳ ŋ o oi ou p ɸ ɽ ɽʱ ɾ s t̪ t̪ʰ ts tsʰ ʈ ʈʰ u ui w ˀb ˀɗ ˀɟ
chon1284-910	Chong of Chanthaburi	chon1284	Austroasiatic	Eurasia	12.5218	102.514	40	21	18	0	1	21	19	1.1666666666666667	a aː b c cʰ d e eː ə əː ɛ ɛː h i iː ɨ ɨː j k kʰ l m n ɲ ŋ o oː ɔ ɔː p pʰ r s t tʰ u uː uə w ʔ
kiny1244-911	Kinyarwanda	kiny1244	Atlantic-Congo	Africa	-1.56771	29.6441	49	39	10	0	0	39	10	3.9	a aː b d dz dʒ ɗ e eː f g gʲ gʷ h hʲ hʷ i iː j k kʰ kʲ kʷ m n ɴ ɲ ŋ ŋʷ o oː p pf pʰ r ɽ ɽʱ s ʃ t ts tʃ u uː v w z ʒ β
kiri1254-912	Kirike	kiri1254	Ijoid	Africa	4.41126	6.98938	36	24	10	0	0	24	10	2.4	⁴ ² a b ɓ d dʒ e ə ɛ f g gb h i ɪ j k kp l m n ɲ ŋ o ɔ p ɾ s t tʃ u ʊ v w z
koko1269-913	Kokota	koko1269	Austronesian	Papunesia	-8.16481	159.191	27	22	5	0	0	22	5	4.4	a b d e f g ɣ h i k l l̥ m m̥ n n̥ ŋ ŋ̊ o p ɾ ɾ̥ s t u v z
bako1250-914	Bakole	bako1250	Atlantic-Congo	Africa	4.43654	8.97387	34	26	7	1	0	27	7	3.7142857142857144	a b bʷ d dʒ e ɛ f gb i j k kp l m ⁿb mʷ n ⁿd ɲ ⁿɟ ŋ ⁿg ⁿgb o ɔ p ɸ r s t u w β
konn1242-915	Konni	konn1242	Atlantic-Congo	Africa	10.2368	-1.54376	49	31	18	0	0	31	18	1.7222222222222223	a aː b d dʒ e eː ɛ ɛː f g gb h i iː ɪ ɪː j k kː kp l lː m mː n nː ɲ ŋ ŋː ŋm o oː ɔ ɔː p pː ɾ s t tː tʃ u uː ʊ ʊː v w z
kulu1253-917	Kulung (Nepal)	kulu1253	Sino-Tibetan	Eurasia	27.1606	87.5717	43	22	12	0	9	22	21	1.8333333333333333	a aː ai au b c cʰ d e eː ei eu ə əː əi g h i iː iu j ɟ k kʰ l m n ŋ o oː oi ou p pʰ r s t tʰ u uː ui w ʔ
kuot1243-918	Kuot	kuot1243		Papunesia	-3.06952	151.537	19	13	6	0	0	13	6	2.1666666666666665	a b d e ə f g i k l m n ŋ o p r s t u
kusu1250-919	Kusunda	kusu1250		Eurasia	29.1766	80.6309	38	32	6	0	0	32	6	5.333333333333333	a b bʱ d dʱ dz dzʱ e ə g gʱ ɢ i j k kʰ l m n ɴ ɲ ŋ o p pʰ q qʰ r s t tʰ ts tsʰ tʃ u w ʔ χ
lada1244-922	Leh-Kenhat	lada1244	Sino-Tibetan	Eurasia	33.468	80.6013	38	33	5	0	0	33	5	6.6	b d̪ dz dʒ ɗ e ə g h i j k kʰ l ɮ m n ɲ ŋ o p pʰ r s ʂ ʃ t̪ t̪ʰ ts tsʰ tʃ tʃʰ ʈ ʈʰ u w z ʒ
lang1320-923	Langi	lang1320	Atlantic-Congo	Africa	-4.71413	35.9517	52	32	20	0	0	32	20	1.6	a aː ɑ ɑː b d dʒ e eː ɛ ɛː f g h i iː ɪ ɪː j k l m ⁿb ⁿp n ⁿd ⁿdʒ ⁿt ⁿtʃ ɲ ŋ ⁿg ⁿk o oː ɔ ɔː p r s ʃ t tʃ u uː ɥ ʊ ʊː v w z ʔ
laoo1244-924	Lao	laoo1244	Tai-Kadai	Eurasia	16.0726	104.568	40	28	9	0	3	28	12	3.111111111111111	a b c cʷ d e ɛ ɤ f h i ia j k kʰ kʷ kʷʰ l lʷ m n ɲ ŋ ŋʷ o ɔ p pʰ s sʷ t tʰ tʷʰ u uə ɯ ɯə w ʔ ʔʷ
lavu1241-925	Lavukaleve	lavu1241		Papunesia	-9.05569	159.119	20	15	5	0	0	15	5	3.0	a b d e f h i kʰ l m n ŋ o pʰ r s t u ɰ β
bafa1247-926	Bafaw-Balong	bafa1247	Atlantic-Congo	Africa	4.53307	9.522	47	27	16	0	0	27	16	1.6875	⁵¹ ⁴ ² ¹⁵ a aː b ɓ d e eː ə əː ɛ ɛː f g i iː j ʝ k kp l m ⁿb ⁿp n ⁿd ⁿt ɲ ⁿɟ ŋ ⁿg ⁿk o oː ɔ ɔː p s ʃ t u uː w ʔ
lund1266-927	Lunda	lund1266	Atlantic-Congo	Africa	-11.1793	23.8662	32	22	10	0	0	22	10	2.2	a aː b d dʒ e eː f g h i iː j k l m n ɲ ŋ o oː p s ʃ t tʃ u uː v w z ʒ
luch1239-928	Luchazi	luch1239	Atlantic-Congo	Africa	-14.0648	22.2437	42	32	10	0	0	32	10	3.2	a aː ð e eː f h ɦ ɪ ɪː j k l m ⁿb ⁿpʰ n ⁿd ⁿdz ⁿdʒ ⁿtʰ ⁿts ⁿtʃ ɲ ŋ ⁿg ⁿkʰ o oː p s ʃ t t̪ ts tʃ ʊ ʊː z ʒ β θ
orok1266-929	Oroko	orok1266	Atlantic-Congo	Africa	4.89504	9.15209	29	21	7	1	0	22	7	3.0	a b d dʒ e ɛ i j k kp l m ⁿb n ⁿd ⁿdʒ ɲ ŋ ⁿg ⁿgb o ɔ p ɽ s t tʃ u w
mace1250-930	Macedonian	mace1250	Indo-European	Eurasia	41.5957	21.7932	32	26	6	0	0	26	6	4.333333333333333	a b c d̪ dz dʒ e ə f g i j ɟ k l l̪ m n ɲ o p r s ʃ t̪ ts tʃ u v x z ʒ
madi1261-932	Madi (Papua New Guinea)	madi1261	Nuclear Trans New Guinea	Papunesia	-5.63017	146.407	54	43	9	2	0	45	9	4.777777777777778	a b ɓ d dʷ dʒ ɗ e ɛ f g gb gʷ ɠɓ h i ɨ j ʄ k kp kʷ l lʷ m ⁿb ⁿv n ⁿd ⁿdʷ ⁿdʒ ɲ ŋ ⁿg ⁿgʷ ŋm ⁿgb o ɔ p r rʷ s t tʃ tʃʷ tʷ u ʊ v w z ʔ ʔʷ
mana1295-933	Manam	mana1295	Austronesian	Papunesia	-4.07921	145.033	18	13	5	0	0	13	5	2.6	a b d e g i k l m n ŋ o p ɾ s t u z
bame1260-934	Bamenyam	bame1260	Atlantic-Congo	Africa	5.77049	10.3302	50	39	11	0	0	39	11	3.5454545454545454	a ɑ e ə ɛ f fʲ ɣ i j k kʲ kʷ l lʷ ʎ m mʲ mʷ n nʷ ɲ ŋ ŋʷ o ø ɔ p pf pʲ pʷ s sʲ sʷ ʃ ʃʷ t tʲ ts tʃ tʃʷ tʷ u ʉ w wʲ z zʲ ʒ ʒʷ
ngem1255-936	Ngemba	ngem1255	Atlantic-Congo	Africa	5.97864	10.1469	40	29	9	0	0	29	9	3.2222222222222223	⁴ ² a b d dz dʒ e ə ɛ f g gʷ ɣ i ɨ j k kʷ l m ⁿb n ⁿd ŋ ŋʷ o ɔ r s ʃ t ts tʃ u v w z ʒ ʔ
mara1385-937	Marra	mara1385	Mangarrayi-Maran	Australia	-14.7927	134.865	24	19	5	0	0	19	5	3.8	a b d d̪ ɖ e g i j ɟ l l̪ ɭ m n n̪ ɲ ɳ ŋ o ɽ ɾ u w
maib1239-938	Maybrat-Karon	maib1239		Papunesia	-1.3679	132.591	16	11	5	0	0	11	5	2.2	a e f i j k m n o p r s t u w x
gbay1281-939	Gbaya-Mbodomo	gbay1281	Atlantic-Congo	Africa	4.800365	14.606865	37	27	7	1	0	28	7	3.857142857142857	⁴ ² a b ɓ d ɗ e ɛ f g gb h i j k kp l m ⁿb n ⁿd ⁿz ɲ ŋ ⁿg ⁿgb o ɔ p r s t u v w z
medu1238-940	Medumba	medu1238	Atlantic-Congo	Africa	5.10901	10.6118	25	16	9	0	0	16	9	1.7777777777777777	a ɑ b d̪ e ə f g i j k m n ɲ ŋ o ɔ s t̪ ts u ʉ v w z
mmen1238-942	Mmen	mmen1238	Atlantic-Congo	Africa	6.43213	10.2541	41	27	9	0	0	27	9	3.0	⁵¹ ⁴ ³ ² ¹⁵ a b bv d dz dʒ e ə ɛ f g ɣ i ɨ j k l m n ɲ ŋ o ɔ p pf s ʃ t ts tʃ u v w z ʒ ʔ
moke1242-943	Moken	moke1242	Austronesian	Eurasia	10.1474	98.6765	32	22	10	0	0	22	10	2.2	a aː b c cʰ d e eː ə g h i iː j ɟ k kʰ l m n ɲ ŋ o p pʰ s t tʰ u uː w ʔ
mpon1254-945	Mpongmpong	mpon1254	Atlantic-Congo	Africa	3.14015	14.866	38	28	7	1	0	29	7	4.0	⁴ ² a b c cʰ d e ɛ f g gb i j ɟ kʰ kp kpʰ l m ⁿb n ⁿd ⁿɟ ŋ ⁿg ⁿgb o ɔ p pʰ s t̪ tʰ u v w z
mung1266-946	Mungaka	mung1266	Atlantic-Congo	Africa	5.89752	10.0294	33	21	9	0	0	21	9	2.3333333333333335	⁴ ³ ² a b d dz e ə ɛ f g ɣ h i j k l m n ɲ ŋ o ɔ p s t ts u ʉ v w ʔ
motl1237-948	Mwotlap	motl1237	Austronesian	Papunesia	-13.655015	167.706277	22	15	7	0	0	15	7	2.142857142857143	a e ɣ h i ɪ j kpʷ l m ⁿb n ⁿd ŋ ŋmʷ o s t u ʊ v w
nami1256-949	Namia	nami1256	Sepik	Papunesia	-3.85538	141.788	15	9	6	0	0	9	6	1.5	a e ə i j k l m n o p r t u w
ndem1249-950	Ndemli	ndem1249	Atlantic-Congo	Africa	4.58061	10.2197	53	30	18	0	0	30	18	1.6666666666666667	⁵¹ ⁴ ³ ² ¹⁵ a aː b c d dʒ e eː ɛ ɛː f g ɣ h i iː j ɟ k l m ⁿb n ⁿd ⁿɟ ⁿt ɲ ŋ ⁿg ⁿk o ø oː øː ɔ ɔː p r s t ts tʃ u uː ʉ ʉː w ʔ
quec1382-952	Quechan	quec1382	Cochimi-Yuman	North America	32.7859	-114.599	38	28	10	0	0	28	10	2.8	a aː c ç c̟ cʷ çʷ ð e eː ɪ ɪː j k kʷ l̪ l̥ l̪ʲ ɬʲ m n n̪ʲ ɳ o oː p r s ʂ t̪ t̪ʲ ts ʈ u uː v w ʔ
nank1250-953	Nankina	nank1250	Nuclear Trans New Guinea	Papunesia	-5.80804	146.464	20	14	6	0	0	14	6	2.3333333333333335	ɑ b d dz ɛ g i j k m n ŋ ɔ p t ts u ʌ w β
nand1266-954	Nandi	nand1266	Nilotic	Africa	0.793737	35.408478	23	13	10	0	0	13	10	1.3	a aː c e eː i iː j k l m n ɲ ŋ o oː p ɾ s t u uː w
kima1246-955	Kimaama	kima1246	Kolopom	Papunesia	-8.01899	138.355	44	20	18	0	2	20	20	1.1111111111111112	⁵¹ ⁴ ³ ² a aː b d e eː ə əː ɛ ɛː f h i iː iə j k kʰ l m n ɲ ŋ o oː ɔ ɔː p pʰ s t tɕ tʰ u uː uə ɯ ɯː w ʔ
naki1238-956	Naki	naki1238	Atlantic-Congo	Africa	6.62784	10.2378	44	36	8	0	0	36	8	4.5	a b bʲ bʷ d dz dʒ dʒʷ e ə ɛ f fʲ fʷ g gb gʷ i j k kp kʷ l m mʷ n ɲ ŋ o ɔ s ʃ ʃʲ ʃʷ t ts tsʲ tsʷ tʃ tʃʷ tʷ u w ʒ
mich1245-957	Michoacán Nahuatl	mich1245	Uto-Aztecan	North America	18.3412	-103.361	25	20	5	0	0	20	5	4.0	a b d e g h i j k kʷ l m n ɲ o p r s ʃ t ts tʃ u w ʔ
naga1394-958	Naga Pidgin	naga1394	Indo-European	Eurasia	25.2508	93.4438	47	26	6	0	15	26	21	4.333333333333333	a ae̞ ai ao au b bʱ d dʱ dʒ dʒʱ e eə ei eu g gʱ h i i̯a i̯ɔ i̯u j k kʰ l m n ŋ o oe̞ oi ou ɔ p pʰ ɾ s t tʰ tʃ tʃʰ u u̯ə ui w z
ngos1238-959	Ngoshie	ngos1238	Atlantic-Congo	Africa	6.04616	9.83193	34	26	6	0	0	26	6	4.333333333333333	⁴ ² a b d dz dʒ ɛ f g gʱ i ɨ k m ⁿb n ⁿd ɲ ŋ ⁿg ɔ p r s ʃ t ts tʃ u v z ʒ ʔ
ngal1293-960	Ngalakgan	ngal1293	Gunwinyguan	Australia	-14.4281	134.716	26	17	9	0	0	17	9	1.8888888888888888	a c e ɛ i ɪ j k l ɭ m n ɲ ɳ ŋ o ɔ p ɹ ɾ t ʈ u ʊ w ʔ
nang1259-961	Nangikurrunggurr	nang1259	Southern Daly	Australia	-14.268	131.237	28	20	8	0	0	20	8	2.5	a aː b c ɕ d e eː f g i iː j k l ʎ m n ɲ ŋ p r ɾ ʂ t u uː w
iseb1246-962	Isebe	iseb1246	Nuclear Trans New Guinea	Papunesia	-5.20719	145.691	23	9	14	0	0	9	14	0.6428571428571429	a aː bv d dz ə ɛ ɛː g i iː j k oː ɔ ɔː p t u uː ʉ ʉː w
nort2684-965	Northern Khmer	nort2684	Austroasiatic	Eurasia	14.4674	103.863	43	24	16	0	3	24	19	1.5	aː ɑː b d e eː əː ɛ ɛː ɤː h iː ia ɪ ɪː j k kʰ l m m̩ n n̩ ɲ ŋ ŋ̍ oː ɔː p pʰ ɽ s t tɕ tɕʰ tʰ uː ua ɯː ɯa ʌː w ʔ
nort2954-966	Northern Paiute	nort2954	Uto-Aztecan	North America	40.0799	-119.536	24	14	10	0	0	14	10	1.4	a aː h i iː ɨ ɨː j k kʷ m n ŋ ɔ ɔː p s t ts tʃ u uː w ʔ
nubi1253-967	Nubi	nubi1253	Afro-Asiatic	Africa	-0.183215	34.7552	35	30	5	0	0	30	5	6.0	ɑ b d ð dʒ e f g h ħ i j k l m ɱ n ɲ ŋ o p q r ɾ s ʃ t tʃ u v w x z ʔ θ
elip1238-969	Elip	elip1238	Atlantic-Congo	Africa	4.45694	11.193	30	19	7	0	0	19	7	2.7142857142857144	⁵¹ ⁴ ² ¹⁵ a b dʒ e ɛ f g h i j k l m ⁿb n ⁿd ɲ ŋ o ɔ p s t tʃ u w
nyam1276-970	Nyamwezi	nyam1276	Atlantic-Congo	Africa	-5.08559	32.94452	53	36	14	0	0	36	14	2.5714285714285716	⁴ ² ¹⁵ a aː b d dʒ e eː f g h i iː ɪ ɪː j k l m m̥ ⁿb ⁿf ⁿv n n̥ ⁿd ⁿdʒ ⁿs ⁿʃ ⁿtʃ ⁿz ɲ ɲ̊ ŋ ŋ̊ ⁿg o oː p s ʃ t tʃ u uː ʊ ʊː v w z β
nyeu1238-971	Nyeu	nyeu1238	Austroasiatic	Eurasia	14.8817	104.33	40	20	20	0	0	20	20	1.0	a aː ɑ ɑː b c d e eː ə əː ɛ ɛː f h i iː ɨ ɨː j k kʰ l m n ɲ ŋ o oː ɔ ɔː p pʰ s t tʰ u uː w ʔ
obol1243-972	Obolo	obol1243	Atlantic-Congo	Africa	4.62851	7.81985	37	22	12	0	0	22	12	1.8333333333333333	⁵ ⁴ ² a aː b d dʒ e eː f g gb gʷ i iː j k kp kʷ l m n nʷ ɲ ŋ o oː ɔ ɔː r s t tʃ u uː w
faiw1243-974	Faiwol	faiw1243	Nuclear Trans New Guinea	Papunesia	-5.4967	141.656	20	12	5	0	3	12	8	2.4	a ai au b d e ei f g i j k l m n o s t u w
okuu1243-975	Oku	okuu1243	Atlantic-Congo	Africa	6.23712	10.5096	29	18	7	0	0	18	7	2.5714285714285716	⁵¹ ⁴ ³ ² a b d dʒ e ə ɛ f g ɣ i j k l m n ŋ ɔ s t tʃ u v w z
pala1344-977	Palauan	pala1344	Austronesian	Papunesia	7.34138	134.476678	22	10	12	0	0	10	12	0.8333333333333334	a aː b d̪ e eː ə əː i iː k l m ŋ o oː r s t̪ u uː ʔ
orok1269-978	Orokaiva	orok1269	Nuclear Trans New Guinea	Papunesia	-8.79019	148.09	17	12	5	0	0	12	5	2.4	a b d dz e g h i k m n ŋ o p s t u
yill1241-979	Yil	yill1241	Nuclear Torricelli	Papunesia	-3.46501	142.178	23	12	7	0	4	12	11	1.7142857142857142	a ai au ay e ei ə g i j k l m n ŋ o p r s t u w y
ning1273-980	Ningil	ning1273	Nuclear Torricelli	Papunesia	-3.49733	142.251	21	14	7	0	0	14	7	2.0	a ɛ g i ɨ j k l m n ŋ ɔ p ɸ r s t u ʌ w ʔ
dobu1241-981	Dobu	dobu1241	Austronesian	Papunesia	-9.63239	150.825	24	19	5	0	0	19	5	3.8	a b bʷ d ɛ g gʷ i j k kʷ l m mʷ n ɔ p pʷ s t u w ʔ ʔʷ
samo1303-982	Samo	samo1303	East Strickland	Papunesia	-6.15496	142.195	18	12	6	0	0	12	6	2.0	a b d e f g h i j k l m o ɔ s t u w
urii1240-983	Uri	urii1240	Nuclear Trans New Guinea	Papunesia	-6.41993	146.608	24	16	8	0	0	16	8	2.0	a b d ɛ f g gʷ i iː j k kʷ m n ŋ o p ɾ s t u uː ʌ w
boik1241-984	Boikin	boik1241	Ndu	Papunesia	-3.68297	143.474	25	17	8	0	0	17	8	2.125	a æ ɒ e f g h i ɨ j k l̪ m n n̪ ŋ o p r ɺ s t ts u w
phai1238-985	Prai	phai1238	Austroasiatic	Eurasia	19.0383	101.218	35	17	18	0	0	17	18	0.9444444444444444	a aː æ æː ɓ c ç ɗ e eː ə əː h i iː j k l m n ɲ ŋ o oː ɔ ɔː p r t u uː ɯ ɯː w ʔ
mall1246-986	Mal	mall1246	Austroasiatic	Eurasia	19.273	101.204	41	17	18	0	4	17	22	0.9444444444444444	⁴⁵ ¹² a aː æ æː b c d e eː ə əː i iː ia ie j k l m n ɲ ŋ o oː ɔ ɔː p ɸ s t u uː ua ɯ ɯː ɯa ɰ w ʔ
rama1270-987	Rama	rama1270	Chibchan	North America	11.5007	-83.8571	28	19	9	0	0	19	9	2.111111111111111	a aː b d e eː g h i iː j k kʷ l m n ŋ ŋʷ o p r s t ts u uː w z
matb1237-988	Matbat	matb1237	Austronesian	Papunesia	-1.8801	130.075	20	15	5	0	0	15	5	3.0	a b d e f g h i j k l m n ŋ o p s t u w
rund1242-989	Rundi	rund1242	Atlantic-Congo	Africa	-1.44174	31.3191	29	22	5	0	0	22	5	4.4	⁴ ² a b d dz e f g h i j k m n ɲ o p pf r s ʃ t ts u v w z ʒ
nyan1307-990	Nyankole	nyan1307	Atlantic-Congo	Africa	-0.46364	30.548	28	20	5	0	3	20	8	4.0	a ai b d dʒ e ei f g h i k m n ɲ ŋ o oi p r s ʃ t tʃ u v z ʒ
marw1260-991	Marwari (India)	marw1260	Indo-European	Eurasia	27.002	75.0656	46	36	8	0	2	36	10	4.5	a ai au b bʱ d̪ d̪ʱ dz dʒ ɖ ɖʱ e ə g gʱ h i ɪ ʝ k kʰ l ɭ m mʱ n nʱ ɲ ɳ ŋ o p pʰ ɽ ɾ s t̪ t̪ʰ ts tʃ ʈ ʈʰ u ʊ v vʱ
samb1305-992	Samba Leko	samb1305	Atlantic-Congo	Africa	8.19236	11.7366	34	22	9	0	0	22	9	2.4444444444444446	⁴ ³ ² a b d dʒ e ə ɛ f g gb i ɪ j ʝ k kp l m n ɲ ŋ o ɔ p s t u v w z ʔ
sout2844-993	Southern Samo	sout2844	Mande	Africa	12.713	-2.9052	26	18	8	0	0	18	8	2.25	a b d dʲ e ə ɛ f g gʲ i j k l m n ɲ o ɔ p s t tʲ u w z
samr1245-994	Samre or Siem Reap	samr1245	Bookkeeping	Eurasia	13.479	103.978	41	20	18	0	3	20	21	1.1111111111111112	a aː b c cʰ d e eː ə əː ɛ ɛː h i iː iə j k l m n ɲ ŋ o oː ɔ ɔː p pʰ ɹ s t tʰ u uː uə ɯ ɯː ɯə w ʔ
saba1268-995	Sabanê	saba1268	Nambiquaran	South America	-12.9857	-60.335	18	13	5	0	0	13	5	2.6	a ɓ ɗ e h i j k l m n o p s t u w ʔ
sasa1249-997	Sasak	sasa1249	Austronesian	Papunesia	-8.58349	116.284	30	19	5	0	6	19	11	3.8	ae ai au b ç d dʒ e ə g h i ia j k l m n ɲ ŋ o oe p r t tʃ u uə w ʔ
sava1244-998	Savara	sava1244	Bookkeeping	Eurasia	18.7302	84.1414	30	19	11	0	0	19	11	1.7272727272727273	æ ɑ b b̻ d̪ d̻ e ə ɛ g i ɪ j k k̻ l m n̪ ɲ ŋ o p p̻ r ɾ s t̪ u ʊ ʌ
sayu1241-999	Sayula Popoluca	sayu1241	Mixe-Zoque	North America	17.8606	-94.9531	25	19	6	0	0	19	6	3.1666666666666665	a b d dʒ e f g i j l m n o p q r s ʃ t ts tʃ u ʉ v w
seco1241-1000	Secoya	seco1241	Tucanoan	South America	-0.459785	-75.5547	18	12	6	0	0	12	6	2.0	a d e h i ɨ j k kʷ m o p s t u w z ʔ
taro1264-1001	Seediq	taro1264	Austronesian	Papunesia	23.9032	121.358	43	33	10	0	0	33	10	3.3	ɑ b d ð dʲ e ə g ɣ h ħ ɦ i ɪ ɨ j ɟ k l ɮ m n ɲ ŋ o p q r rʲ ɹ ɾ s ʂ ʃ t tʲ ts tsʲ u ɯ ʌ w z
serr1255-1004	Serrano	serr1255	Uto-Aztecan	North America	33.9479	-116.772	42	33	9	0	0	33	9	3.6666666666666665	a a˞ b d e f g h hʷ i ɨ ɨ˞ j k kʷ l lʲ m n n̺ ɲ ŋ ŋʷ o o˞ p q qʷ r̺ s s̺ ʃ t ts̺ tʃ u w x xʷ ʔ χ χʷ
shab1252-1005	Shabo	shab1252		Africa	7.64407	35.223	43	28	13	0	0	28	13	2.1538461538461537	⁴ ² a aː b ɓ c c̰ d ɗ e eː f g h i iː ɪ j ɟ ʄ k k̰ l m n ɲ ŋ o oː ɔ p p̰ ɾ s ʃ t t̰ u uː ʌ w ʔ
yawa1260-1006	Yawanawa	yawa1260	Pano-Tacanan	South America	-8.87563	-71.8199	18	14	4	0	0	14	4	3.5	a f h i ɨ j k m n p ɾ s ʂ t ts tʃ u w
mako1251-1007	Makonde	mako1251	Atlantic-Congo	Africa	-10.9906	39.5133	28	18	5	0	0	18	5	3.6	⁵¹ ⁴ ³⁴³ ² ¹⁵ a b d dʒ e g i j k l m n ɲ ŋ o p s ʃ t tʃ u v w
shon1251-1008	Shona	shon1251	Atlantic-Congo	Africa	-17.20849	29.75725	42	37	5	0	0	37	5	7.4	a b ɓ ç d d̪ dʒ ɗ e f g ɣ h ɦ i j ʝ k ɬ ɮ m n̪ ɲ ŋ o p r s̪ sʷ ʃ t t̪ tʃ u v ʋ w x z̪ zʷ ʒ β
bamu1253-1009	Bamun	bamu1253	Atlantic-Congo	Africa	5.49017	10.8477	38	28	10	0	0	28	10	2.8	a b d dʒ e ə ɛ f g gb h i ɨ j k kp kx l m ɱ n ɲ ŋ o ɔ p ɾ s ʃ t u ʉ v w x z ʒ ʔ
siar1238-1010	Siar-Lak	siar1238	Austronesian	Papunesia	-4.62059	152.892	22	15	7	0	0	15	7	2.142857142857143	ɑ b d e e̝ g i j k l m n ŋ o o̝ p ɸ r s t u w
shaw1249-1012	Shawnee	shaw1249	Algic	North America	35.354	-96.7635	19	13	6	0	0	13	6	2.1666666666666665	a aː e i iː j k kː l m n o p ʃ t tʃ w ʔ θ
nucl1634-1013	Skou	nucl1634	Sko	Papunesia	-2.64378	140.902	23	13	7	0	0	13	7	1.8571428571428572	⁴ ² ¹⁵ a b ɛ f h i j ɟ k l m n ø ɔ p r t u ʉ w
sout2856-1015	South Efate	sout2856	Austronesian	Papunesia	-17.7006	168.377	20	15	5	0	0	15	5	3.0	a e f i j k kp l m n ⁿdʳ ŋ ŋm o p r s t u w
spok1245-1016	Spokane	spok1245	Salishan	North America	47.9087	-118.062	43	38	5	0	0	38	5	7.6	a e h i j j̰ kʷ k̰ʷ l l̰ ɬ m m̰ n n̰ o p p̰ q q̰ qʷ q̰ʷ r r̰ s ʃ t t̰ ts ts̰ tʃ tʃ̰ u w w̰ xʷ ʔ ʕ ʕ̰ ʕʷ ʕ̰ʷ χ χʷ
sata1237-1018	Satawalese	sata1237	Austronesian	Papunesia	7.36084	147.038	42	29	13	0	0	29	13	2.230769230769231	a aː æ ɒ ɛ ɛː ɞ f fː g i iː j k kː m mː mʷˠ mʷˠː n nː ŋ ŋː oː p pː pʷˠ pʷˠː r rː ɻ ɻː s sː t̪ t̪ː tʃ tʃː u uː ʉ w
ulwa1239-1019	Ulwa	ulwa1239	Misumalpan	North America	12.932292	-83.581467	28	22	6	0	0	22	6	3.6666666666666665	a aː b d g h i iː j j̊ k l l̥ m m̥ n n̥ ŋ ŋ̊ p r r̥ s t u uː w w̥
hupd1244-1020	Hupdë	hupd1244	Nadahup	South America	0.58622	-69.8359	29	20	9	0	0	20	9	2.2222222222222223	a æ b b̰ c ç d d̰ e ə g g̰ h i ɨ j j̰ ɟ ɟ̰̩ k o ɔ p p̰ t u w w̰ ʔ
chim1300-1021	Chimalapa Zoque	chim1300	Mixe-Zoque	North America	16.6543	-94.6913	26	20	6	0	0	20	6	3.3333333333333335	a b d e ə f g h i j k l m n ŋ o p r s ʃ t ts tʃ u w ʔ
loxi1235-1022	Loxicha Zapotec	loxi1235	Otomanguean	North America	15.8442	-96.6997	30	23	7	0	0	23	7	3.2857142857142856	a ð e ɛ ɣ ɣʷ i j k ɭ m n̪ ɲ ŋ o ɔ p r̃ ɾ ʂ t̪ ts̪ ʈʂ u w x z ʐ β θ
yape1248-1024	Yapese	yape1248	Austronesian	Papunesia	9.55811	138.125	44	28	16	0	0	28	16	1.75	a aː æ æː ɑː ð eː ɛ f f̰ h iː ɪ j k k̰ l̰ m m̰ n n̰ ŋ ŋ̰ œ œː ɔ ɔː p p̰ r s t t̰ tʃ ʊ ʊː ʌ w w̰ x ʔ β θ θ̰
yuro1248-1025	Yurok	yuro1248	Algic	North America	41.3262	-123.824	35	23	12	0	0	23	12	1.9166666666666667	a aː e eː ə əː ɣ h i iː j k k̰ kʷ k̰ʷ l ɬ m n̪ o oː p p̰ r s ʃ t̪ t̰ tʃ tʃ̰ u uː w x ʔ
yura1255-1026	Yuracaré	yura1255		South America	-16.7479	-65.1224	25	18	7	0	0	18	7	2.5714285714285716	a æ b d dʲ e h i ɨ j k l m n ɲ o p ɹ̝ s ʃ t tʃ u w ʔ
sout2750-1027	Southern Yukaghir	sout2750	Yukaghir	Eurasia	64.218	154.375	33	21	12	0	0	21	12	1.75	a aː d̪ dʒ e eː g i iː j k l ʎ m n ɲ ŋ o ø oː øː p q r ʁ ʃ t̪ tʃ u uː w ʒ ʔ
wamb1259-1029	Wambon	wamb1259	Nuclear Trans New Guinea	Papunesia	-5.44334	140.48	26	16	5	0	5	16	10	3.2	a ai au dʒ e ei ɣ h i j k l m ⁿb n ⁿd ⁿg o oi p s t u ui w β
wash1253-1030	Washo	wash1253		North America	38.8184	-119.64	32	26	6	0	0	26	6	4.333333333333333	a b d dz e g h i ɨ j j̊ k k̰ l l̥ m m̥ n ŋ ŋ̊ o p p̰ s ʃ t t̰ ts̰ u w w̥ ʔ
waya1269-1031	Wayana	waya1269	Cariban	South America	2.77537	-54.4429	16	9	7	0	0	9	7	1.2857142857142858	a e ə h i ɨ j k m n o p ɽ t u w
woge1237-1032	Wogeo	woge1237	Austronesian	Papunesia	-3.20238	144.089	20	15	5	0	0	15	5	3.0	a b d̪ e f g i j k l̪ m n̪ ɲ ŋ o r s t̪ u v
huar1255-1033	Huarijio	huar1255	Uto-Aztecan	North America	27.8685	-108.437	26	12	5	0	9	12	14	2.4	a ai au e ei h i ia ie j k m n o oi p ɾ s t tʃ u ua ue ui w ʔ
ukra1253-1035	Ukrainian	ukra1253	Indo-European	Eurasia	48.175842	24.395786	30	24	6	0	0	24	6	4.0	a b d̪ dz̪ dʒ ɛ f g h i ɪ j k l̪ m n̪ ɔ p r̪ s̪ ʃ t̪ ts̪ tʃ u v w x z̪ ʒ
phal1254-1036	Phalura	phal1254	Indo-European	Eurasia	35.5096	71.8421	40	30	10	0	0	30	10	3.0	a aː b ɕ d̪ ɖ e eː f g ɣ h i iː j k l m n̪ ɳ o oː p q r ɽ s ʂ t̪ tɕ ts ʈ ʈʂ u uː w x z ʐ ʑ
east2440-1037	East Makian	east2440	Austronesian	Papunesia	0.07337	127.423	24	19	5	0	0	19	5	3.8	a b d dʒ e f g h i j k l m n ŋ o p r s t tʃ u w ʔ
tatu1247-1040	Tatuyo	tatu1247	Tucanoan	South America	0.55582	-70.5327	17	11	6	0	0	11	6	1.8333333333333333	a b d e g h i j k o p r s t u ʉ w
maza1291-1042	Mazanderani	maza1291	Indo-European	Eurasia	36.241	52.3009	29	22	7	0	0	22	7	3.142857142857143	a ɑ b d dʒ e ɛ f g h i j k l̪ m n̪ o p q r s ʃ t tʃ u v x z ʒ
paok1235-1043	Pa'o Karen	paok1235	Sino-Tibetan	Eurasia	20.211	97.5969	34	20	9	0	2	20	11	2.2222222222222223	⁵¹ ⁴⁵ ³ a ai au b c cʰ d e ə ɛ h i j k kʰ l m n ŋ o ɔ p pʰ r s t tʰ u ʉ w ʔ
tern1247-1044	Ternate	tern1247	North Halmahera	Papunesia	0.80562	127.333	25	20	5	0	0	20	5	4.0	a b d dʒ e f g h i j k l m n ɲ ŋ o p ɾ s t tʃ u w ʔ
toba1269-1045	Toba	toba1269	Guaicuruan	South America	-24.40253	-60.4472866667	28	21	7	0	0	21	7	3.0	a aː b d dʒ ɛ ɛː g h i j kʰ l̪ ʎ m n̪ ɲ o oː pʰ qʰ ɾ s ʃ tʰ tʃ w ʔ
east2295-1049	Eastern Yiddish	east2295	Indo-European	Eurasia	51.75	19.42	47	38	6	0	3	38	9	6.333333333333333	a aɛ b d dʲ dz dzʲ dʒ dʒʲ ɛ ɛɪ ɜ f g ɣ h ɪ j k l ʎ m n nʲ ŋ ɔ ɔɛ p r ʀ ɾ s sʲ ʃ t tʲ ts tsʲ tʃ tʃʲ ʊ v x z zʲ ʒ ʔ
dutc1256-1050	Dutch	dutc1256	Indo-European	Eurasia	52.0	5.0	39	24	12	0	3	24	15	2.0	aː ɑ b d eː ɛ ɛi̯ f ɣ ɦ i ɪ j k l ʎ m n ɲ ŋ oː øː œy ɔ ɔu p ʀ s ʃ t u v w x yː ʏ z ʒ ʔ
malo1243-1051	Tamambo	malo1243	Austronesian	Papunesia	-15.6835	167.16	21	16	5	0	0	16	5	3.2	a e i k l m ⁿb ⁿbʷ mʷ n ⁿd ⁿɟ ŋ o r s t u x β βʷ
gayo1244-1052	Gayo	gayo1244	Austronesian	Papunesia	4.3733	97.3456	27	19	8	0	0	19	8	2.375	a b d dʒ e ə ɛ g h i j k l m n ɲ ŋ o ɔ p r s t tʃ u w ʔ
jama1262-1053	Jamaican Creole English	jama1262	Indo-European	North America	18.13	-77.2612	33	21	8	0	4	21	12	2.625	a aː ai au b d dʒ e f g h i iː ia j k l m n ŋ o p ɹ s ʃ t tʃ u uː ua v w z
ibib1240-1057	Ibibio	ibib1240	Atlantic-Congo	Africa	5.15279	7.86688	32	17	13	0	0	17	13	1.3076923076923077	⁴ ² a aː b d e eː f i iː j k kp m mː n nː ɲ ɲː ŋ ŋː o oː ɔ ɔː s t̪ u uː ʌ w
tami1289-1058	Tamil	tami1289	Dravidian	Eurasia	10.520219	78.825989	33	21	10	0	2	21	12	2.1	a aː aɪ aʊ b d̪ dʒ ɖ e eː g i iː j k l ɭ m n ɲ ɳ o oː p ɻ ɾ s t̪ tʃ ʈ u uː ʋ
baga1273-1060	Baga Koga	baga1273	Atlantic-Congo	Africa	10.1286	-13.947	25	17	8	0	0	17	8	2.125	a b d e ə ɛ f gb i j k l m n ɲ ŋ o ɔ p r s t ts u w
sout2895-1061	South Nuaulu	sout2895	Austronesian	Papunesia	-3.23411	129.148	17	12	5	0	0	12	5	2.4	a e h i j k l m n o p r s t u w ʔ
sela1259-1062	Selaru	sela1259	Austronesian	Papunesia	-8.18376	130.961	19	14	5	0	0	14	5	2.8	a b d e f h i j k l m n o r s t u w ʔ
hang1263-1064	Hanga Hundi	hang1263	Ndu	Papunesia	-3.90364	142.849	23	16	7	0	0	16	7	2.2857142857142856	a b d e ə g ɣ i ɨ j ɟ k l m n ɲ o ɸ ɾ s t u w
tata1257-1066	Tatana	tata1257	Austronesian	Papunesia	5.49808	115.553	21	17	4	0	0	17	4	4.25	a b d dʒ g i j k l m n ɲ ŋ o p r s t u w ʔ
tibe1272-1067	Tibetan	tibe1272	Sino-Tibetan	Eurasia	28.3681	90.1872	34	24	8	0	0	24	8	3.0	⁴ ²⁴ a ɕ e ɛ h i j k kʰ l̪ l̥ m n̪ ŋ o ø p pʰ r̪ s̪ t̪ tɕ tɕʰ t̪ʰ ts̪ ts̪ʰ ʈ ʈʰ u w y ʔ
chee1238-1068	Che	chee1238	Atlantic-Congo	Africa	10.0031	8.67024	57	30	16	0	8	30	24	1.875	⁴ ³ ² a aː aɪ au ɐ ɐː ɐi ɐu b d dʒ ɛ ɛː ɛʊ f g gb h hʲ hʷ i iː ɪ ɪː j j̊ k kp l m n ɲ ŋ ŋm ɔ ɔː ɔɪ p ɾ s t tʃ u uː ɥ ɥ̥ ʊ ʊː ʊɪ ʊu v ⱱ w̞ z
pagi1243-1070	Pagibete	pagi1243	Atlantic-Congo	Africa	3.15636	22.1212	51	40	7	2	0	42	7	5.714285714285714	⁴ ² a b bʷ ɓ d ɗ e ɛ f g gb gʲ gʷ i j k kʲ kp kʷ l m ⁿb ⁿbʷ ⁿp ⁿv n ⁿd ⁿs ⁿt ⁿz ɲʲ ⁿg ⁿgʲ ⁿgʷ ⁿk ⁿkʷ ⁿgb ⁿkp ŋʷ o ɔ p pʷ s t u v w z
choc1276-1071	Choctaw	choc1276	Muskogean	North America	33.8993	-94.819	21	15	6	0	0	15	6	2.5	a aː b f h i iː j k l ɬ m n o oː p s ʃ t tʃ w
pila1245-1073	Pilagá	pila1245	Guaicuruan	South America	-25.0058	-60.1537	22	18	4	0	0	18	4	4.5	d e g h i j k l ʎ m n ɲ o p q s t tʃ ʌ w ʔ ʕ
bani1255-1075	Baniwa do Icana	bani1255	Arawakan	South America	2.17859	-67.7704	37	25	4	0	8	25	12	6.25	a ai au b d̪ dz̪ e g h ʰm ʱn̪ ʱɾ̪ i ia ie iu j k kʰ m n̪ p pʰ ɸ ɽ ɾ̪ ʂ ʃ t̪ t̪ʰ ts̪ u ua ue ui w β
nort2943-1077	North Alaskan Inupiatun	nort2943	Eskimo-Aleut	North America	69.582	-143.77	27	24	3	0	0	24	3	8.0	a ɣ h i j k l l̥ ʎ ʎ̥ m n ɲ ŋ p q ʁ s ʃ t tʃ u v x ʒ ʔ χ
west2560-1081	West Coast Bajau	west2560	Austronesian	Papunesia	6.00631	116.124	23	17	6	0	0	17	6	2.8333333333333335	a b d̪ dʒ e ə g i j k l̪ m n̪ ɲ ŋ o p r s t̪ u w ʔ
utes1238-1084	Ute-Southern Paiute	utes1238	Uto-Aztecan	North America	40.0965	-110.305	37	19	18	0	0	19	18	1.0555555555555556	æ æː ɑ ɑː ɛ ɛː gʷ ɣ i iː ɨ ɨː j k kʷ m n o ø oː øː p q ɾ ʁ s t tʃ u uː ɯ ɯː v w x ʔ χ
dupa1235-1085	Dupaninan Agta	dupa1235	Austronesian	Papunesia	17.3748	122.188	20	15	5	0	0	15	5	3.0	a b d ɛ g h i j k l m ŋ o p ɾ s t u w ʔ
tong1325-1086	Tonga (Tonga Islands)	tong1325	Austronesian	Papunesia	-21.17	-175.25	17	12	5	0	0	12	5	2.4	a e f h i k m n̪ ŋ o p ɺ s t̪ u v ʔ
juan1238-1089	Juang	juan1238	Austroasiatic	Eurasia	21.2606	85.5845	29	19	10	0	0	19	10	1.9	æ æː b cç d̪ ɖ ɛ ɛː g i iː ɟʝ k l ɭ m n ɲ ɳ ŋ ɔ ɔː p ɾ s t̪ ʈ u uː
adan1251-1090	Adang	adan1251	Timor-Alor-Pantar	Papunesia	-8.18958	124.448	40	18	12	0	10	18	22	1.5	a aː aɛ ai b c d e eu ɛ ɛi f g h i iː iu ɟ k l m n ɲ ŋ o oː oi ou ɔ ɔː ɔi ɔu p r s t u uː ui ʔ
ambe1247-1091	Ambele	ambe1247	Atlantic-Congo	Africa	5.94043	9.62028	51	37	10	1	0	38	10	3.7	⁴ ³ ² a b bʲ d dʒ dʒʷ e ə ɛ f g gb gʲ ɣ h i ɨ j k kp kpʷ kʷ l m ⁿb mʷ n ⁿd ⁿt ⁿtʃ ɲ ŋ ⁿg ⁿk ⁿgb o ɔ p s sʲ sʷ t tʃ tʃʲ tʷ u ʉ w
anti1245-1094	Antigua and Barbuda Creole English	anti1245	Indo-European	North America	17.068263	-61.821863	37	24	9	0	4	24	13	2.6666666666666665	a aː ai b c d dʒ e ə f g h i iː ia j ɟ k l m n ŋ o ou p r s ʃ t tʃ u uː ua v w z ʒ
akla1241-1095	Aklanon	akla1241	Austronesian	Papunesia	11.5543	122.354	20	17	3	0	0	17	3	5.666666666666667	a b d g ɣ h i j k l m n ŋ p r s t u w ʔ
arhu1242-1096	Arhuaco	arhu1242	Chibchan	South America	10.7018	-73.6363	32	16	7	0	9	16	16	2.2857142857142856	a b d dʒ e ei ə g h i ia iɨ ɨ k m n o ou p ɾ s t tʃ u ua ue uə ui uɨ z ʔ β
liby1240-1098	Libyan Arabic	liby1240	Afro-Asiatic	Africa	22.0032	15.0014	50	34	8	0	8	34	16	4.25	a æ æi æu ai au b d̪ ð dˠ ðˠ e eu f g h ħ i ɪ ɪi j k l̪ l̪ˠ m mˠ n̪ o q ɾ̪ ɾ̪ˠ ʁ s̪ sˠ ʃ t̪ tˠ u ui ʊ ʊu v w z̪ zˠ ʒ ʔ ʕ θ χ
bata1289-1099	Batak Toba	bata1289	Austronesian	Papunesia	2.35498	99.1761	27	18	9	0	0	18	9	2.0	a æ b d dʒ e ə ɛ g h i j k l m n ŋ o ɔ p r s t tʃ u w ʔ
baou1238-1100	Baoulé	baou1238	Atlantic-Congo	Africa	5.42509	-4.76565	23	16	7	0	0	16	7	2.2857142857142856	a b c d e ɛ f g gb i j ɟ k kp l m o ɔ p s t u w
bond1245-1101	Bondo	bond1245	Austroasiatic	Eurasia	19.1512	83.8141	27	21	6	0	0	21	6	3.5	a b d̪ ɖ ə ɛ g i j ɟ kʰ l̪ m n̪ ɲ ɳ ŋ o pʰ r s t̪ʰ ʈʰ u w z ʔ
siks1238-1103	Siksika	siks1238	Algic	North America	49.0669	-113.109	25	13	12	0	0	13	12	1.0833333333333333	a aː æː ɛ h i iː j k l m n o ø oː ɔ ɔː p s t̪ tʃ u w x ʔ
koas1236-1106	Koasati	koas1236	Muskogean	North America	30.4096	-92.709	25	15	6	0	0	15	6	2.5	⁴ ⁴⁵⁴ ³ ² a aː b ɕ h i iː j k l̪ ɬ̪ m n̪ p ɸ t̪ tʃ u uː w ʔ
como1259-1107	Comox	como1259	Salishan	North America	49.7233	-124.967	42	37	5	0	0	37	5	7.4	a ə ɛ h ɪ j j̰ k k̰ kʷ k̰ʷ l l̰ ɬ m m̰ n n̰ o p p̰ q q̰ qʷ q̰ʷ s ʃ t t̰ tɬ tɬ̰ ts ts̰ tʃ tʃ̰ w w̰ x xʷ ʔ χ χʷ
diml1238-1109	Dimli	diml1238	Indo-European	Eurasia	38.6147	39.6388	44	30	8	0	6	30	14	3.75	a ai au b d̪ dʒ e ə əi əu f g ɣ h ħ i ɨ j k l lˠ m n o oi p q r ɾ s̪ s̪ˤ ʃ t̪ tʃ t̪ˤ u ʉ ʉi v w x z̪ ʒ ʕ
yekh1238-1110	Yekhee	yekh1238	Atlantic-Congo	Africa	7.10204	6.44919	36	26	7	0	0	26	7	3.7142857142857144	⁴ ⁴² ² a b d dz e ɛ f g gb gbː ɣ i j k kp kpː l m mː n o ɔ p r s t ts u v w x β̞ θ
nort2626-1111	Northern Frisian	nort2626	Indo-European	Eurasia	54.6409	8.58489	42	23	13	0	6	23	19	1.7692307692307692	a ai au b c ç d ð eː ɛ ɛə f g h iː ɪ j k l ʎ m n ɲ ŋ oː øː œ ɔ ɔi p r s ʃ t uː ʊ ʊa ʊɪ v x yː ʏ
guan1269-1113	Kotiria	guan1269	Tucanoan	South America	1.07554	-69.5705	24	16	6	0	0	16	6	2.6666666666666665	⁴ ² a b d e g h i j k kʰ o p pʰ ɾ s t tʰ tʃ u ʉ w ʔ
hung1278-1114	Hungana-Saamba	hung1278	Atlantic-Congo	Africa	-3.69695	18.4312	33	20	10	0	0	20	10	2.0	⁴ ³ ² a aː b d ɛ ɛː f g h i iː j k kʰ l m n ŋ ɔ ɔː pʰ r s t tʰ u uː v w z
ilok1237-1117	Iloko	ilok1237	Austronesian	Papunesia	15.9361	120.993	21	17	4	0	0	17	4	4.25	a b d̪ g h i j k l m n̪ ŋ o p ɾ s t̪ tʃ ɯ w ʔ
kadi1248-1118	Kadiwéu	kadi1248	Guaicuruan	South America	-19.7222	-57.582	31	23	8	0	0	23	8	2.875	a aː b bː d̪ d̪ː dʒ ɛ ɛː g gː i iː j jː k l lː m mː n nː o oː p q ʁ t̪ tʃ w wː
awac1239-1120	Awa-Cuaiquer	awac1239	Barbacoan	South America	1.21652	-78.3401	21	14	7	0	0	14	7	2.0	a i i̥ ɨ ɨ̥ j k l ɬ m n ŋ p s ʃ t̪ u u̥ w z ʒ
lisu1250-1121	Lisu	lisu1250	Sino-Tibetan	Eurasia	22.5488	94.0184	39	25	8	0	0	25	8	3.125	⁴ ⁴³ ³ ³⁴ ² ²³ a æ ɒ b d dz ɘ f g ɣ ɪ ɨ j k kʰ l m n ŋ ø p pʰ s t tʰ ts tsʰ ʊ v w x z ʔ
loni1238-1122	Loniu	loni1238	Austronesian	Papunesia	-2.06124	147.35	23	16	7	0	0	16	7	2.2857142857142856	a e ɛ h i j k l m mʷ n ɲ ŋ o ɔ p pʷ r s t tʃ u w
mats1244-1124	Matsés	mats1244	Pano-Tacanan	South America	-5.73914	-72.6281	21	15	6	0	0	15	6	2.5	a b d e ɤ i ɨ j k m n p s ʂ ʃ t ts tʃ ʈʂ ɯ w
mani1292-1125	Manipuri	mani1292	Sino-Tibetan	Eurasia	24.4409	93.3426	33	25	6	0	0	25	6	4.166666666666667	⁴ ² a b bʱ d dʱ dʒ dʒʱ e ə g gʱ h i j k kʰ l m n ŋ o p pʰ r s t tʰ tʃ tʃʰ u w
mand1436-1126	Mandinka	mand1436	Mande	Africa	12.8165233333	-15.6539466667	34	19	10	0	0	19	10	1.9	⁴ ⁴² ² ²⁴ ²⁴² a aː b d dʒ e eː f g h i iː j k l m n ɲ ŋ o oː p r s t tʃ u uː w
moco1246-1127	Mocoví	moco1246	Guaicuruan	South America	-28.097	-60.4145	31	23	8	0	0	23	8	2.875	a aː d dʒ e eː ɣ h i iː j k l ʎ m n ɲ o oː p ɸ q ɾ ʁ s ʃ t tʃ w x ʔ
nort2627-1131	Eastern Low German	nort2627	Indo-European	Eurasia	50.771	6.092	37	23	10	0	4	23	14	2.3	a æ æɪ ai au ɑ ɑʊ b ç cʰ d eː ə f g h iː ɪ ʝ kʰ l m n ɲ ŋ oː pʰ ɾ s ʃ tʰ uː ʊ v x z ʒ
pana1305-1133	Panamint	pana1305	Uto-Aztecan	North America	36.0007	-117.901	36	23	12	0	1	23	13	1.9166666666666667	a aː ai eː ɛ h i iː ɨ ɨː j k kː kʷ kʷː m mː n nː ŋ ŋː ŋʷ ŋʷː o oː p pː s t tː tsː ts u uː w ʔ
nige1257-1134	Nigerian Pidgin	nige1257	Indo-European	Africa	9.65873	4.21068	32	23	7	0	0	23	7	3.2857142857142856	⁴ ² a b d dʒ e ɛ f g gb h i j k kp l m n ŋ o ɔ p ɾ s ʃ t tʃ u v w z
texi1237-1136	Texistepec Popoluca	texi1237	Mixe-Zoque	North America	17.8926	-94.8076	29	19	10	0	0	19	10	1.9	a aː b d dʲ ɛ ɛː h ɨ ɨː j k l m n ɲ ŋ ɔ ɔː p r s ʃ t ts tʃ u uː ʔ
khan1273-1137	Kazym-Berezover-Suryskarer Khanty	khan1273	Uralic	Eurasia	62.4308	66.1218	31	18	13	0	0	18	13	1.3846153846153846	æ ɑ c e ɛ ɣ i j k l ɬ ʎ m n ɲ ŋ o ø œ ɔ p q r s t tʃ u ɯ ʌ w y
stan1289-1138	Catalan	stan1289	Indo-European	Eurasia	41.453	1.569	39	23	8	0	8	23	16	2.875	a b d̪ dʒ e ei̯ ə ɛ ɛu̯ f g i i̯a i̯ɛ j k l ʎ m n ɲ ŋ o ou̯ ɔ p r ɾ s ʃ t̪ tʃ u u̯a u̯ə ui̯ w z ʒ
croa1245-1139	Croatian	croa1245	Indo-European	Eurasia	45.2006	16.826	36	25	10	0	1	25	11	2.5	a aː b d̪ dʑ dʒ e eː f g i iː ie j k l ʎ m n ɲ o oː p r s ʃ t̪ tɕ ts̪ tʃ u uː ʋ x z ʒ
czec1258-1140	Czech	czec1258	Indo-European	Eurasia	49.873398	15.10437	38	25	10	0	3	25	13	2.5	a aː au b c d ɛ ɛː ɛu f g ɦ iː ɪ j ɟ k l m n ɲ o oː ou p r r̝ s ʃ t ts tʃ u uː v x z ʒ
gali1258-1141	Galician	gali1258	Indo-European	Eurasia	42.2446	-7.5343	28	21	7	0	0	21	7	3.0	a ɹ̪ e ɛ f i j ɟ k l m n ɲ ŋ o ɔ p r ɾ s̺ ʃ t̪ tʃ u ɰ w β̞ θ
kabi1261-1142	Kabiyé	kabi1261	Atlantic-Congo	Africa	8.96816	0.495023	47	22	23	0	0	22	23	0.9565217391304348	⁴ ² a̙ a̙ː a̙ˠ b d dʒ ɖ e eː eˠ ɛ̙ ɛ̙ː ɛ̙ˠ f g gb h i iː iˠ ɪ̙ ɪ̙ː ɪ̙ˠ j kʰ kpʰ l m n ɲ o oː ɔ̙ ɔ̙ː r s tʰ tʃ u uː ʊ̙ ʊ̙ː v w z
mono1270-1143	Mono (Democratic Republic of Congo)	mono1270	Atlantic-Congo	Africa	4.57915	19.8264	44	32	8	1	0	33	8	4.0	⁴ ³ ² a b ɓ d dʒ ɗ e ə f g gb h i ɨ j k kp l m ⁿb n ⁿd ⁿdʒ ɲ ⁿg ⁿgb o ɔ p r s ʃ t tʃ u v ⱱ w z ʒ ʔ
indo1316-1144	Indonesian	indo1316	Austronesian	Papunesia	-7.33458	109.716	31	22	6	0	3	22	9	3.6666666666666665	a ai̯ au̯ b d dʒ e ə f g h i j k l m n ɲ ŋ o oi̯ p r s ʃ t̪ tʃ u w z ʔ
ital1282-1145	Italian	ital1282	Indo-European	Eurasia	43.0464	12.6489	30	23	7	0	0	23	7	3.2857142857142856	ɐ b d dz dʒ e ɛ f g i j k l ʎ m n ɲ o ɔ p r s ʃ t ts tʃ u v w z
sala1272-1146	Salasaca Highland Quichua	sala1272	Quechuan	South America	-1.35447	-78.3953	29	24	5	0	0	24	5	4.8	a b d̪ e g i j k kʰ l m n ɲ o p pʰ ɾ s ʃ t̪ tʰ ts tʃ tʃʰ u w x z ʒ
seri1257-1147	Seri	seri1257		North America	28.9877	-112.384	25	17	8	0	0	17	8	2.125	ɑ ɑː ɛ ɛː i iː k kʷ l ɬ m n o oː p ɸ ɾ s ʃ t̪ x xʷ ʔ χ χʷ
sind1272-1148	Sindhi	sind1272	Indo-European	Eurasia	26.0	69.0	54	44	10	0	0	44	10	4.4	ɑ b bʱ ɓ c cʰ d̪ d̪ʱ ɖ ɖʱ ɗ e ə ɛ f g gʱ ɣ h i ɪ j ɟ ɟʱ k kʰ l lʱ m mʱ n nʱ ɲ ɳ ɳʱ ŋ o ɔ p pʰ ɽ ɽʱ ɾ s ʃ t̪ t̪ʰ ʈ ʈʰ u ʊ ʋ x z
slov1268-1149	Slovenian	slov1268	Indo-European	Eurasia	46.2543	14.7766	37	21	16	0	0	21	16	1.3125	a aː b d̪ dʒ e eː ə əː ɛ ɛː f g i iː j k l m n o oː ɔ ɔː p ɾ s ʃ t̪ ts tʃ u uː ʋ x z ʒ
swed1254-1150	Swedish	swed1254	Indo-European	Eurasia	59.800634	17.389526	35	18	17	0	0	18	17	1.0588235294117647	a ɑː b ɕ d̪ eː ɛ ɛː f g h ɧ iː ɪ ʝ k l m n̪ ŋ oː øː œ ɔ ɵ p ɹ s̪ t̪ uː ʉ̟ ʊ v yː ʏ
east2440-1151	East Makian	east2440	Austronesian	Papunesia	0.07337	127.423	37	32	5	0	0	32	5	6.4	a b bː d dː dʒ ɛ f fː g gː h hː ɨ j k kː l lː m mː n nː ŋ ŋː ɔ p pː r s sː t tː tʃ tʃː u w
tuka1248-1152	Tukang Besi North	tuka1248	Austronesian	Papunesia	-5.30994	123.578	29	24	5	0	0	24	5	4.8	a b ɓ dʒ ɗ ɛ g h i k l m ⁿb ⁿp n ⁿd ⁿs ⁿt ŋ ⁿg ⁿk o p r s t ɯ ʔ β
yine1238-1153	Yine	yine1238	Arawakan	South America	-11.1086	-73.3087	26	16	10	0	0	16	10	1.6	a aː ç cç e eː h̃ i iː j k l m n o oː p ɾ s ʃ t ts tʃ ɯ ɯː w
huam1248-1155	Huamalíes-Dos de Mayo Huánuco Quechua	huam1248	Quechuan	South America	-9.15718	-76.3372	31	21	10	0	0	21	10	2.1	a aː b d e eː f g h i iː j k l ʎ m n ɲ o oː p q ɾ s ʃ t tʃ u uː w z
sipa1247-1156	Sipacapense	sipa1247	Mayan	North America	15.23054	-91.7041	32	22	10	0	0	22	10	2.2	a aː b̰ e eː i iː j k k̰ l m n o oː p q q̰ r s ʃ t t̰ ts ts̰ tʃ tʃ̰ u uː w ʔ χ
chim1302-1157	Chimborazo Highland Quichua	chim1302	Quechuan	South America	-1.36727	-78.8521	36	31	5	0	0	31	5	6.2	a b d̪ dʲ e g h i j k kʰ l m n nʲ o p pʰ r s s̪ ʂ t t̪ tʰ t̪ʰ tʲ tʲʰ ts u w x z z̪ ʐ ʔ
tlac1235-1158	Tlachichilco Tepehua	tlac1235	Totonacan	North America	20.704	-98.1947	34	24	10	0	0	24	10	2.4	a aː e eː h i iː j k k̰ l ɬ m n o oː p p̰ q q̰ r ɾ s t t̰ ts ts̰ tʃ tʃ̰ u uː w z ʔ
ambu1247-1159	Ambulas	ambu1247	Ndu	Papunesia	-3.7801	143.059	24	17	7	0	0	17	7	2.4285714285714284	a aː e i ɨ j k l m ⁿb n ⁿd ɲ ⁿɟ ŋ ⁿg o p r s t u v w
abau1245-1160	Abau	abau1245	Sepik	Papunesia	-3.97222	141.324	14	9	5	0	0	9	5	1.8	ɑ e h i j k m n o p ɾ s u w
qima1242-1161	Qimant	qima1242	Afro-Asiatic	Africa	12.8119	37.0542	39	28	7	0	0	28	7	4.0	⁵¹ ⁴ ³ ² a æ b d dz̪ dʒ e ə f g gʷ ɢ ɢʷ i j k kʷ l̪ m n̪ ŋ ŋʷ o p q qʷ r̪ s̪ ʃ t̪ ts̪ tʃ u w z̪
alya1239-1163	Alyawarr	alya1239	Pama-Nyungan	Australia	-21.0427	136.835	32	25	7	0	0	25	7	3.5714285714285716	ɐ ɐː c cⁿ i iː k kⁿ l l̪ ɭ ʎ m n n̪ ɲ ɳ ŋ p pⁿ r ɽ t t̪ tⁿ t̪ⁿ ʈ ʈⁿ u uː w y
aman1265-1164	Amanab	aman1265	Border	Papunesia	-3.51516	141.178	19	14	5	0	0	14	5	2.8	a b e f g h i j k m n ŋ o p r s t u w
anua1242-1165	Anuak	anua1242	Nilotic	Africa	7.57714	34.0267	47	19	20	0	4	19	24	0.95	⁴ ³ ² ¹⁵ a aː b c d d̪ e eː ɛ ɛː g i iː ie ɪ ɪː ɪɛ j ɟ k l m n n̪ ɲ ŋ o oː ɔ ɔː p r t t̪ u uː uo ʊ ʊː ʊɔ ʌ ʌː w
aran1237-1166	Arandai	aran1237	South Bird's Head Family	Papunesia	-2.08016	132.983	18	13	5	0	0	13	5	2.6	a b d ð e g ɣ i ɟ k m n o p ɾ t u β
bumb1241-1167	Bumbita Arapesh	bumb1241	Nuclear Torricelli	Papunesia	-3.65508	142.859	22	15	7	0	0	15	7	2.142857142857143	a b d̪ dz e g h i kʰ l m n ɲ o ø pʰ s ʃ t̪ʰ u y ʔ
auuu1241-1169	Au	auuu1241	Nuclear Torricelli	Papunesia	-3.53277	142.105	17	10	7	0	0	10	7	1.4285714285714286	ɐ ɐː ə ɣ i ɨ j k m n o p ɾ s t u w
tinp1237-1170	Tinputz	tinp1237	Austronesian	Papunesia	-5.58358	154.972	26	12	13	0	1	12	14	0.9230769230769231	a aː æ ai e eː h i iː j k l m n o oː ɔ ɔː p s t u uː w ʔ β
peta1245-1171	Petats	peta1245	Austronesian	Papunesia	-5.34068	154.593	30	15	11	0	4	15	15	1.3636363636363635	a aː ai au b e e̝ ei g h i iː j k l m n ŋ o ø o̝ ou p r s t tʃ u uː w
pate1247-1172	Patep	pate1247	Austronesian	Papunesia	-6.91988	146.639	44	30	14	0	0	30	14	2.142857142857143	a aː e eː ɛ ɛː ɣ h i iː j k kʷ l m ⁿb ⁿbʲ ⁿbʷ mʲ mʷ n ⁿd ⁿdʲ ⁿdz nʲ ŋ ⁿg ⁿgʷ ŋʷ o oː ɔ ɔː p pʲ pʷ s t tʲ u uː w β βʲ
surs1246-1174	Sursurunga	surs1246	Austronesian	Papunesia	-3.99078	152.768	21	15	6	0	0	15	6	2.5	ɐ b d e ə g h i j k l m n ŋ o p r s t u w
awar1248-1175	Awara	awar1248	Nuclear Trans New Guinea	Papunesia	-6.16986	146.372	25	19	6	0	0	19	6	3.1666666666666665	ɐ b d e g gʷ ɣ h i j k kʷ l m n ŋ ŋʷ o p s t u ʌ ʔ β
awin1248-1176	Awing	awin1248	Atlantic-Congo	Africa	5.88362	10.264	56	39	17	0	0	39	17	2.2941176470588234	a aː d e eː ə əː ɛ ɛː f ɣ i iː ɨ ɨː j k kʲ kʷ l lʷ m ⁿb ⁿbʷ mʲ n ⁿd ⁿdʒ ɲ ŋ ⁿg ⁿgʲ ⁿgʷ ŋʷ o oː ɔ ɔː p pʲ s ʃ ʃʷ t tʲ ts tʃ tʷ u w x z ʒ ʒʷ ʔ β
awtu1239-1177	Awtuw	awtu1239	Sepik	Papunesia	-3.53129	141.928	18	11	7	0	0	11	7	1.5714285714285714	a æ d e ə i j kʰ l m n ŋ o pʰ ɾ tʰ u w
baba1264-1178	Baba	baba1264	Atlantic-Congo	Africa	6.11222	10.5216	30	23	7	0	0	23	7	3.2857142857142856	a dz dʒ e ə f g ɣ i ɨ j k l m n ɲ ŋ ŋm o p r s ʃ t ts u v w x ʒ
baba1266-1179	Babanki	baba1266	Atlantic-Congo	Africa	5.97863	10.2869	33	26	7	0	0	26	7	3.7142857142857144	a b bv d dz dʒ e ə f g ɣ i ɨ j k l m n ɲ ŋ o pf s ʃ t ts tʃ u v w z ʒ ʔ
bako1249-1180	Bakoko	bako1249	Atlantic-Congo	Africa	3.56518	9.99905	33	26	7	0	0	26	7	3.7142857142857144	a b bʷ d dʒ e ɛ f ɣ ɦ i j k kʷ l m ⁿb ⁿbʷ n ⁿd ɲ ŋ ⁿg ⁿgʷ o ɔ p ɾ s t tʃ u w
nyon1241-1181	Nyong	nyon1241	Atlantic-Congo	Africa	7.274185	11.061485	42	23	14	0	0	23	14	1.6428571428571428	⁵¹ ⁴ ³ ² ¹⁵ a aː b d̪ e eː ə ɛ ɛː f g gb h i iː j k kp l̪ m n̪ ⁿd̪ ɲ ŋ ⁿg ŋʷ o ɔ ɔː p s t̪ u uː v w z
bamu1256-1182	Bamunka	bamu1256	Atlantic-Congo	Africa	6.00203	10.5127	32	23	9	0	0	23	9	2.5555555555555554	a b d̪ dʒ e ə ɛ f g ɣ h i ɨ j k kp l m n ɲ ŋ o ɔ s ʃ t̪ tʃ u v w ʒ ʔ
bang1356-1183	Bangolan	bang1356	Atlantic-Congo	Africa	6.0125	10.667	40	27	9	0	0	27	9	3.0	⁵¹ ⁴ ⁴² ¹⁵ a b d dz dʒ e ə ɛ f g ɣ h i ɨ j k l m n ŋ o ɔ p ɾ s ʃ t ts tʃ u v w z ʒ ʔ θ
bata1285-1184	Batanga	bata1285	Atlantic-Congo	Africa	1.397041	9.51011	31	20	8	0	0	20	8	2.5	⁴ ³ ² a ɓ c ɗ e ɛ f i ʄ k l m ⁿb n ⁿd ɲ ⁿʄ ŋ ⁿg o ɔ p s t̪ u v w y
bari1286-1185	Bariai	bari1286	Austronesian	Papunesia	-5.5087	148.666	17	12	5	0	0	12	5	2.4	ɑ b d e g i k l m n ŋ o p r s t u
befa1241-1186	Befang	befa1241	Atlantic-Congo	Africa	6.27562	10.0342	59	43	14	0	0	43	14	3.0714285714285716	⁴ ² ɑ ɑː b bʲ bʷ d dz dʒ e eː ə əː ɛ f fʲ fʷ g gb gʲ gʷ ɣ h i iː j ʝ k kʲ kp kʷ l lʲ m mʷ n ⁿd ⁿdz ɲ ŋ ŋʷ o oː ɔ p s t tʲ ts tʃ tʷ u uː v w z ʒ ʔ
idaa1241-1187	Ida'an	idaa1241	Austronesian	Papunesia	5.29059	118.515	23	17	6	0	0	17	6	2.8333333333333335	a b d dʒ e ə g i j k l m n ŋ o p r s t tʃ u w ʔ
bemb1257-1188	Bemba (Zambia)	bemb1257	Atlantic-Congo	Africa	-10.6122	29.2993	25	15	10	0	0	15	10	1.5	a aː e eː f i iː j k l m n ɲ ŋ o oː p s ʃ t tʃ u uː w β
berb1259-1189	Berbice Creole Dutch	berb1259	Indo-European	South America	5.3829	-58.0002	26	20	6	0	0	20	6	3.3333333333333335	a b ç d e ɛ f g h i j k l m n o p r s ʃ t u v w x z
bett1235-1190	Betta Kurumba	bett1235	Dravidian	Eurasia	11.6385	76.6064	37	22	12	0	3	22	15	1.8333333333333333	ai ɑ ɑː b d d̪ dʒ ɗ ə əː əi ɛ ɛː f g i iː j k l ɭ m n ɳ ŋ ɔ ɔː p ɾ ʃ t t̪ ʈ u uː ui ʋ
biak1248-1191	Biak	biak1248	Austronesian	Papunesia	-0.9523	135.879	24	14	10	0	0	14	10	1.4	a aː b d e eː f i iː j k l m n o oː p r s t u uː w β
bili1250-1192	Bilinarra	bili1250	Pama-Nyungan	Australia	-16.868771	130.533991	23	17	6	0	0	17	6	2.8333333333333335	a aː i iː j ɟ k l ɭ ʎ m n ɲ ɳ ŋ p ɻ ɾ t ʈ u uː w
nucl1695-1195	Bole	nucl1695	Afro-Asiatic	Africa	11.4839	11.2322	38	28	10	0	0	28	10	2.8	a aː b ɓ d dʒ ɗ e eː g h i iː j ʄ k l m ⁿb n ⁿd ⁿdʒ ⁿz ɲ ⁿg o oː p r s ʃ t tʃ u uː w z ʔ
bong1285-1196	Bongo	bong1285	Central Sudanic	Africa	7.4145	27.9918	29	18	11	0	0	18	11	1.6363636363636365	a aː b d e eː f g h i iː k l m n ɲ ɔ ɔː p pf r s t ts tʃ u uː w y
boro1277-1197	Boro (Ethiopia)	boro1277	Ta-Ne-Omotic	Africa	10.6596	35.345	25	16	6	0	0	16	6	2.6666666666666665	⁴ ³ ² a b d e g h i j kʰ l m n ŋ o ɵ pʰ r s tʰ u w z
brok1247-1198	Brokskat	brok1247	Indo-European	Eurasia	34.5308	76.6026	41	31	10	0	0	31	10	3.1	a aː b c ç d d̪ dʱ e eː f g ɣ̊ h i iː j ʝ k l m n ŋ o oː p pʰ q s ʂ t t̪ tʰ t̪ʰ ts u uː v x̥ z z̥
baga1272-1199	Baga Sitemu	baga1272	Atlantic-Congo	Africa	10.4793	-14.4756	26	18	8	0	0	18	8	2.25	a b d̪ e ɛ f g gb h i ɨ j k l m n ŋ o ɔ p r s t̪ tʃ u w
bubi1249-1200	Bubia	bubi1249	Bookkeeping	Africa	4.02178	9.22304	39	25	14	0	0	25	14	1.7857142857142858	a aː b bʷ d dʒ e eː ɛ ɛː gb i iː j k kp l m ⁿb n ⁿd ⁿdʒ ɲ ŋ ⁿg ŋʷ o oː ɔ ɔː ɸ s t tʃ u uː w ʒ β
buku1249-1201	Bukusu	buku1249	Atlantic-Congo	Africa	0.68043	34.7719	30	20	10	0	0	20	10	2.0	a aː e eː f i iː j k l m ⁿb n ⁿd ⁿdʒ ɲ ŋ ⁿg o oː p r s t tʃ u uː w x β
subi1246-1202	Subiya	subi1246	Atlantic-Congo	Africa	-17.5696	24.8867	51	46	5	0	0	46	5	9.2	a b bʷ d dʷ dʒ dʒʷ ɛ f fʷ g gʷ h hʲ hʷ i j k kʷ lʷ m mʲ mʷ ɱ n nʷ ɲ ŋ ɔ p pʷ ɻ ɻʲ ɻʷ s sʷ ʃ t t̪ tʃ tʷ t̪ʷ u v vʷ w z zʷ β βʲ βʷ
tote1238-1203	Totela	tote1238	Atlantic-Congo	Africa	-16.9575	24.3751	54	44	10	0	0	44	10	4.4	a aː b bʷ cʷ dʒ ɛ ɛː f fʷ g gʷ ɣ ɣʷ h hʲ hʷ i iː j k kʷ m mʲ mʷ n nʷ ɲ ŋ ŋʷ ɔ ɔː p pʲ pʷ ɻ ɻʲ ɻʷ s sʷ ʃ t tʲ ts tʃʷ tʷ u uː v vʷ w z zʷ β
bamb1265-1204	Bambalang	bamb1265	Atlantic-Congo	Africa	5.861	10.544	57	34	18	0	0	34	18	1.8888888888888888	⁵¹ ⁴ ³ ² ¹⁵ a aː dʒ dʒʷ e eː ə əː ɛ f fʷ g ɣ h i iː ɨ ɨː j k kʷ l m ⁿb n ⁿd ⁿdʒ nʷ ɲ ŋ ⁿg ⁿgʷ o oː ɔ ɔː p pʰ pʷ r ʃ ʃʷ t ts tʃ tʃʷ tʷ u uː ʉ w ʔ
nort2845-1205	North Marquesan	nort2845	Austronesian	Papunesia	-8.89412	-140.108	22	12	10	0	0	12	10	1.2	a aː ç e eː f h i iː k m n o oː p r s t u uː v ʔ
onge1236-1206	Önge	onge1236	Jarawa-Onge	Eurasia	10.6926	92.4707	24	16	8	0	0	16	8	2.0	a b cç d e ɛ ɤ g i j ɟʝ k l m n ɲ ŋ o ɔ r t u w ʔ
olut1240-1207	Oluta Popoluca	olut1240	Mixe-Zoque	North America	17.8937	-94.8863	32	20	12	0	0	20	12	1.6666666666666667	a aː b d e eː ə əː f g h i iː j k l m n o oː p r ɾ s ʃ t ts tʃ u uː w ʔ
jiar1240-1208	Northern Gyalrong	jiar1240	Sino-Tibetan	Eurasia	31.60295	102.22875	57	49	8	0	0	49	8	6.125	a b c cʰ ɕ d̪ dz̪ dʑ ɖʐ e ɤ g ɣ i j ɟ k kʰ l̪ ɬ̪ m ⁿb n̪ ⁿd̪ ⁿdz̪ ⁿdʑ ⁿɢ ɲ ⁿɟ ⁿɖʐ ŋ ⁿg o p pʰ q qʰ ɻ ʁ s̪ ʂ t̪ tɕ tɕʰ t̪ʰ ts̪ ts̪ʰ ʈʂ ʈʂʰ u ɯ w x y z ʑ χ
suri1267-1209	Tirma-Chai	suri1267	Surmic	Africa	6.03205	35.0823	31	22	7	0	0	22	7	3.142857142857143	⁴ ² a b ɓ c d ɗ e ɛ g ɠ i j ɟ ʄ k l m n ɲ ŋ o ɔ ɾ s t u w x z
bilu1245-1210	Bilua	bilu1245		Papunesia	-7.92388	156.663	41	16	5	0	20	16	25	3.2	a aɛ aɪ aɔ aʊ b d dʒ e ea eɪ eɔ eʊ g i ia iɛ iɔ iʊ k l m n ɲ ŋ o oa oɛ oɪ oʊ p r s t u ua uɛ uɪ uɔ z β
hoav1238-1211	Hoava	hoav1238	Austronesian	Papunesia	-8.19679	157.595	21	16	5	0	0	16	5	3.2	a b d dʒ ɛ g ɣ h i k l m n ŋ ɔ p r s t u β
fili1244-1212	Filipino	fili1244	Austronesian	Papunesia	12.265	123.464	27	17	10	0	0	17	10	1.7	a aː b d̪ e eː f g h i iː j k l m n̪ ŋ o oː p ɾ s t̪ u uː w ʔ
ngad1261-1213	Ngad'a	ngad1261	Austronesian	Papunesia	-8.79508	120.976	27	21	6	0	0	21	6	3.5	a b ɓ d̪ dʒ ᶑ e ə f g ɣ i k l m n ŋ o p ɾ s t u v x z ʔ
muna1247-1214	Muna	muna1247	Austronesian	Papunesia	-5.40419	122.541	33	28	5	0	0	28	5	5.6	a b ɓ c d d̪ ɛ f g h i j ɟ k l m ⁿb ⁿp n ⁿd ⁿs ⁿt ŋ ⁿg ⁿk ɔ p r ʁ s t u w
keoo1238-1215	Ke'o	keoo1238	Austronesian	Papunesia	-8.8704	121.256	30	24	6	0	0	24	6	4.0	a b d dʒ e ə f g h i k l m ⁿb n ⁿd ŋ ⁿg o p r s t tʃ u w x ʔ ˀb ˀd
tiwi1244-1218	Tiwi	tiwi1244		Australia	-11.6308	130.949	18	14	4	0	0	14	4	3.5	a ɣ i j k l m n n̪ ŋ o p ɻ ɾ t t̪ u w
thul1246-1220	Thulung	thul1246	Sino-Tibetan	Eurasia	27.5389	87.6063	38	30	8	0	0	30	8	3.75	a b bʱ d dʱ dz dzʱ ɖ ɖʱ e g gʱ h i j k kʰ l m n ŋ o ɔ p pʰ r s t tʰ ts tsʰ ʈ ʈʰ u ɯ w y ʔ
tsha1245-1221	Tshangla	tsha1245	Sino-Tibetan	Eurasia	27.3694	91.7741	37	32	5	0	0	32	5	6.4	a b ɕ d dz dʑ ɖ e g h i j k kʰ l ɬ m n ɲ ŋ o p pʰ ɾ s t tɕ tɕʰ tʰ ts tsʰ ʈ ʈʰ u w z ʑ
tuvi1240-1225	Tuvinian	tuvi1240	Turkic	Eurasia	48.436	92.6693	37	21	16	0	0	21	16	1.3125	a aː e eː f g i iː j k l m n ŋ o ø oː øː p pʰ r s ʃ t tʰ ts tʃ u uː ɯ ɯː ʋ x y yː z ʒ
kinn1249-1226	Kinnauri	kinn1249	Sino-Tibetan	Eurasia	31.3688	78.3148	46	31	15	0	0	31	15	2.066666666666667	a aː æ æː b cç cçʰ d̪ d̪ʱ ɖ e eː ə f g h i iː ɨ j ɟʝ k kʰ l̪ ɭ n̪ ɳ ŋ o oː ɔ p pʰ r s̪ ʂ t̪ t̪ʰ ʈ ʈʰ u uː v w z̪ ʐ
anei1239-1228	Aneityum	anei1239	Austronesian	Papunesia	-20.1864	169.825	26	21	5	0	0	21	5	4.2	a cç ɛ f ɣ h ɪ j k l m mʷ n ɲ ŋ ɔ p pʷ ɾ s t ʊ v w ʔ θ
zaiw1241-1229	Zaiwa	zaiw1241	Sino-Tibetan	Eurasia	24.1726	98.3643	32	21	5	0	3	21	8	4.2	⁵³ ⁴ ³¹ a ai au e h i j k kʰ l m n ŋ o p pʰ ɹ s ʃ t tʰ ts tsʰ tʃ tʃʰ u ui w ʔ
friu1240-1231	Friulian	friu1240	Indo-European	Eurasia	46.1473	13.0493	39	25	14	0	0	25	14	1.7857142857142858	a aː b c d̪ dz̪ dʒ e eː ɛ ɛː f g i iː j ɟ k l m n ɲ o oː ɔ ɔː p r s ʃ t̪ ts̪ tʃ u uː v w z ʒ
egaa1242-1233	Ega	egaa1242	Atlantic-Congo	Africa	5.56081	-5.41732	39	26	9	1	0	27	9	2.888888888888889	⁴ ³ ² a b ɓ c d ɗ e̘ e̙ f g gb ɠ ɠɓ i̘ i̙ j ɟ ʄ k kp l m n ɲ ŋ o̘ o̙ p s t u̘ u̙ v w x z
adam1253-1234	Adamawa Fulfulde	adam1253	Atlantic-Congo	Africa	8.140326	13.077338	36	27	9	0	0	27	9	3.0	a aː b ɓ d dʒ ɗ e eː g h i iː j k l m ⁿb n ⁿd ⁿdʒ ɲ ŋ ⁿg o p ɸ r s t tʃ u uː w ʔ β
west2441-1235	Western Arrarnta	west2441	Pama-Nyungan	Australia	-24.05052	133.24621	29	26	3	0	0	26	3	8.666666666666666	a ə i j k kⁿ l l̠ l̪ ɭ m n n̠ n̪ ɳ ŋ p pⁿ ɻ ɾ t t̠ t̪ tⁿ t̠ⁿ t̪ⁿ ʈ ʈⁿ w
wari1268-1237	Wari'	wari1268	Chapacuran	South America	-10.69948	-64.56152	20	14	6	0	0	14	6	2.3333333333333335	a e h hʷ i k kʷ m mˀ n nˀ o ø p ɾ t̺ tʃ w y ʔ
crow1244-1238	Crow	crow1244	Siouan	North America	45.368	-107.874	23	10	10	0	0	10	10	1.0	⁵ ⁵¹ ¹ a aː e eː h i iː k o oː p ɹ s̪ ʃ t̪ tʃ u uː w x
lyel1241-1240	Lyélé	lyel1241	Atlantic-Congo	Africa	12.4305	-2.59229	34	20	10	1	0	21	10	2.0	⁴ ³ ² a aː b ɓ d ɗ e eː g gb h i iː j k kp l ⁿb mʷ ⁿd ɲ ŋ ⁿgb o oː p r s t u uː
adam1253-1241	Adamawa Fulfulde	adam1253	Atlantic-Congo	Africa	8.140326	13.077338	47	37	10	0	0	37	10	3.7	a aː b bː ɓ ɓː d dː dʒ ɗ ɗː e eː f g gː h i iː j k kː l lː m mː ⁿb n nː ⁿd ⁿdʒ ɲ ŋ ⁿg o oː q r s t tʃ tʃː u uː w ʒ ʔʲ
dibo1245-1247	Dibole	dibo1245	Atlantic-Congo	Africa	1.07773	17.2305	31	21	6	0	0	21	6	3.5	⁴ ⁴² ² ²⁴ a b dz e ɛ h i j k l m ⁿb ⁿp n ⁿdz ⁿs ⁿt ⁿts ⁿg ⁿk ɔ p s t ts u w
bana1305-1248	Bana	bana1305	Afro-Asiatic	Africa	10.3535	13.6131	44	37	3	0	0	37	3	12.333333333333334	⁴ ⁴² ² ²⁴ b ɓ d dz ɗ ə ɛ f g gʷ ɨ j k kʷ ɬ ɮ m ⁿb n ⁿd ⁿdz ŋ ⁿg ⁿgʷ ŋʷ p ɾ ʁ ʁʷ s t ts v ⱱ w z ʔ ʔʷ χ χʷ
baka1274-1249	Baka (Sudan)	baka1274	Central Sudanic	Africa	4.65943	29.59	46	36	10	0	0	36	10	3.6	a ɐ b bʳ ɓ d dʑ ɖ ɗ e ɛ f g gb ɣ h ħ i ɪ j k kp l m n ɲ ŋ o ɔ p r ɾ s ʃ t tɕ ts u ʊ v ⱱ w x ʒ ʕ θ
ajas1235-1250	Aja (Sudan)	ajas1235	Kresh-Aja	Africa	8.58003	25.6122	48	38	10	0	0	38	10	3.8	a ɐ b ɓ c d dʑ ɖ ɗ e ɛ f g gb ɣ h ħ i ɪ j ɟ k kp l m n ɲ ŋ o ɔ p r ɾ s ʃ t tɕ ts ʈ u ʊ v ⱱ w x ʒ ʕ θ
bila1255-1251	Bila	bila1255	Atlantic-Congo	Africa	1.16839	28.7626	33	18	9	1	0	19	9	2.0	⁴ ³ ² ²⁴ ²³ a ɓ ɗ e ɛ h i ɪ j k kp l ⁿb ⁿd ⁿdʒ ɲ ⁿg ⁿgb o ɔ p ɸ s t tʃ u ʊ w
adam1253-1253	Adamawa Fulfulde	adam1253	Atlantic-Congo	Africa	8.140326	13.077338	39	29	10	0	0	29	10	2.9	a aː b ɓ d dʒ ɗ e eː f g h i iː j k l m ⁿb n ⁿd ⁿdʒ ɲ ŋ ⁿg o oː p q r s t tʃ u uː v w ʔ ʔʲ
nige1253-1254	Hausa States Fulfulde	nige1253	Atlantic-Congo	Africa	10.9972	11.1188	57	47	10	0	0	47	10	4.7	a ɑː b bː ɓ ɓː d dː dʒ dʒː ɗ ɗː eː ɛ f g gː h iː ɪ j k kː l lː m mː ⁿb ⁿbː n nː ⁿd ⁿdː ⁿdʒ ɲ ɲː ŋ ŋː ⁿg ⁿgː oː ɔ p pː r rː s t tː tʃ tʃː uː ʊ w ʔ ʔʲ ʔʲː
here1253-1255	Herero	here1253	Atlantic-Congo	Africa	-21.0231	20.5655	26	19	5	0	0	19	5	3.8	⁴ ² a ɕ ð e h i j k ⁿb n n̪ ⁿd̪ ⁿdʑ ɲ ⁿg o p ɾ t t̪ u v w θ
koyr1240-1257	Koyra Chiini Songhay	koyr1240	Songhay	Africa	16.192	-3.73962	43	23	14	0	0	23	14	1.6428571428571428	⁴ ⁴² ⁴²⁴ ² ²⁴ ²⁴² a aː b d e eː ɛ ɛː f g gᶣ h i iː j̃ k l m n ɲ ŋ ŋʷ o oː ɔ ɔː p r s ʃ t tʃ u uː w z ʔ
bafi1243-1258	Bafia	bafi1243	Atlantic-Congo	Africa	4.72603	11.0982	48	25	18	0	0	25	18	1.3888888888888888	⁴ ⁴² ³ ² ²⁴ a aː ɑ b ɓ d dʒ ɗ e eː ə ɛ ɛː f g gb ɣ i iː ɨ j k kp l m n ɲ ŋ o oː ɔ ɔː p r s t tʃ u uː v ʌ w z
limb1268-1262	Limbum	limb1268	Atlantic-Congo	Africa	6.58608	10.9802	33	23	10	0	0	23	10	2.3	a aː b d dʒ e eː f g ɣ h i iː j k l m n ɲ ŋ o oː r s ʃ t tʃ u uː v w ʒ ʔ
myen1241-1263	Myene	myen1241	Atlantic-Congo	Africa	-1.48741	9.50247	36	29	7	0	0	29	7	4.142857142857143	a ʙ ɓ dʒ ɗ e ɛ f g i j k l m ⁿb ⁿp n ⁿd ⁿdʒ ⁿt ⁿtʃ ɲ ŋ ⁿg ⁿk o ɔ p r s t tʃ u w z β
tune1261-1265	Tunen	tune1261	Atlantic-Congo	Africa	4.75	10.67	26	17	7	0	0	17	7	2.4285714285714284	⁴ ² a b ə ɛ f i j k l m ⁿb n ⁿd ⁿdʒ ɲ ŋ ⁿg o ɔ s t u w x
matu1259-1266	Matumbi	matu1259	Atlantic-Congo	Africa	-8.53734	39.0409	23	15	5	0	0	15	5	3.0	⁴² ² ²⁴ a b d dʒ e g i j l m n ɲ ŋ o p s t tʃ u w
yaoo1241-1267	Yao	yaoo1241	Atlantic-Congo	Africa	-13.6119	35.2387	29	18	7	0	0	18	7	2.5714285714285716	⁴ ⁴² ² ²⁴ a b d dʒ e f g i ɪ j k l m n ɲ ŋ o p s t tʃ u ʊ w β
ndon1254-1269	Ndonga	ndon1254	Atlantic-Congo	Africa	-17.6417	19.1631	30	25	5	0	0	25	5	5.0	a b d ð e f g ɣ h i j k l m n ɲ o p s ʃ t ts u v w x z ʒ ʔ θ
mbuk1240-1270	Mbukushu	mbuk1240	Atlantic-Congo	Africa	-17.6827	22.5026	29	22	7	0	0	22	7	3.142857142857143	a b d ð dʒ e ɛ f ɣ h i j k m n ɲ ŋ o ɔ p r ʃ t t̪ tʃ u v w θ
diri1252-1271	Diriku	diri1252	Atlantic-Congo	Africa	-18.1681	20.6678	28	23	5	0	0	23	5	4.6	a b d dʒ ɛ f g ɣ h ɪ j k l m n ɲ ŋ ɔ p r ʃ t t̪ tʃ ʊ v w β
kwan1273-1272	Kwangali	kwan1273	Atlantic-Congo	Africa	-17.9026	19.256	27	22	5	0	0	22	5	4.4	a b d dʒ ɛ f g h ɪ j k l m n ɲ ŋ ɔ p r s ʃ t tʃ ʊ v w β
lele1276-1275	Lele (Chad)	lele1276	Afro-Asiatic	Africa	9.158	15.81149	36	22	10	1	0	23	10	2.2	⁴ ³ ² a aː b ɓ d ɗ e eː g gb h i iː j k kp l m ⁿb n ⁿd ɲ ŋ ⁿgb o oː p r s t u uː w
mong1338-1277	Mongo	mong1338	Atlantic-Congo	Africa	-1.54228	20.4259	56	45	7	0	0	45	7	6.428571428571429	⁴ ⁴² ² ²⁴ a b bʲ bʷ d dʒ dʒʷ e ɛ f fʲ fʷ g h i j jʷ k kʲ kʷ l m ⁿb mʲ ⁿp mʷ ⁿd ⁿdʒ ⁿs ⁿt ⁿts nʷ ɲ ɲʷ ŋ ⁿg ⁿk o ɔ p pʲ pʷ r s sʲ sʷ t ts tsʷ u w ʔ
long1387-1278	Longto	long1387	Atlantic-Congo	Africa	8.33313	13.0568	31	20	7	0	0	20	7	2.857142857142857	⁴ ⁴² ² ²⁴ a b c ɕ d ɛ g gb i ɪ j ɟ k kp m n ɲ ŋ ŋm ɔ ɸ ɽ t u ʊ w β
mach1266-1283	Machame	mach1266	Atlantic-Congo	Africa	-3.29385	37.0703	46	33	10	0	0	33	10	3.3	⁴ ⁴² ² a aː b d dʒ e eː f g i iː j k l lʲ m ⁿb ⁿp ⁿv n ⁿd ⁿdʒ ⁿs ⁿt ⁿtʃ ⁿz ɲ ŋ ⁿg ⁿk o oː p ɽ ɾ s ʃ t tʃ u uː w β
mbee1249-1285	Mbe	mbee1249	Atlantic-Congo	Africa	6.57067	8.82998	37	26	7	0	0	26	7	3.7142857142857144	⁴ ⁴² ² ²⁴ a b d dz dʒ e ɛ f g gb h i j k kp kʷ l m n ɲ ŋ ŋʷ o ɔ p r s ʃ t ts tʃ u w
ngwe1238-1286	Ngwe	ngwe1238	Atlantic-Congo	Africa	5.49787	9.9028	38	24	14	0	0	24	14	1.7142857142857142	a æ d dʒ e ə ɛ ɤ f g gb h i k kp m n ɲ ŋ o ø œ ɔ p r s t tʳ tʃ u ɯ v ʋ w y z ʔ β
yala1263-1288	Yala	yala1263	Atlantic-Congo	Africa	6.73852	8.60748	38	27	7	1	0	28	7	3.857142857142857	⁴ ³ ² a b c d e ɛ f g gb gʷ i j ɟ k kp kʷ l m ⁿb n ɲ ŋ ⁿgb ŋʷ o ɔ p r s ʃ t u w wʲ x
kete1252-1290	Kete	kete1252	Atlantic-Congo	Africa	-7.15104	22.9027	25	16	5	0	0	16	5	3.2	⁴ ⁴² ³ ² a b d e f g i j k l m n ɲ o p s t u v w z
kwes1244-1291	Kwese	kwes1244	Atlantic-Congo	Africa	-5.60445	18.5759	25	16	6	0	0	16	6	2.6666666666666665	⁴² ⁴²⁴ ²⁴ a b d dʒ e f g h i kʰ l m n o pʰ s tʰ u v w y z
sout2828-1292	Southern Ma'di	sout2828	Central Sudanic	Africa	2.8735	31.25	59	45	9	2	0	47	9	5.0	⁴ ³ ² a b ɓ d dʷ dʒ ɗ e ɛ f g gb gʷ ɠɓ h i ɪ j ʄ k kp kʷ l lʷ m ⁿb ⁿv n ⁿd ⁿdʷ ⁿdʒ ɲ ŋ ⁿg ⁿgʷ ŋm ⁿgb o ɔ p r rʷ s sʷ t tʃ tʃʷ tʷ u ʊ v w z zʷ ʔ ʔʷ
moru1253-1293	Moru	moru1253	Central Sudanic	Africa	5.1232	30.3287	38	26	9	0	0	26	9	2.888888888888889	⁴ ³ ² a b ɓ d̪ dz ɖʳ ɗ e ɛ g gb h i ɪ j k kp l m n ɲ ŋ o ɔ p r s t̪ ts ʈʳ u ʊ w z ʔ
logo1259-1294	Logo	logo1259	Central Sudanic	Africa	3.32608	29.8866	39	27	9	0	0	27	9	3.0	⁴ ³ ² a b ɓ d̪ dz ɖʳ ɗ e ɛ g gb h i ɪ j k kp l m n ɲ ŋ o ɔ p r ɺ s t̪ ts ʈʳ u ʊ w z ʔ
afit1238-1295	Afitti	afit1238	Nyimang	Africa	12.446	30.7611	26	17	6	0	0	17	6	2.8333333333333335	⁴ ³ ² ɑ b c d e ə f g i j ɟ k l m n ɲ ŋ o r s t u w
dghw1239-1299	Dghwede	dghw1239	Afro-Asiatic	Africa	11.05751	13.77847	38	33	3	0	0	33	3	11.0	⁴ ² a b ɓ c d ɗ f g gʷ ɣ ɣʷ i j ɟ k kʷ l ɬ ɮ m ⁿb n ⁿd ⁿɟ ⁿg ⁿgʷ p r s t u v w x xʷ z
eloy1241-1300	Eloyi	eloy1241	Atlantic-Congo	Africa	8.24696	7.97061	51	40	7	1	0	41	7	5.714285714285714	⁴ ³ ² a b bʲ bʷ d dʒ e ɛ f fʲ g gb gʷ i j k kp kʷ m ⁿb ⁿbʷ mʲ mʷ n ⁿd ⁿdʒ ⁿz ɲ ŋ ⁿg ⁿgʷ ⁿgb ŋʷ o ɔ p pʲ pʷ r s ʃ t tɕ u v vʲ w z
nige1253-1301	Hausa States Fulfulde	nige1253	Atlantic-Congo	Africa	10.9972	11.1188	38	28	10	0	0	28	10	2.8	a aː b ɓ d dʒ ɗ e eː f g h i iː j jˀ k l m ⁿb n ⁿd ⁿdʒ ɲ ŋ ⁿg o oː p r s ʃ t tʃ u uː w ʔ
huba1236-1304	Huba	huba1236	Afro-Asiatic	Africa	10.3544	13.139	31	24	5	0	0	24	5	4.8	⁴ ² a b ɓ d̪ dz ɗ ə f g ɣ i ɨ j k l ɬ̪ ɮ̪ m n p r s t̪ ts ɯ v w x z
kofy1242-1305	Pan	kofy1242	Afro-Asiatic	Africa	8.79947	9.15279	36	23	10	0	0	23	10	2.3	⁴ ³ ² a aː b ɓ d dʒ ɗ ɛ ɛː f g i iː j k l m n ŋ ɔ ɔː p r s ʃ t tʃ u uː v w z ʒ
krim1238-1307	Krim	krim1238	Atlantic-Congo	Africa	7.24116	-11.8393	38	22	16	0	0	22	16	1.375	a aː b d dʒ e e̝ eː ɛ ɛː f gb h i iː j k l m ⁿp n ⁿt ⁿt̪ ɲ ŋ o o̝ oː ɔ ɔː p s t t̪ tʃ u uː w
west2458-1308	West Central Banda	west2458	Atlantic-Congo	Africa	6.81435	24.1012	46	30	8	1	2	31	10	3.75	⁴ ⁴² ³ ² ²⁴ a c e ea ə f g gb h i ɨ j ɟ k kp l m ⁿb ⁿv n ⁿd ⁿz ɲ ⁿɟ ⁿg ⁿgb o oa ɔ p ɾ s ʃ t u v ⱱ w z ʒ ʔ
food1238-1310	Foodo	food1238	Atlantic-Congo	Africa	9.56489	1.40486	44	23	18	0	0	23	18	1.2777777777777777	⁴ ⁴² ² a aː b d dʒ e eː ɛ ɛː f g gb h i iː ɪ ɪː j k kp l m n ŋ ŋm o oː ɔ ɔː p r s t tʃ u uː ʊ ʊː v w z
jola1262-1311	Jola-Esulalu	jola1262	Atlantic-Congo	Africa	12.5089	-16.5539	51	31	20	0	0	31	20	1.55	a aː b bː d dʒ e eː ə əː ɛ ɛː f g gː h i iː ɪ ɪː j k kː l l̥ lː l̥ː m mː n nː ɲ ɲː ŋ ŋː o oː ɔ ɔː s sː ʃ ʃː t tː u uː ʊ ʊː w ʔ
jumj1238-1312	Jumjum	jumj1238	Nilotic	Africa	10.4349	33.7494	39	20	16	0	0	20	16	1.25	⁴ ⁴² ² a aː b c d ð ɛ ɛː g i iː ɪ ɪː j ɟ k l m ɱ n ɲ ŋ ɔ ɔː p r t u uː ʊ ʊː ʌ ʌː w ʔ θ
buru1301-1313	Burun	buru1301	Nilotic	Africa	10.725	33.921	38	19	16	0	0	19	16	1.1875	⁴ ⁴² ² a aː b ð ɗ ɛ ɛː g i iː ɪ ɪː j k l m n ɲ ŋ ɔ ɔː p r ʃ t u uː ʊ ʊː ʌ ʌː w z ʔ θ
olub1238-1314	Olu'bo	olub1238	Central Sudanic	Africa	4.6242	31.9103	46	33	9	1	0	34	9	3.6666666666666665	⁴ ³ ² a b ɓ ð dʒ ɖ ɗ e ɛ f g gb i ɪ j ʄ k kp l m ⁿb ⁿd̟ n ⁿdʒ ɲ ⁿɖ ŋ ⁿg ⁿgb o ɔ p r s tʃ ʈ u ʊ v w z ʔ θ
maay1238-1315	Maay	maay1238	Afro-Asiatic	Africa	3.22288	43.6182	32	22	10	0	0	22	10	2.2	a aː b d dʒ ɗ e eː f g ɠ h i iː j ʄ k l m n ɲ o oː p r s ʃ t u uː w ʔ
maba1273-1316	Mabaan	maba1273	Nilotic	Africa	9.81455	33.5404	45	19	14	0	8	19	22	1.3571428571428572	⁴ ⁴² ² ²⁴ a aː b c d ð e eː ɛ ɛː g i iː iːe iːɛ ie iɛ j ɟ k l m n ɲ ŋ ɔ ɔː p r t u uː uːa uːʌ ua uʌ ʌ ʌː w ʔ θ
sher1258-1321	Sherbro	sher1258	Atlantic-Congo	Africa	7.77585	-12.7405	31	24	7	0	0	24	7	3.4285714285714284	a b d dʒ ɛ f g gb h i ɪ j k l m n ɲ ŋ ɔ p ɽ s ʃ t t̪ tʃ u ʊ v z ʔ
mamp1244-1327	Mampruli	mamp1244	Atlantic-Congo	Africa	10.3884	-0.74675	36	24	10	0	0	24	10	2.4	⁴ ² a aː b d dʒ e eː f g gb h i iː j k kp l m n ɲ ŋ ŋm o oː p r s t tʃ u uː v w z
tong1318-1328	Tonga (Zambia)	tong1318	Atlantic-Congo	Africa	-17.422325	27.103495	41	33	5	0	0	33	5	6.6	⁴ ⁴² ² a dʒ e f g h i j k l m ⁿb ⁿp ⁿf ⁿv n ⁿd ⁿdʒ ⁿs ⁿʃ ⁿt ⁿtʃ ⁿz ɲ ŋ ⁿg ⁿk o p s ʃ t tʃ u v w z β
tivv1240-1331	Tiv	tivv1240	Atlantic-Congo	Africa	6.88039	9.26287	40	30	6	1	0	31	6	5.0	⁴ ⁴² ² a b d dz dʒ e f g gb ɣ h i j k kp l m ⁿb n ⁿd ⁿdz ⁿdʒ ɲ ŋ ⁿg ⁿgb o ɔ p s ʃ t ts tʃ u v w
lika1243-1334	Liko	lika1243	Atlantic-Congo	Africa	2.13777	27.6088	45	32	9	1	0	33	9	3.5555555555555554	⁴ ² ²⁴ a b ɓ c d ɗ e ɛ f g gb h i ɪ ɟ k kp l ʎ m ⁿb ⁿv n ⁿd ⁿz ɲ ⁿɟ ⁿʒ ⁿg ⁿgb o ɔ p s ʃ t u ʊ v w z ʒ
budu1250-1336	Budu	budu1250	Atlantic-Congo	Africa	2.00501	27.951	43	30	9	1	0	31	9	3.3333333333333335	⁴ ² ²⁴ a b ɓ d dʑ ɗ e ɛ f g gb gʲ h i ɪ j ʄ k kʲ kp m ⁿb ⁿv n ⁿd ɲ ⁿdʑ ⁿg ⁿgʲ ⁿgb o ɔ p s t tɕ u ʊ v w
kele1255-1337	Kele-Foma	kele1255	Atlantic-Congo	Africa	0.36906	24.3098	30	21	7	0	0	21	7	3.0	⁴ ² a b d e ɛ f gb i j k kp l m ⁿb n ⁿd ɲ ŋ ⁿg ⁿk o ɔ p s t u w χ
leng1258-1338	Lengola	leng1258	Atlantic-Congo	Africa	-1.95874	25.3343	32	24	5	0	0	24	5	4.8	⁴ ³ ² a b ɓ d dʒ ɗ e f g gb i j ʄ k kp l m n ɲ o p s t tʃ u v ⱱ ⱱ̟ w
keli1248-1339	Keliko	keli1248	Central Sudanic	Africa	3.56039	30.556	45	35	6	1	0	36	6	5.833333333333333	⁴ ³ ² a b ɓ d dʒ ɖʳ ɗ e ɛ f g gb h i j jˀ k kp l m ⁿb ⁿv n ⁿd ⁿz ɲ ⁿɖʳ ŋ ⁿg ⁿgb o p r s t tʃ ʈʳ u v w z ʔ
wong1247-1340	Wongo	wong1247	Atlantic-Congo	Africa	-5.73837	20.5054	24	15	7	0	0	15	7	2.142857142857143	⁴ ² a b d dz e ɛ i j k m n ɲ ŋ o ɔ p s t ts u ɰ w
mwal1237-1341	Mwali Comorian	mwal1237	Atlantic-Congo	Africa	-12.3164	43.741	24	19	5	0	0	19	5	3.8	a b ɓ d dz dʒ ɗ e f g i j k m n ɲ o p ʃ tʳ ts u v w
afar1241-1342	Afar	afar1241	Afro-Asiatic	Africa	12.2281	41.8083	27	17	10	0	0	17	10	1.7	a b d ɖ e eː f g h ħ i iː j k l m n o oː r s t u uː ʌ w ʕ
avik1243-1358	Avikam	avik1243	Atlantic-Congo	Africa	5.15838	-5.2529	34	25	6	0	0	25	6	4.166666666666667	⁴ ⁴² ² a b ɓ d dʒ e f g gb ɣ i kp l m n ɲ ŋ ŋm o ɔ p r s ʃ t tʃ u v w z ʒ
shil1265-1359	Shilluk	shil1265	Nilotic	Africa	9.85472	31.7926	54	25	22	0	4	25	26	1.1363636363636365	⁴ ³ ² a aː aɪ au ɑ ɑː b b̪ d ð e e̥ eː e̥ː eɪ ɛ ɛː f g ɣ h i iː ɪ ɪː j ɟʝ k l m ɱ n ɲ ŋ o oː ɔ ɔː ɔɪ p p̪ ɹ t tɕ u uː ʊ ʊː w x θ
haio1238-1360	Hai//om	haio1238	Khoe-Kwadi	Africa	-19.7637	17.0299	29	24	5	0	0	24	5	4.8	a b d dʒ e g h ħ i j k ǀ ǁ ǂ ǃ l m n o p r s t tʃ u w x z ʔ
pero1241-1361	Pero	pero1241	Afro-Asiatic	Africa	9.62092	11.044	30	18	10	0	0	18	10	1.8	⁴ ² a aː b ɓ c d ɗ e eː g i iː j ɟ k l m n ŋ o oː p r t u uː w ʔ
kuny1238-1365	Kunyi	kuny1238	Atlantic-Congo	Africa	-3.69702	12.5197	55	44	7	0	0	44	7	6.285714285714286	⁴ ⁴² ² ²⁴ a bʲ bʷ d dʷ dʒ e f g gʷ h i ɪ j k kʷ m ⁿb ⁿbʷ mʲ ⁿp mʷ n ⁿd ⁿdʷ ⁿdʒ ⁿs ⁿt ⁿtʃ ⁿtʃʷ ⁿtʷ ɲ ⁿg ⁿgʷ ⁿk o p r rʲ rʷ s sʷ ʃ ʃʷ t tʃ tʷ u ʊ w β
otuh1238-1366	Otuho	otuh1238	Nilotic	Africa	4.16379	32.6641	56	33	20	0	0	33	20	1.65	⁴ ³ ² a aː b d e eː ɛ ɛː f g ɣ h ɦ i iː ɪ ɪː j jː ɟ k l lː m n nː ɲ ŋ o oː ɔ ɔː p ɸ r ɺ ɾ s t̪ tʃ u uː ʊ ʊː v ʌ ʌː w wː x ʔ β θ
kamw1239-1368	Kamwe	kamw1239	Afro-Asiatic	Africa	10.646	13.5136	35	26	7	0	0	26	7	3.7142857142857144	⁴ ² a b ɓ d dz ɗ e ɛ ɘ f g ɣ i j k l ɬ ɮ m n ŋ o p r s t ts u v w x z ʔ
many1261-1369	Manya	many1261	Mande	Africa	8.56186	-9.44257	27	18	7	0	0	18	7	2.5714285714285716	⁴ ² a b dʒ ɖ e ɛ f g gb i j k l m n ɲ o ɔ p s t u v w z
saya1246-1370	Saya	saya1246	Afro-Asiatic	Africa	9.69441	9.71748	54	39	12	0	0	39	12	3.25	⁴ ³ ² a aː b ɓ d dz dʒ ɗ e eː ə ɘː f g gʲ i iː j k kʲ l ɬ ɮ m m̩ ⁿb n n̩ ⁿd ⁿdz ⁿdʒ ɳ ŋ ŋ̍ ⁿg ⁿgʲ o oː p r s ʃ t ts tʃ u uː v w z ʒ
njeb1242-1371	Njebi	njeb1242	Atlantic-Congo	Africa	-2.18115	12.7063	34	24	8	0	0	24	8	3.0	⁴ ² a b d e ə ɛ f i j k l m ⁿb ⁿv n ⁿd ⁿz ɲ ŋ ⁿg o ɔ p pf ɾ s ʃ t ts u x β
tada1238-1372	Tadaksahak	tada1238	Songhay	Africa	16.685	2.32653	70	59	11	0	0	59	11	5.363636363636363	a aː b bː d dː dʒ dʒː dˤ dˤː e eː ə f g gː ɣ h ħ hː i iː j jː k kː l lː lˤ lˤː m mː n nː nˤ nˤː ŋ ŋː o oː q qː r rˤ ɾ ɾˤ s sˤ sˤː ʃ ʃː t tː tʃ tʃː tˤ tˤː u uː w wː x xː z zː zˤ zˤː ʒ ʒː ʕ
otor1240-1374	Otoro	otor1240	Heibanic	Africa	11.1187	30.573	44	30	9	0	5	30	14	3.3333333333333335	a ai au b c d d̪ ð dʳ ɗ e̝ ei ə ɛ ɜ g gʷ i j ɟ k kʷ l lː m n ɲ ŋ ŋʷ o ou ɔ ɔi p r rː ɽ t t̪ tʳ u v w β
tira1254-1375	Tira	tira1254	Heibanic	Africa	11.0963	30.8092	42	26	10	0	6	26	16	2.6	a ai au b c d d̪ ð dʳ e e̝ ei ə ɛ ɜ g i j ɟ k l m n ɲ ŋ o oi ou ɔ ɔi p r ɽ ʂ t t̪ tʳ ʈ u v w θ
nyam1285-1376	Nyam	nyam1285	Afro-Asiatic	Africa	9.18024	10.83652	56	38	14	1	0	39	14	2.7142857142857144	⁴ ⁴² ² a aː b ɓ d dʲ dʒ ɗ e eː ɛ ɛː f g gb ɠɓ gʷ h hʷ i iː j k kʲ kp kʷ l m ⁿb ⁿɓ n ⁿd ⁿdʒ ⁿɗ ⁿz ɲ ŋ ⁿg ⁿgʷ o oː ɔ ɔː p r ʃ t tʃ u uː w x ʔ
mawa1270-1378	Mawa (Chad)	mawa1270	Afro-Asiatic	Africa	11.7461	18.2999	33	24	6	0	0	24	6	4.0	⁴ ³ ² a b ɓ c d ɗ e ɘ f g h i j ɟ k l m n ɲ ŋ o p ɾ s t u w z ʔ ˀw
koal1240-1380	Koalib-Rere	koal1240	Heibanic	Africa	11.69648	30.47166	45	29	16	0	0	29	16	1.8125	a aː ɐ ɐː b c d̪ ɗ e eː ɛ ɛː f g i iː j ɟ k kʷ l̪ m ⁿb n̪ ⁿd̪ ɲ ⁿɟ ⁿɖ ŋ ⁿg ⁿgʷ ŋʷ o oː ɔ ɔː p r̪ ɽ ʃ t̪ ʈ u uː w
kagu1239-1381	Kagulu	kagu1239	Atlantic-Congo	Africa	-6.38204	37.0534	31	26	5	0	0	26	5	5.2	a b d dʒ e f g h i j k l m m̥ ⁿb n n̥ ⁿd ⁿdʒ ɲ ŋ ŋ̊ ⁿg o p s ʃ t tʃ u w
ghom1247-1384	Ghomálá'	ghom1247	Atlantic-Congo	Africa	5.39619	10.352	59	36	18	0	0	36	18	2.0	⁴ ⁴² ³ ² ²⁴ a aː ɐ ɐː b bv bβ ɕ d dð dz dʒ e ə ɛ ɛː f g ɣ h i iː j k l m n ɲ ŋ o oː ɔ ɔː p pf pɸ s ʃ t ts tʃ tθ u uː ʉ ʉː ɥ v w x z ʒ ʔ χ
kips1239-1387	Kipsigis	kips1239	Nilotic	Africa	-0.35774	35.258532	37	14	19	0	0	14	19	0.7368421052631579	⁴ ⁴² ² ²⁴ a aː ɑ ɑː ç e eː ɛ ɛː h i ɪ ɪː kʰ l m n ɲ ŋ o oː ɔ ɔː p r s tʰ tʃ u uː ʊ ʊː w
pang1287-1388	Pangwa	pang1287	Atlantic-Congo	Africa	-9.96782	34.8039	35	23	12	0	0	23	12	1.9166666666666667	a aː ɓ ɗ e eː ə əː f h i iː j k l m ⁿb n ⁿd ⁿdʒ ɲ ŋ ⁿg o oː pʰ s ʃ tɕ tʰ tʃ u uː x β
holo1240-1389	Holoholo	holo1240	Atlantic-Congo	Africa	-5.37545	28.3274	26	17	7	0	0	17	7	2.4285714285714284	⁴ ² a b d dʒ e f g i ɪ j k l̪ m n̪ ɲ ŋ o p ɸ ʃ t̪ u ʊ w
buli1254-1390	Buli (Ghana)	buli1254	Atlantic-Congo	Africa	10.5763	-1.26748	46	23	13	0	0	23	13	1.7692307692307692	⁴ ⁴³ ⁴² ³ ³⁴³ ³² ³²³ ² ²⁴ ²³ a aː b d dʒ e eː ɘ f g gb i iː j k kp l m n ɲ ŋ ŋm o ø oː øː p r s t tʃ u uː v w z
bala1302-1391	Balanta-Ganja	bala1302	Atlantic-Congo	Africa	12.5382	-15.6658	50	32	14	1	0	33	14	2.2857142857142856	⁴ ³ ² a aː b dʒ ɗ e eː ɛ ɛː f g gb i iː j k kp l m ⁿb ⁿf n ⁿd ⁿdʒ ⁿs ⁿt ⁿθ ɲ ŋ ⁿg ŋʱ ⁿgb ŋʷ o oː ɔ ɔː p r ʃ tʰ tʃ u uː w ʔ θ
nyam1277-1392	Nyambo	nyam1277	Atlantic-Congo	Africa	-1.6096	30.9156	33	20	10	0	0	20	10	2.0	⁴ ⁴² ² a aː b d dʒ e eː f g h i iː j k m ɱ n ɲ ŋ o oː p r s t tʃ u uː w z
poko1263-1394	Pökoot	poko1263	Nilotic	Africa	1.57023	35.2318	39	17	19	0	0	17	19	0.8947368421052632	⁴ ³ ² a a̤ aː b d e e̤ eː ə ɛ ɛː g i i̤ iː j k l m n ɲ ŋ o o̤ oː ɔ ɔː p r s t tʃ u uː w x
afri1274-1395	Afrikaans	afri1274	Indo-European	Africa	-22.0	30.0	39	16	16	0	7	16	23	1.0	a aː ai b d eɘ ɛ ɛː ɘi f ɦ i iː ɪ̝ ɪ̝ː j k l m n ŋ œ œː œi œu oɘ øɘ ɔ ɔː p r s t u uː v x y yː
buwa1243-1402	Buwal	buwa1243	Afro-Asiatic	Africa	10.6151	13.8838	43	37	2	1	0	38	2	18.5	⁴ ³ ² ɑ b ɓ d dz ɗ ə f g gb gʷ ɣ ɣʷ j k kp kʷ l ɬ ɮ m ⁿb n ⁿd ⁿdz ŋ ⁿg ⁿgʷ ⁿgb ŋʷ p r s t ts v w x xʷ z
hdii1240-1403	Hdi	hdii1240	Afro-Asiatic	Africa	10.942	13.6881	41	37	4	0	0	37	4	9.25	a b ɓ d dz ɗ ə f fʷ g i j k l ɬ ɮ m ⁿb n ⁿd ⁿdz ⁿz ⁿg ⁿgʷ p r ʁ ʁʷ s sʷ t ts u v vʷ w z zʷ ʔ χ χʷ
lama1288-1404	Lamang	lama1288	Afro-Asiatic	Africa	11.0243	13.7362	41	37	4	0	0	37	4	9.25	a b ɓ d ð dz ɗ e f g gʷ ɣ ɣʷ i j k kʷ l m ⁿb n ⁿd ⁿdz ⁿz ŋ ⁿg ⁿgʷ ŋʷ p r s t ts u v w x xʷ z ʔ θ
gbay1281-1407	Gbaya-Mbodomo	gbay1281	Atlantic-Congo	Africa	4.800365	14.606865	38	27	7	1	0	28	7	3.857142857142857	⁴ ³ ² a b ɓ d ɗ e ɛ f g gb h i j k kp l m ⁿb n ⁿd ⁿz ɲ ŋ ⁿg ⁿgb o ɔ p r s t u v w z
mbuk1243-1408	Mbuko	mbuk1243	Afro-Asiatic	Africa	10.7788	14.1677	45	33	8	1	0	34	8	4.125	⁴ ³ ² a b ɓ d dz ɗ e ə f g gʷ h hʷ i j k kp kʷ l ɬ ɮ m ⁿb n ⁿd ⁿdz ⁿg ⁿgʷ ⁿgb o œ p r s t ts u v w y z ʔ
molo1266-1409	Moloko	molo1266	Afro-Asiatic	Africa	10.7933	14.2521	47	31	10	0	0	31	10	3.1	⁴ ⁴² ⁴²⁴ ² ²⁴ ²⁴² a æ b ɓ d dz ɗ ɛ ɘ f g gʷ h hʷ i ɪ j k kʷ l ɬ ɮ m ⁿb n ⁿd ⁿz ⁿg ⁿgʷ œ ɔ p r s t ts u ʊ v w z
muya1243-1410	Muyang	muya1243	Afro-Asiatic	Africa	10.86047	14.21246	46	27	14	0	0	27	14	1.9285714285714286	⁴ ⁴² ³ ² ²⁴ a b ɓ d dz ɗ e ə ɛ f g i ɪ j k l ɬ ɮ m ⁿb n ⁿd ⁿdz ⁿg o ø œ ɔ p r s t ts u ʊ v w x y ʏ z
ngom1272-1411	Ngomba	ngom1272	Atlantic-Congo	Africa	5.63067	10.237	27	19	6	0	0	19	6	3.1666666666666665	⁴ ² a ɛ f ɣ i ɨ j k l m n ŋ ɔ p pf q̚ ʁ s t ts u v w z ʔ
keme1240-1412	Kemezung	keme1240	Atlantic-Congo	Africa	6.69577	10.4984	34	20	8	0	0	20	8	2.5	⁵¹ ⁴ ³ ³² ² ²³ b d dz e ə ɛ ɜ f g gb h i j k kp kpʷ l m n ɲ ŋ o ɔ s t ts u w
wehh1238-1415	Weh	wehh1238	Atlantic-Congo	Africa	6.46164	10.121	47	36	7	1	0	37	7	5.142857142857143	⁴ ⁴² ² a b bv d dz dʒ e f g gb gɣ i ɨ j k kp kx l m ⁿb ⁿbv n ⁿd ⁿdz ⁿdʒ ɲ ŋ ⁿg ⁿgb o ɔ pf ɹ ɾ s ʃ t ts tʃ u v w z ʒ
tuli1249-1416	Tulishi	tuli1249	Kadugli-Krongo	Africa	11.4507	29.108	59	37	19	0	0	37	19	1.9473684210526316	⁴ ³ ² a aː b bː ɓ ɓː c ɗ ɗː e eː ə əː ɛ ɛː f fː h i iː ɪ ɪː j jː ɟ ɟː ʄ k kː l lː m mː n nː ɲ ɲː ŋː o oː ɔ ɔː r rː s sː t̪ t̪ː ʈ ʈː u ʊ ʊː w wː ʔː
keig1242-1417	Keiga	keig1242	Kadugli-Krongo	Africa	11.2064	29.3889	59	37	20	0	0	37	20	1.85	⁴ ² a aː b bː c cː ɗ ɗː e eː ə əː ɛ ɛː f fː i iː ɪ ɪː j jː ɟ ɟː ʄ k kː l lː m mː n nː ɲ ɲː ŋ ŋː o oː ɔ ɔː p pː r rː s sː t̪ t̪ː ʈ ʈː u uː ʊ ʊː w wː
kron1241-1418	Krongo	kron1241	Kadugli-Krongo	Africa	10.514	30.003	62	40	20	0	0	40	20	2.0	⁴ ² a aː b bː ɓ ɓː c cː ɗ ɗː e eː ə əː ɛ ɛː f fː i iː ɪ ɪː j jː ʄ k kː l lː m mː n nː ɲ ɲː ŋ ŋː o oː ɔ ɔː p pː r rː s sː ʃ t̪ t̪ː ʈ ʈː u uː ʊ ʊː w wː ʔ ʔː
kang1288-1419	Kanga	kang1288	Kadugli-Krongo	Africa	11.0174	29.3463	76	54	20	0	0	54	20	2.7	⁴ ² a aː b bː ɓ ɓː c cː d̪ d̪ː ɖ ɖː ɗ ɗː e eː ə əː ɛ ɛː f fː g gː i iː ɪ ɪː j ɟ ɟː ʄ k kː l lː m mː n nː ɲ ɲː ŋ ŋː o oː ɔ ɔː p pː r rː s sː ʃ ʃː t̪ t̪ː ʈ ʈː u uː ʊ ʊː v vː w wː z zː ʒ ʒː ʔ ʔː
kang1288-1420	Kanga	kang1288	Kadugli-Krongo	Africa	11.0174	29.3463	75	53	20	0	0	53	20	2.65	⁴ ² a aː b bː ɓ ɓː d̪ d̪ː ɖ ɖː ɗ ɗː e eː ə əː ɛ ɛː f fː g gː i iː ɪ ɪː j jː ɟ ɟː ʄ k kː l lː m mː n nː ɲ ɲː ŋ ŋː o oː ɔ ɔː p pː r rː s sː ʃ ʃː t̪ t̪ː ʈ ʈː u uː ʊ ʊː v vː w wː z zː ʒ ʒː ʔ ʔː
katc1249-1421	Katcha-Kadugli-Miri	katc1249	Kadugli-Krongo	Africa	10.8423	29.4914	62	39	20	0	0	39	20	1.95	⁴ ³ ² a aː b bː ɓ ɓː ɗ ɗː e eː ə əː ɛ ɛː f fː i iː ɪ ɪː j jː ɟ ɟː ʄ k kː l lː m mː n nː ɲ ɲː ŋ ŋː o oː ɔ ɔː p pː r rː s sː t̪ t̪ː ʈ ʈː u uː ʊ ʊː w wː ʔ ʔː
katc1249-1422	Katcha-Kadugli-Miri	katc1249	Kadugli-Krongo	Africa	10.8423	29.4914	63	41	20	0	0	41	20	2.05	⁴ ² a aː b bː ɓ ɓː c cː ɗ ɗː e eː ə əː ɛ ɛː f fː i iː ɪ ɪː j jː ɟ ɟː ʄ k kː l lː m mː n nː ɲ ɲː ŋ ŋː o oː ɔ ɔː r rː s sː t̪ t̪ː ʈ ʈː u uː ʊ ʊː w wː z zː ʔ ʔː
katc1249-1423	Katcha-Kadugli-Miri	katc1249	Kadugli-Krongo	Africa	10.8423	29.4914	61	39	20	0	0	39	20	1.95	⁴ ² a aː b ɓ ɓː c cː ɗ ɗː e eː ə əː ɛ ɛː f fː i iː ɪ ɪː j jː ɟ ʄ k kː l lː m mː n nː ɲ ɲː ŋ ŋː o oː ɔ ɔː p pː r rː s sː t̪ t̪ː ʈ ʈː u uː ʊ ʊː w wː ʔ ʔː
moro1284-1424	Morokodo	moro1284	Central Sudanic	Africa	5.5103	30.0229	54	41	10	1	0	42	10	4.1	⁴ ² ɑ b ɓ c d dʳ ɗ e ə ɛ f g gb bʳ h hʷ i ɪ j ɟ ʄ k kp pʳ l m ⁿb ⁿv n ⁿd ⁿdʳ ⁿz ɲ ⁿɟ ŋ ⁿg ⁿgb ɔ ɵ p r ɾ s t tʳ tʷ u ʊ v w z ʔ
arin1244-1425	Aringa	arin1244	Central Sudanic	Africa	3.56143	31.3071	49	34	9	1	0	35	9	3.7777777777777777	⁴ ⁴² ³ ² ²⁴ a b ɓ d̪ dʳ dz ɗ e ɛ f g gb i ɪ k kp l m ⁿb ⁿv n ⁿd ⁿdʳ ⁿdz ɲ ŋ ⁿg ŋm ⁿgb o ɔ p ɾ s t̪ tʳ ts u ʊ v z ʔ ˀj ˀw
tese1238-1426	Tese	tese1238	Temeinic	Africa	11.3885	29.5803	47	24	18	0	0	24	18	1.3333333333333333	⁴ ⁴² ³ ² ²⁴ a aː ɓ ɖ ɗ e ə əː ɛ ɛː i iː ɪ ɪː j ɟ k kʷ l lː m mː n nː ɲ ŋ ŋʷ o ɔ ɔː p r s sː t tː ʈ u uː ʊ ʊː w
lumu1239-1427	Lumun	lumu1239	Narrow Talodi	Africa	10.8308	30.253	35	17	16	0	0	17	16	1.0625	⁴ ² a aː c ə əː ɛ ɛː i iː ɪ ɪː j k kʷ l m n ɲ ŋ ŋʷ ɔ ɔː p r ɽ ɾ t t̪ u uː ʊ ʊː w
ache1245-1428	Acheron	ache1245	Narrow Talodi	Africa	10.8827	30.3187	38	18	20	0	0	18	20	0.9	a aː c e eː ə əː ɛ ɛː i iː ɪ ɪː j k kʷ l m n ɲ ɲː ŋ ŋʷ o oː ɔ ɔː p r s t t̪ ts u uː ʊ ʊː w
toch1257-1429	Tocho	toch1257	Narrow Talodi	Africa	10.8828	30.1567	27	15	10	0	0	15	10	1.5	⁴ ² a c e ə ɛ i ɪ j k l m n ɲ ŋ ŋʷ o ɔ p r ɾ t t̪ u ʊ w
dagi1241-1430	Dagik	dagi1241	Narrow Talodi	Africa	10.583	29.9404	26	16	10	0	0	16	10	1.6	a e ə ɛ i ɪ j k l m n ŋ o ɔ p ɸ r ɽ ɾ s t t̪ u ʊ w x
didi1258-1431	Didinga	didi1258	Surmic	Africa	4.21489	33.6869	58	36	18	0	0	36	18	2.0	⁴ ⁴² ² ²⁴ a aː b ɓ d d̪ ð ðː dʒ ɗ e eː ɛ ɛː g ɠ ɣ i iː ɪ ɪː j ʝ ʄ k l lː m mː n nː ɲ ɲː ŋ ŋː o oː ɔ ɔː p r ɾ t̪ t̺ tʃ ʈ u uː ʊ ʊː v w ʒ β
luwo1239-1432	Luwo	luwo1239	Nilotic	Africa	7.35089	28.1378	32	19	10	0	0	19	10	1.9	⁴ ³ ² ɑ b c d d̪ eː ə ɛ g i ɪ j ɟ k l m n n̪ ɲ ŋ oː ɔ p ɾ t t̪ u ʊ w
acol1236-1433	Acoli	acol1236	Nilotic	Africa	3.57738	32.5147	29	17	9	0	0	17	9	1.8888888888888888	⁴ ³ ² ɑ b c d d̪ e ə ɛ g ɪ j ɟ k l m n ɲ ŋ o ɔ p ɾ t u ʊ w
bela1256-1434	Belanda Bor	bela1256	Nilotic	Africa	6.6503	27.8232	38	24	10	1	0	25	10	2.4	⁴ ³ ² ɑ b c d d̪ ɗ e ə ɛ f g gb i ɪ j ɟ k kp l m ⁿb n n̪ ⁿd ɲ ⁿɟ ŋ ⁿgb o ɔ ɾ t u ʊ w
bela1255-1435	Belanda Viri	bela1255	Atlantic-Congo	Africa	7.41311	27.6956	43	27	10	1	0	28	10	2.7	⁴ ⁴² ³ ² ²⁴ ɑ ɓ c d dʒ ɗ e ɛ ɘ f g gb i ɪ j ɟ k kp l m ⁿv n ⁿd ⁿz ⁿɟ ŋ ⁿg ⁿgb o ɔ r s t u ʊ v w z
ndog1248-1436	Ndogo	ndog1248	Atlantic-Congo	Africa	7.73028	27.5588	38	28	5	1	0	29	5	5.6	⁴ ⁴² ³ ² a b ɓ c d ɗ ɛ f g gb ɪ j ɟ k kp l m ⁿb n ⁿd ⁿg ⁿɟ ⁿgb ɔ p r ɾ s t ʊ v ⱱ w z
bade1248-1437	Bade	bade1248	Afro-Asiatic	Africa	12.789	10.6557	46	33	9	0	0	33	9	3.6666666666666665	⁴ ⁴² ² ²⁴ a aː b ɓ d dʒ ɗ ɗʲ eː f g gʷ ħ ħʷ i iː ɨ j ʄ k kʷ l ɬ ɮ m n ɲ ŋ oː p r s ʃ t tʃ u uː v w z ʕ ʕʷ
fern1234-1438	Pichi	fern1234	Indo-European	Africa	3.74	8.78	30	21	7	0	0	21	7	3.0	⁴ ² a b d dʒ e ɛ f g h i j k l m n ɲ ŋ o ɔ p ʁ s ʃ t tʃ u v w
jita1239-1439	Jita	jita1239	Atlantic-Congo	Africa	-1.62681	33.9141	29	17	10	0	0	17	10	1.7	⁴ ² a aː d dʒ e eː f g i iː k l m ⁿb n ⁿd ⁿɟ ⁿg o oː p s t tʃ u uː β
tsot1241-1441	Tsotso	tsot1241	Atlantic-Congo	Africa	0.2975	34.6961	31	19	10	0	0	19	10	1.9	⁴ ² a aː ç e eː f h i iː k l m n ɲ ŋ o oː p r ɺ s ʃ t ts tʃ u uː x β
kamb1297-1443	Kamba (Kenya)	kamb1297	Atlantic-Congo	Africa	-1.60827	37.9532	31	13	14	0	0	13	14	0.9285714285714286	⁵ ⁴ ² ¹ a aː ð e eː ɛ ɛː i iː j k l m n ɲ ŋ o oː ɔ ɔː s t u uː ɥ w β
bafi1243-1444	Bafia	bafi1243	Atlantic-Congo	Africa	4.72603	11.0982	51	27	20	0	0	27	20	1.35	⁴ ⁴² ² ²⁴ a aː b ɓ d dʒ ɗ e eː ə əː ɛ ɛː ɜ ɜː f g gb ɣ h i iː ɨ ɨː j k kp l m n ɲ ŋ o oː ɔ ɔː p r s t tʃ u uː v w z ʔ
lang1324-1445	Lango (Uganda)	lang1324	Nilotic	Africa	2.13867	33.0553	40	18	20	0	0	18	20	0.9	⁴ ² a aː æ æː b d dʒ e eː ɛ ɛː g i iː ɪ ɪː j k l m n ɲ ŋ o oː ɔ ɔː p r s t̪ tʃ u uː ʊ ʊː w z
kisa1263-1446	Kisa	kisa1263	Atlantic-Congo	Africa	0.1529	34.5708	38	24	10	0	0	24	10	2.4	⁴ ⁴² ² ²⁴ a aː e eː f h i iː j k l m ⁿb n ⁿd ⁿdʒ ⁿz ɲ ŋ ⁿg o oː p r s ʃ t ts tʃ u uː w x β
nyol1238-1447	Nyole	nyol1238	Atlantic-Congo	Africa	0.88072	33.9181	36	24	10	0	0	24	10	2.4	⁴ ² a aː b d dʒ e eː g i iː j k l m ⁿb n ⁿd ⁿdʒ ɲ ŋ ⁿg o oː p ɸ r s t tʃ u uː w x β
mwan1247-1448	Mwani	mwan1247	Atlantic-Congo	Africa	-12.5821	40.4601	26	21	5	0	0	21	5	4.2	a b d dʒ e f g i j k l m n ɲ ⁿg o p r s ʃ t tʃ u v w z
kgal1244-1449	Kgalagadi	kgal1244	Atlantic-Congo	Africa	-24.9208	22.72016	53	43	8	0	0	43	8	5.375	⁴ ² a b c cʰ cʷ cʷʰ d dʒ e ɛ g h i ɪ j ɟ k kʰ ǀ ʘ l m n ɲ ŋ ɔ p pʰ q qʰ r s ʃ ʃʷ t tʰ ts tsʰ tsʷ tsʷʰ tʃ tʃʰ tʃʷ tʃʷʰ u ʊ w z ʒ ʒʷ χ
dege1246-1452	Degema	dege1246	Atlantic-Congo	Africa	4.73373	6.80991	36	24	10	0	0	24	10	2.4	⁴ ² a b ɓ d dʒ ɗ e ə ɛ f g gb h i ɪ j k kp l m n ɲ ŋ ŋʷ o ɔ p r s t u ʊ w β
ntch1242-1453	Ntcham	ntch1242	Atlantic-Congo	Africa	9.23971	0.599275	30	21	6	0	0	21	6	3.5	⁴ ³ ² a b d dʒ e f g gb h i j kʰ kp l m n ɲ ŋ ŋm o ɔ pʰ s tʰ tʃʰ u w
prin1242-1454	Principense	prin1242	Indo-European	Africa	1.614	7.392	31	22	7	0	0	22	7	3.142857142857143	⁴ ² a ɓ ɗ e ɛ f g gb i j k kp l ʎ m n ɲ o ɔ p r s t tʃ u v w z ʒ
bagi1246-1469	Bagirmi	bagi1246	Central Sudanic	Africa	11.52392	14.769495	48	29	16	0	0	29	16	1.8125	⁴ ³ ² a aː b ɓ c d̪ ɖ ᶑ e eː ɛ ɘ f g h i iː ɪ j ɟ ʄ k l m n̪ ɲ ŋ o oː ɔ p ɸ r s ʃ t̪ ʈ u uː ʊ v ʌ w z ʔ
ngit1239-1470	Ngiti	ngit1239	Central Sudanic	Africa	1.30455	30.2242	56	43	5	1	0	44	5	8.6	⁴ ⁴² ³ ³² ² ²⁵¹ ²³ a b bv ɓ ɓ̥ c d dz ɖʳ ɗ ɗ̥ e f g gb h i j ɟ ʄ ʄ̥ k kp l m ⁿb ⁿv n ⁿd ⁿz ɲ ⁿɟ ⁿɖʳ ⁿg ⁿgb o p pf r s t ts ʈʳ u v w z ʔ β
ndal1241-1471	Ndali	ndal1241	Atlantic-Congo	Africa	-9.88948	33.6118	31	17	10	0	0	17	10	1.7	⁴ ⁴² ² ²⁴ a aː e eː f g ɣ h i iː j k l m n ɲ ŋ o oː s ʃ tʃ u uː ʋ w z
ngas1238-1473	Ngasa	ngas1238	Nilotic	Africa	-2.97716	37.528	31	22	9	0	0	22	9	2.4444444444444446	a ɓ d̪ e ɛ g h i ɪ j jː ʄ k l̪ m n̪ ɲ ŋ o ɔ p r̪ r̪ː ɽ s̪ ʃ t̪ u ʊ w wː
sooo1256-1476	Soo	sooo1256	Kuliak	Africa	2.58367	34.7595	28	18	10	0	0	18	10	1.8	a ɓ ɗ e ɛ ɠ i ɪ j ʄ k l m n ɲ ŋ o ɔ p r s t tʃ u ʊ ʌ w ʔ
mayo1261-1488	Mayogo	mayo1261	Atlantic-Congo	Africa	2.79827	27.8282	46	32	10	1	0	33	10	3.2	⁴ ³ ² a b ɓ d dʒ ɗ ɗʲ e ɛ f g gb ɦ i ɪ ɨ j k kp l m ⁿb ⁿv n ⁿd ⁿdʒ ɲ ⁿg ⁿgb o ɔ p r s t tʃ u ʊ v w x z ʔ
saam1283-1489	Saamia	saam1283	Atlantic-Congo	Africa	0.3652	34.0335	34	20	10	0	0	20	10	2.0	⁴ ⁴² ² ²⁴ a aː b d dʒ e eː f g h i iː j k l m n ɲ ŋ o oː r s t tʃ u uː w x β
nari1240-1493	Narim	nari1240	Surmic	Africa	4.80331	33.3312	34	22	9	0	0	22	9	2.4444444444444446	⁴ ⁴² ² a b c d̪ ð ɖ e ɛ g gʷ h i ɪ j ɟ k kʷ l m n ɲ ŋ o ɔ p r t̪ u ʊ v w
bidy1244-1494	Kangaki-Kagbaaga-Kajoko Bidyogo	bidy1244	Atlantic-Congo	Africa	11.1097	-16.1497	25	18	7	0	0	18	7	2.5714285714285716	a b d e ɛ g gb i j ɟ k kp m n ɲ ŋ o ɔ p r s t ʈ u w
domp1238-1495	Dompo	domp1238	Atlantic-Congo	Africa	8.182	-2.295	31	22	7	0	0	22	7	3.142857142857143	⁴ ² a b c d e ɛ f g h i j ɟ k l m n ŋ o ɔ p r s ʃ t u v w z ʒ
heib1243-1497	Ebang	heib1243	Heibanic	Africa	11.2908	30.5282	34	27	7	0	0	27	7	3.857142857142857	a b ɓ c d d̪ ɗ e ɘ f g h i j ɟ k l m n ɲ ŋ o ɔ p r ɽ s t t̪ u v w x z
shwa1239-1499	Shwai	shwa1239	Heibanic	Africa	11.2708	30.3533	38	25	10	0	0	25	10	2.5	⁴ ⁴² ² a b c d̪ ð ɗ e ə ɛ f g i ɪ j ɟ k l m n ɲ ŋ o ɔ p r ɽ s ʃ t̪ ʈ u ʊ v w x
gaaa1245-1500	Gaa	gaaa1245	Atlantic-Congo	Africa	8.4809	11.9603	34	22	9	0	0	22	9	2.4444444444444446	⁴ ³ ² a b ɓ d dʒ ɗ e ɛ f g gb gbⁿ i ɟ k kpⁿ kp l m n o œ ɔ p s t u v ⱱ w y
kuan1247-1501	Kuanyama	kuan1247	Atlantic-Congo	Africa	-17.7176	16.58	33	26	5	0	0	26	5	5.2	⁴ ² a d dʒ ɛ f fʲ i j k l lʲ m m̥ ⁿb n n̥ ⁿd ⁿdʲ ⁿdʒ ɲ ŋ̊ ⁿg ɔ p ʃ t u v w x ʒ
mbal1255-1502	Mbalanhu	mbal1255	Atlantic-Congo	Africa	-19.593	16.617	31	23	6	0	0	23	6	3.8333333333333335	⁴ ² a ɛ f h i k l lʲ m m̥ ⁿb n n̥ ⁿd ⁿdʒ ɲ ɲ̊ ŋ̊ ⁿg ɔ p s ʃ t u v w y z
kwam1251-1503	Kwambi	kwam1251	Atlantic-Congo	Africa	-18.0339	15.7294	37	29	6	0	0	29	6	4.833333333333333	⁴ ² a ð ɛ ɣ h i k m ⁿb ⁿp ⁿv n n̥ ⁿd ⁿdʒ ɲ ⁿʒ ⁿg ⁿk ɔ p r rʲ s ʃ t ts tʃ u v w x y z θ
ngan1300-1504	Ngandyera	ngan1300	Atlantic-Congo	Africa	-16.6359	21.1928	37	30	5	0	0	30	5	6.0	⁴ ² a ð ɛ ɣ i j k l lʲ m m̥ ⁿb n n̥ ⁿd ⁿdʲ ⁿdʒ ɲ ɲ̊ ⁿʒ ŋ̊ ⁿg ɔ p s ʃ t ts tʃ u v w z ʒ θ
ndon1254-1505	Ndonga	ndon1254	Atlantic-Congo	Africa	-17.6417	19.1631	36	29	5	0	0	29	5	5.8	⁴ ² a ð ɛ ɣ i j k l lʲ m m̥ ⁿb n n̥ ⁿd ⁿdʲ ⁿdʒ ɲ ɲ̊ ŋ ⁿg ɔ p s ʃ t ts tʃ u v w z ʒ θ
ndon1254-1506	Ndonga	ndon1254	Atlantic-Congo	Africa	-17.6417	19.1631	36	29	5	0	0	29	5	5.8	⁴ ² a ð dʲ ɛ ɣ i j k l m m̥ ⁿb n n̥ ⁿd ⁿdʲ ⁿdʒ ɲ ɲ̊ ŋ ⁿg ɔ p s ʃ t ts tʃ u v w z ʒ θ
ndon1254-1507	Ndonga	ndon1254	Atlantic-Congo	Africa	-17.6417	19.1631	36	29	5	0	0	29	5	5.8	⁴ ² a ð dʲ ɛ ɣ i j k l m ⁿb m̥ʰ n n̥ ⁿd ⁿdʲ ⁿdʒ ɲ ɲ̊ ⁿʒ ŋ ⁿg ɔ p s ʃ t ts tʃ u v w z θ
zagh1240-1509	Beria	zagh1240	Saharan	Africa	17.4842	23.4626	33	21	9	0	0	21	9	2.3333333333333335	⁴ ³ ² a b c d e ɛ f g h i ɪ j ɟ k l m n ɲ ŋ o ɔ p r s ʃ t u ʊ w ʔ
zayy1238-1510	Zay	zayy1238	Afro-Asiatic	Africa	8.01148	38.8258	37	23	14	0	0	23	14	1.6428571428571428	a aː b d dʒ e eː ə əː f g h i iː ɨ ɨː j k l m n ɲ o oː q r s ʃ t tʃˀ tˀ u uː w z ʒ ʔ
bena1262-1513	Bena (Tanzania)	bena1262	Atlantic-Congo	Africa	-9.26671	35.0364	34	22	10	0	0	22	10	2.2	⁴ ² a aː b d eː ɛ f g h i iː j kʰ l m ⁿb n ⁿd ⁿs ɲ ŋ ⁿg o oː pʰ s tʰ ts u uː v w
kaka1265-1515	Kakabe	kaka1265	Mande	Africa	10.5962	-11.4418	38	22	14	0	0	22	14	1.5714285714285714	⁴ ² a aː b d dʒ e eː ɛ ɛː f g gb h i iː j k l m n ⁿd ⁿdʒ ɲ ŋ o oː ɔ ɔː p r s t tʃ u uː w
lele1266-1516	Lele (Guinea)	lele1266	Mande	Africa	8.98043	-10.371	28	19	7	0	0	19	7	2.7142857142857144	⁴ ² a ɓ dʒ ɗ e ɛ f g h i j k kp l m n ɲ o ɔ p r s t u v w
bank1256-1522	Bankon	bank1256	Atlantic-Congo	Africa	4.3702	9.6403	37	26	7	0	0	26	7	3.7142857142857144	⁴ ⁴² ² ²⁴ a bʷ ɓ d dʒ e ɛ f i j k kp kʷ l m ⁿbʷ mʷ n ⁿd ⁿdʒ ɲ ŋ ⁿg ⁿgʷ o ɔ p r s t tʃ u w
aghe1239-1524	Aghem	aghe1239	Atlantic-Congo	Africa	6.38956	10.0807	49	28	19	0	0	28	19	1.4736842105263157	⁴ ² a aː ɒ ɒː b bv d dz dʒ e eː ɛ ɛː f g gb ɣ i iː ɪ ɪː j kʰ kp l m n ɲ ŋ ŋm o oː ɔ ɔː pf pʰ ʃ tʰ ts tʃ u uː ʊ v w ʒ ʔ
adio1239-1527	Adioukrou	adio1239	Atlantic-Congo	Africa	5.38228	-4.52522	32	21	7	0	0	21	7	3.0	⁴ ³ ² ²⁴ a b d dʒ e ɛ f g gb h i j k kp l m n ɲ ŋ o ɔ p r s t tʃ u w
tiag1235-1528	Tiagbamrin Aizi	tiag1235	Atlantic-Congo	Africa	5.28022	-4.62352	32	24	8	0	0	24	8	3.0	a b ɓ c d e ɛ f g gb i ɪ j ɟ k kp l m n ɲ ŋ o ɔ p s ʃ t ʊ v w z ʒ
ashe1269-1530	Ashe	ashe1269	Atlantic-Congo	Africa	9.36574	7.39443	36	24	9	0	0	24	9	2.6666666666666665	⁴ ³ ² a b c d e ɛ f g gb ɣ h i ɪ j ɟ k kp m n ɲ ŋ o ɔ p r ɽ s ʃ t u ʊ w z
ngaz1238-1531	Ngazidja Comorian	ngaz1238	Atlantic-Congo	Africa	-11.6129	43.36	48	41	5	0	0	41	5	8.2	⁴ ² a b ɓ d̪ dz dʒ ɖ ɗ e f g h i j k l m ⁿb ⁿɓ n ⁿd ⁿdz ⁿdʒ ⁿɗ ⁿt ⁿts ⁿtʃ ɲ ⁿg ⁿk o p r s ʃ t̪ ts tʃ ʈ u v w z ʒ ʔ β
eten1239-1533	Eten	eten1239	Atlantic-Congo	Africa	9.73073	8.61443	74	63	6	0	0	63	6	10.5	⁴ ⁴² ³ ² ²⁴ a b bʲ d dʷ dʲʷ dz dzʷ dʒ dʒʷ e ɛ f g gb gbʲ gʲ gʷ gʲʷ h hʲ hʷ hʲʷ i j jʷ k kʲ kp kpʲ l lʲ lʷ lʲʷ m mʷ n nʲ nʷ nʲʷ ɲ ŋ o p pf pʲ ɸ ɸʲ ɾ ɾʲ ɾʷ ɾʲʷ s ʃ ʃʷ t tʲ ts tsʷ tʃ tʃʷ tʷ u v ⱱ w z ʒ β
kagf1238-1535	Ut-Main	kagf1238	Atlantic-Congo	Africa	11.5319	4.8387	56	36	16	0	0	36	16	2.25	⁵¹ ⁴ ³ ² a aː b bʲ d dʒ dʒʷ e eː ɛ ɛː ɘ ɘː f g gʲ gʷ h hʲ i iː j k kʲ kʷ m mʲ n nʲ o oː ɔ ɔː p pʲ r rʲ rʷ s sʷ ʃ t tʃ tʃʷ u uː v vʲ w z zʷ ʔ
izer1241-1538	Izere	izer1241	Atlantic-Congo	Africa	9.5	8.7	39	27	7	0	0	27	7	3.857142857142857	⁴ ⁴² ³ ² ²⁴ a b c d e ɛ f g gb h i j ɟ k kp l n ɲ ŋ ŋm o ɔ p ɸ r s ʃ t ts u v w z ʒ
jere1244-1539	Jere	jere1244	Atlantic-Congo	Africa	10.1962	8.95834	44	24	16	0	0	24	16	1.5	⁵ ⁴ ³ ² a aː b d dʒ e eː ə əː ɛ ɛː f g gb h i iː j k l m n ɲ ŋ o oː ɔ ɔː p r s ʃ t tʃ u uː v w z ʒ
legb1242-1540	Legbo	legb1242	Atlantic-Congo	Africa	6.02645	7.98385	53	38	12	0	0	38	12	3.1666666666666665	⁴ ³ ² a aː b bː d dː dzː dʒː e eː ɛ ɛː fː g gː gb gbː i j jː k kː kp kpː l lː m mː n nː ɲː ŋ ŋː o oː ɔ ɔː p pː sː t tː tʃ tʃː u v vː w wː z
logb1245-1541	Logba	logb1245	Atlantic-Congo	Africa	6.92838	0.43068	35	25	7	0	0	25	7	3.5714285714285716	⁴ ² ²⁴ a b d dz ɖ e ɛ f g gb ɦ i j k kp l m n ɲ ŋ o ɔ p r s t ts u v w x z
glav1244-1543	Glavda	glav1244	Afro-Asiatic	Africa	11.1334	13.8652	43	34	7	0	0	34	7	4.857142857142857	⁴ ² a aː b ɓ c ç d dz dʒ ɗ e ə f g ɣ iː j ʝ ɟ k l ɬ ɮ m n ɲ ŋ p r s ʃ t ts tʃ u uː v w x z ʒ
rong1268-1546	Ronga	rong1268	Atlantic-Congo	Africa	-26.7329	32.6167	69	64	5	0	0	64	5	12.8	a b bv bˢʷ ɓ d dɮʷ dz dʒ ɖʐ ɖʐʷ ɗ e f g gʷ gʷʱ gǂ ɦ i j k kʰ kʷ kʷʰ l lʷ ɬ ɬʷ m mʱ n nʱ nʷ nʷʱ ɲ ɲʷ ŋʷ o p pf pfʰ pʰ pˢʷ pˢʷʰ r s sʷ ʃ ʃʷ t tʰ ts tsʰ tʃ tʃʰ tʷ ʈʂ ʈʂʰ ʈʂʷ u v vʱ w wʱ z ʐ ʐʷ ʒ
ndzw1235-1547	Ndzwani Comorian	ndzw1235	Atlantic-Congo	Africa	-12.2123	44.3709	39	32	5	0	0	32	5	6.4	⁴ ² a b d dz dʒ ɖ e f g h i j k l m ⁿb n ⁿdʳ ⁿdz ⁿdʒ ɲ ⁿg o p r s ʃ t ts tʃ ʈ u v w z ʒ ʕ
kuwa1246-1549	Kuwaataay	kuwa1246	Atlantic-Congo	Africa	12.48255	-16.74835	34	20	10	0	0	20	10	2.0	⁵ ⁴ ³ ² a aː b e eː f h i iː j ɟ k l̪ m n ɲ ŋ o oː p r s ʃ t̪ u uː v w z ʒ
uppe1455-1553	Upper Guinea Crioulo	uppe1455	Indo-European	Africa	13.2335066667	-15.33254	28	23	5	0	0	23	5	4.6	a b c d e f g i j ɟ k l lʲ m n ɲ ŋ o p ɾ s ʃ t u v w z ʒ
akoo1248-1554	Akoose	akoo1248	Atlantic-Congo	Africa	4.9243	9.65522	32	18	12	0	0	18	12	1.5	⁴ ² aː ɑ b c d e ə ɛ g h i iː j ɟ k l m n ɲ o ø ɔ ɔː p s t uː w z ʔ
baka1273-1555	Bakaka	baka1273	Atlantic-Congo	Africa	4.79991	9.80402	34	19	13	0	0	19	13	1.4615384615384615	⁴ ² a aː b d e eː ɛ ɛː g h i iː j ɟ k l m n ɲ ŋ o oː ɔ ɔː p s ʃ t u w z ʔ
baka1273-1556	Bakaka	baka1273	Atlantic-Congo	Africa	4.79991	9.80402	31	15	14	0	0	15	14	1.0714285714285714	⁴ ² a aː b d e eː ɛ ɛː f g h i iː j ɟ m n ŋ o oː ɔ ɔː p s t u uː w z
baka1273-1557	Bakaka	baka1273	Atlantic-Congo	Africa	4.79991	9.80402	32	16	14	0	0	16	14	1.1428571428571428	⁴ ² a aː b d e eː ɛ ɛː g h i iː j ɟ k l m n ɲ ŋ o oː ɔ ɔː p s t u uː w
mboc1235-1558	Mbo (Cameroon)	mboc1235	Atlantic-Congo	Africa	5.13981	9.92766	35	19	14	0	0	19	14	1.3571428571428572	⁴ ² a ɑ b d e eː ə əː ɛ g h i iː ɟ k l m n ɲ ŋ ø ɔ p s ʃ t u uː ʊ w z ʒ ʔ
bass1260-1559	Bassossi	bass1260	Atlantic-Congo	Africa	5.23655	9.52275	34	20	12	0	0	20	12	1.6666666666666667	⁴ ² a ɑ b d ə əː ɛ g gb h i iː j ɟ k kp l m n ɲ ŋ o ɔ ɔː p s t u uː w z ʔ
mboc1235-1560	Mbo (Cameroon)	mboc1235	Atlantic-Congo	Africa	5.13981	9.92766	36	21	13	0	0	21	13	1.6153846153846154	⁴ ² a b d e ə əː ɛ ɛː f g i iː j jˀ ɟ k l m n ɲ ŋ o ø ɔ p s ʃ t u uː w z ʒ ʔ
eton1253-1563	Eton-Mengisa	eton1253	Atlantic-Congo	Africa	4.21045	11.3935	38	21	15	0	0	21	15	1.4	⁴ ² a aː b d dʒ e eː ə ɛ ɛː g gb i iː j k kp l m n ɲ ŋ ŋm o oː ɔ ɔː p s t tʃ u uː v w z
nucl1440-1565	Masalit	nucl1440	Maban	Africa	13.2733	22.1752	45	31	10	0	0	31	10	3.1	⁴ ⁴² ² ²⁴ a b d dʒ e ə ɛ f g h i ɨ j k kː ǀ ǃ l lː m mː n ɲ ŋ o ɔ p r rː s ʃ t tʃ u ɥ v ʌ w x z ʔ
nucl1696-1567	Tangale	nucl1696	Afro-Asiatic	Africa	9.75444	11.3228	60	40	18	0	0	40	18	2.2222222222222223	⁴ ² a aː b bʷ ɓ ɓʷ d d̪̚ dʷ dʒ ɗ ɗʷ e eː ɛ ɛː g gʷ h i iː ɪ ɪː j jʷ k kʷ l m ⁿb n ⁿd ⁿdʒ ŋ ⁿg o oː ɔ ɔː p r rʷ s sʷ ʃ ʃʷ t tʷ u uː ʊ ʊː w z zʷ ʒ ʒʷ ʔ
suku1261-1568	Sukuma	suku1261	Atlantic-Congo	Africa	-3.16082	32.8765	57	38	14	0	0	38	14	2.7142857142857144	⁴ ⁴² ³ ² ²⁴ a aː cʰ d e eː ɛ ɛː f g h i iː j ɟ kʰ l m ⁿb mʱ ⁿpʱ ⁿfʱ ⁿv n ⁿd nʱ ⁿsʱ ⁿʃ ⁿtʱ ⁿz ɲ ⁿcʰ ɲʱ ⁿɟ ŋ ⁿg ŋʱ ⁿkʱ o oː ɔ ɔː pʰ s ʃ tʰ u uː v w z β
mori1278-1569	Morisyen	mori1278	Indo-European	Africa	-20.2613	57.5517	30	21	9	0	0	21	9	2.3333333333333335	a æ̃ ɑ b d̪ dʒ e ə f g i j j̃ k l m n ŋ o ɔ p r s t̪ t̰ tʃ u v w z
krio1253-1570	Krio	krio1253	Indo-European	Africa	10.8811	-14.3204	35	25	7	0	0	25	7	3.5714285714285716	⁴ ³ ² a b c d̪ e ɛ f g gb h i j ɟ k kp l̪ m n̪ ɲ o ɔ p ʁ s ʃ t̪ u v w z ʒ θ
kitu1246-1571	Kituba (Democratic Republic of Congo)	kitu1246	Atlantic-Congo	Africa	-2.29601	17.1548	22	15	5	0	0	15	5	3.0	⁴ ² a b d e f g i j k l m n o p s t u v w z
tuki1240-1573	Tuki	tuki1240	Atlantic-Congo	Africa	4.64348	11.5353	39	24	10	1	0	25	10	2.4	⁴ ⁴² ² ²⁴ a aː b d dʒ e ə g gb h i j k kp m ⁿb n ⁿd ⁿdʒ ɲ ŋ ⁿg ⁿgb o oː ɔ ɔː p r s t tʃ u w β
baka1272-1574	Baka (Cameroon)	baka1272	Atlantic-Congo	Africa	2.16013	13.7804	35	24	7	1	0	25	7	3.4285714285714284	⁴ ³ ² a b ɓ d dʒ ɗ e ɛ g gb h i j k kp l m ⁿb n ⁿd ⁿdʒ ɲ ⁿg ⁿgb o ɔ ɸ s t u w ʔ
bumm1238-1575	Bum	bumm1238	Atlantic-Congo	Africa	6.48655	10.418	47	37	7	0	0	37	7	5.285714285714286	⁴ ⁴² ² a b bʷ d dʲ dʒ dʒʲ dʒʷ ə ɛ f fʷ g gb gʷ ɣ h i ɨ j jʷ k kp kʷ l lʷ m mʷ n nʷ ɲ ɔ s ʃ ʃʲ ʃʷ t tʲ tʃ tʃʲ tʃʷ tʷ u w
nucl1683-1576	Daba	nucl1683	Afro-Asiatic	Africa	10.3521	13.6318	46	35	6	1	0	36	6	5.833333333333333	⁴ ⁴² ³ ² a b ɓ d dʒ ɗ ɛ f g gb gʷ i ɨ j k kp kʷ l ɬ ɮ m ⁿb n ⁿd ⁿdʒ ⁿg ⁿgb ⁿgʷ ɔ p r s t tʃ u v ⱱ w x z ʔ ʔʷ
gava1241-1577	Gavar	gava1241	Afro-Asiatic	Africa	10.5603	13.8188	55	46	5	1	0	47	5	9.2	⁴ ³ ² ɑ b ɓ d dz dʒ ɗ e ə f g gb gʷ ɣ ɣʷ i j k kp kʷ l ɬ ɮ m ⁿb n ⁿd ⁿdz ⁿdʒ ŋ ⁿg ⁿgʷ ⁿgb ŋʷ p pt r s ʃ t ts tʃ u v ⱱ w x xʷ z ʒ ʔ ʔʷ
gude1246-1578	Gude	gude1246	Afro-Asiatic	Africa	10.2138	13.403	36	30	4	0	0	30	4	7.5	⁴ ² a aː b ɓ d dz ɗ ə əː f g ɣ k l ɬ m ⁿb ⁿv n ⁿd ⁿdz ŋ ⁿg ⁿɣ p ɾ s t ts v ⱱ x z ʔ
igoo1238-1580	Igo	igoo1238	Atlantic-Congo	Africa	7.25499	0.67846	33	23	7	0	0	23	7	3.2857142857142856	⁴ ³ ² a b c d ɖ e ɛ f g gb h i j ɟ k kp l m n ɲ ŋ o ɔ p s t u v w z
kwan1276-1582	Kwanja	kwan1276	Atlantic-Congo	Africa	6.30293	11.6931	43	21	18	0	0	21	18	1.1666666666666667	⁵ ⁴ ² ¹ a aː b d dʒ e eː ə əː ɛ f g gb h i iː ɨ ɨː j k kp l m n ɲ ŋ o oː ɔ ɔː p s t tʃ u uː v w y
came1252-1583	Donga Mambila	came1252	Atlantic-Congo	Africa	6.43829	11.41953	35	20	11	0	0	20	11	1.8181818181818181	⁵ ⁴ ² ¹ a aː b bv d dʒ e eː f g h i iː j k l m n ɲ ŋ o oː ɔ p s t tʃ u uː v w
mere1246-1584	Merey	mere1246	Afro-Asiatic	Africa	10.7458	14.09	44	33	8	0	0	33	8	4.125	⁴ ³ ² a b ɓ d dz ɗ ə ɛ f g gʷ h hʷ i j k kʷ l ɬ ɮ m ⁿb n ⁿd ⁿdz ŋ ⁿg ⁿgʷ œ ɔ p r s t ts u v w y z ʔ
wand1278-1585	Wandala	wand1278	Afro-Asiatic	Africa	11.3169	13.8996	52	45	5	0	0	45	5	9.0	⁴ ² a aː b ɓ d dz dʒ ɗ e f g gʲ gʷ h hʷ iː j ʄ k kʲ kʷ l ɬ ɬʲ ɮ ɮʲ m ⁿb n ⁿd ⁿdz ⁿdʒ ɳ ŋ ⁿg ⁿgʲ ⁿgʷ ŋʷ p r s ʃ t ts tʃ uː v w z ʒ
chon1287-1586	Chonyi-Dzihana-Kauma	chon1287	Atlantic-Congo	Africa	-6.518	38.672	47	39	5	1	0	40	5	7.8	⁴ ² a b d d̪ ð dz dʒ e f g gb h ɦ i j k kp l m ⁿb n ⁿd ⁿd̪ ⁿdz ⁿdʒ ɲ ŋ ⁿg ŋm ⁿgb o p r s ʃ t t̪ ts tʃ u v w z ʔ β
digo1243-1587	Digo	digo1243	Atlantic-Congo	Africa	-4.62101	39.1752	48	40	5	1	0	41	5	8.0	⁴ ² a b d d̪ ð dz dʒ e f g gb h ɦ i j k kp l m ⁿb n ⁿd ⁿd̪ ⁿdz ⁿdʒ ɲ ŋ ⁿg ŋm ⁿgb o p r s ʃ t t̪ ts tʃ u v w z ʒ ʔ β
duru1249-1588	Duruma	duru1249	Atlantic-Congo	Africa	-4.09629	39.322	47	39	5	1	0	40	5	7.8	⁴ ² a b d d̪ ð dz dʒ e f g gb h ɦ i j k kp l m ⁿb n ⁿd ⁿd̪ ⁿdz ⁿdʒ ɲ ŋ ⁿg ŋm ⁿgb o p r s ʃ t t̪ ts tʃ u v w z ʔ β
giry1241-1589	Giryama	giry1241	Atlantic-Congo	Africa	-3.30638	39.6648	47	39	5	1	0	40	5	7.8	⁴ ² a b d d̪ ð dz dʒ e f g gb h ɦ i j k kp l m ⁿb n ⁿd ⁿd̪ ⁿdz ⁿdʒ ɲ ŋ ⁿg ŋm ⁿgb o p r s ʃ t t̪ ts tʃ u v w z ʔ β
giry1241-1590	Giryama	giry1241	Atlantic-Congo	Africa	-3.30638	39.6648	47	39	5	1	0	40	5	7.8	⁴ ² a b d d̪ ð dz dʒ e f g gb h ɦ i j k kp l m ⁿb n ⁿd ⁿd̪ ⁿdz ⁿdʒ ɲ ŋ ⁿg ŋm ⁿgb o p r s ʃ t t̪ ts tʃ u v w z ʔ β
giry1241-1593	Giryama	giry1241	Atlantic-Congo	Africa	-3.30638	39.6648	47	39	5	1	0	40	5	7.8	⁴ ² a b d d̪ ð dz dʒ e f g gb h ɦ i j k kp l m ⁿb n ⁿd ⁿd̪ ⁿdz ⁿdʒ ɲ ŋ ⁿg ŋm ⁿgb o p r s ʃ t t̪ ts tʃ u v w z ʔ β
giry1241-1594	Giryama	giry1241	Atlantic-Congo	Africa	-3.30638	39.6648	47	39	5	1	0	40	5	7.8	⁴ ² a b d d̪ ð dz dʒ e f g gb h ɦ i j k kp l m ⁿb n ⁿd ⁿd̪ ⁿdz ⁿdʒ ɲ ŋ ⁿg ŋm ⁿgb o p r s ʃ t t̪ ts tʃ u v w z ʔ β
vame1236-1595	Vame	vame1236	Afro-Asiatic	Africa	10.9481	14.2131	46	38	5	0	0	38	5	7.6	⁴ ³ ² a b ɓ d dz dʒ ɗ e ə g gʷ ɣ ɣʷ h hʷ i j k kʷ l ɬ ɮ m ⁿb n ⁿd ⁿdʒ ⁿz ŋ ⁿg ⁿgʷ ŋʷ p r s ʃ t ts tʃ u w z ʒ
mmaa1238-1596	Mmaala	mmaa1238	Atlantic-Congo	Africa	4.52188	11.0599	34	23	9	0	0	23	9	2.5555555555555554	⁴ ² a b d e ɛ f g i ɪ j k l m ⁿb ⁿpʰ ⁿf n ⁿd ⁿtʰ ɲ ŋ ⁿg ⁿkʰ o ɔ p s t tʃ u ʊ w
mofu1248-1598	Mofu-Gudur	mofu1248	Afro-Asiatic	Africa	10.567	14.0314	40	34	5	1	0	35	5	6.8	a aː b ɓ d dʒ ɗ e eː ə f g gb gʷ h hʷ j k kp kʷ l ɬ ɮ ⁿb n ⁿd ⁿdʒ ŋ ⁿgʷ ⁿgb p r s t tʃ v ⱱ w z ʔ
mbee1250-1599	Mbe'	mbee1250	Atlantic-Congo	Africa	6.25838	11.0906	57	48	7	0	0	48	7	6.857142857142857	⁴ ² a b bʲ bʷ d dʷ dz dzʷ dʒ dʒʷ e ɛ f fʷ g gb gʲ gʷ i j jʷ k kʲ kp kʷ l lʲ lʷ m mʲ mʷ ɲ ɲʷ ŋ ŋʷ o ɔ p pʲ pʷ r rʲ rʷ s sʷ ʃ ʃʷ t ts tsʷ tʃ tʃʷ tʷ u w
mfum1238-1601	Southern Mfumte	mfum1238	Atlantic-Congo	Africa	6.6	10.936386	89	72	10	2	0	74	10	7.2	⁵¹ ⁴² ³ ² ²⁴ a b bˠ bʱ bʲ d dz dʒ e ə f fʷ g gb gʲ gʷ ɣ h hʲ hᶣ hʷ i j k kʲ kp kʷ l m ⁿb ⁿbˠ ⁿbʲ ⁿp ⁿpʲ ⁿf ⁿfʲ ⁿv n ⁿd ⁿdz ⁿdʒ ⁿs ⁿʃ ⁿt ⁿts ɲ ɲʷ ŋ ⁿgʲ ⁿgʷ ⁿɣ ⁿɣʲ ⁿɣᶣ ⁿɣʷ ŋʰ ŋʲʰ ŋᶣʰ ŋʷʰ ⁿkʲ ⁿkʷ ⁿgb ⁿkp ŋʷ o ø ɔ p pʲ pʷ ɾ s ʃ t ts tʃ u ɥ ɯ v w x y z ʒ
njye1238-1602	Njyem	njye1238	Atlantic-Congo	Africa	2.30483	14.1175	42	20	20	0	0	20	20	1.0	⁴ ² ɑ ɑː b d dz e eː ɛ ɛː f g gb i iː ɪ ɪː j k kp l m n ɲ o oː œ œː ɔ ɔː p s ʃ t ts u uː ʊ ʊː v w
kwam1250-1604	Kwami	kwam1250	Atlantic-Congo	Africa	-1.53712	27.4633	40	28	10	0	0	28	10	2.8	⁴ ² a aː b ɓ d dʒ ɗ e eː f g gʷ h i iː j k kʷ l m ⁿb n ⁿd ⁿg ⁿgʷ ɔ ɔː p r s ʃ t tʃ u uː w z ʔ
kabu1256-1606	Kabuverdianu	kabu1256	Indo-European	Africa	15.0586	-23.6148	28	21	7	0	0	21	7	3.0	a b c d e ɛ f g i ɟ k l ʎ m n ɲ ŋ̞ o ɔ p r s ʃ t u v z ʒ
cent2194-1609	Central Moroccan Berber	cent2194	Afro-Asiatic	Africa	32.7415	-2.40872	39	36	3	0	0	36	3	12.0	a b d dˀ f g gʷ ɣ ɣʷ ɣˀ h ħ i j k kʷ l lˀ m n q qʷ r rˀ s sˀ ʃ ʃˀ t tˀ u w x xʷ z zˀ ʒ ʒˀ ʕ
siwi1239-1610	Siwi	siwi1239	Afro-Asiatic	Africa	29.200415	25.519627	38	26	12	0	0	26	12	2.1666666666666665	a æ b d dʒ e ɛ f g h ħ i ɪ ɪː j k l m n ŋ o ɔ p r rː ʀ s sː ʃ t tʃ u ʊ ʌ w z ʕ ʕː
ndam1239-1611	Ndamba	ndam1239	Atlantic-Congo	Africa	-8.40485	36.0271	24	19	5	0	0	19	5	3.8	a b d dʒ e f g ɣ h i j k l m n ŋ o p s t tʃ u v w
bare1279-1612	Barain	bare1279	Afro-Asiatic	Africa	11.1168	18.0764	41	28	10	0	0	28	10	2.8	⁴ ³ ² a aː b bː d dː e eː g gː i iː j ɟ ɟː k kː l lː m mː n nː ɲ ɲː ŋ o oː p pː r s sː t tː u uː w
bare1279-1613	Barain	bare1279	Afro-Asiatic	Africa	11.1168	18.0764	29	16	10	0	0	16	10	1.6	⁴ ³ ² a aː b d e eː g i iː j ɟ k l m n ɲ ŋ o oː p r s t u uː w
bare1279-1614	Barain	bare1279	Afro-Asiatic	Africa	11.1168	18.0764	44	31	10	0	0	31	10	3.1	⁴ ³ ² a aː b bː d dː e eː g gː i iː j jː ɟ ɟː k kː l lː m mː n nː ɲ ɲː ŋ ŋː o oː p pː r rː s sː t tː u uː w
bare1279-1615	Barain	bare1279	Afro-Asiatic	Africa	11.1168	18.0764	44	32	10	0	0	32	10	3.2	⁴ ² a aː b bː d dː ɗ ɗː e eː g gː h i iː j jː ɟ ɟː k kː l lː m mː n nː ɲ ɲː ŋ o oː p pː r s sː t tː u uː w
gaam1241-1616	Gaam	gaam1241	Eastern Jebel	Africa	11.4674	33.9797	49	34	12	0	0	34	12	2.8333333333333335	⁴ ³ ² a aː b bː c d d̞ d̪ dː d̪ː ə əː ɛ ɛː f fː g gː i iː j ɟ ɟː k l lː m mː n nː ɲ ɲː ŋ ŋː ɔ ɔː p r ɾ s sː t t̪ u uː w
abar1238-1617	Mungbam	abar1238	Atlantic-Congo	Africa	6.5805	10.2267	36	24	8	0	0	24	8	3.0	⁵ ⁴ ³ ² a b ɕ d̪ dz̪ dʑ e ə ɛ f g gb h i j k kp l̪ m n̪ ɲ ŋ o ɔ p s̪ t̪ tɕ ts̪ u ɥ w
mund1328-1618	Mundabli	mund1328	Atlantic-Congo	Africa	6.59969	10.2704	38	22	12	0	0	22	12	1.8333333333333333	⁵ ⁴ ³ ² a ɒ b d̪ dz̪ dʒ e ə ɛ f g gb i ɪ ɨ j k kp l̪ m n̪ ɲ ŋ o ɔ s̪ ʃ t̪ ts̪ tʃ u ɥ ʊ w
mbuu1238-1619	Ajumbu	mbuu1238	Atlantic-Congo	Africa	6.53792	10.2556	39	26	10	0	0	26	10	2.6	⁴ ³ ² a b d̪ dz̪ dʒ e ə ɛ f g gb ɣ i ɨ j k kp l̪ n̪ ɲ ŋ o ɔ s̪ ʃ t̪ ts̪ tʃ u ɥ v w y z̪ ʒ ʔ
kosh1246-1620	Koshin	kosh1246	Atlantic-Congo	Africa	6.5817	10.299	37	23	11	0	0	23	11	2.090909090909091	⁴ ³ ² a æ b d̪ dz̪ dʒ e ə ɛ f g gb i i̜ ɨ̜ j k kp l̪ m n̪ ɲ ŋ ɔ s̪ ʃ t̪ ts̪ tʃ u u̜ w z̪ ʒ
fang1248-1621	Fang (Cameroon)	fang1248	Atlantic-Congo	Africa	6.54384	10.319	36	23	10	0	0	23	10	2.3	⁴ ³ ² a b d̪ dʒ e ə ɛ f g gb i i̜ j k kp l̪ m ɱ n̪ ɲ ŋ o ɔ p s̪ t̪ ts̪ tʃ u u̜ v w ʒ
nort3047-1624	North Giziga	nort3047	Afro-Asiatic	Africa	10.6755	14.219	37	29	3	0	0	29	3	9.666666666666666	⁵¹ ⁴ ³ ² ¹⁵ a b ɓ d dʒ ɗ e f g gʷ h j k kʷ l ɬ ɮ ⁿb n ⁿd ⁿdz ŋ ⁿg o r s t tʃ v w z ʔ
mokp1239-1626	Mokpwe	mokp1239	Atlantic-Congo	Africa	4.24178	9.23887	31	21	7	1	0	22	7	3.0	⁴ ² a b dʒ e ɛ gb hʷ i j k kp l m ⁿb n ⁿd ⁿdʒ ɲ ⁿg ⁿgb o ɔ p ɸ t u w ʒ β
ngie1241-1628	Ngiemboon	ngie1241	Atlantic-Congo	Africa	5.56777	10.1266	30	19	7	0	0	19	7	2.7142857142857144	⁵¹ ⁴ ² ¹⁵ a b d e ɛ f g i j k m n ŋ o ɔ p pf s t ts u ɥ ɰ v w z
nugu1242-1629	Nugunu (Cameroon)	nugu1242	Atlantic-Congo	Africa	4.63103	11.1837	35	24	7	0	0	24	7	3.4285714285714284	⁵¹ ⁴ ² ¹⁵ a b d e ɛ f g h i j k l m ⁿb ⁿp n ⁿd ⁿt ⁿtʃ ɲ ŋ ⁿg ⁿk o ɔ p s t tʃ u w
tigo1236-1630	Tigon Mbembe	tigo1236	Atlantic-Congo	Africa	6.983995	10.70849	114	94	12	3	0	97	12	7.833333333333333	⁵¹ ⁴ ³ ² ¹⁵ a ɑ b bʲ bʳ bʷ d dʳ dʷ dʒ dʒʳ dʒʷ e eː ɛ ɛː f fʲ fʳ fʷ g gb gbʳ gʳ gʷ h i j k kʲ kp kpʲ kpʳ kpʷ kʳ kʷ kʳʷ l m ⁿb ⁿbʲ ⁿbʳ ⁿbʷ mʲ ⁿp ⁿpʳ ⁿpʷ ⁿɾ mʷ ⁿf ⁿfʳ ⁿv ⁿvʲ ⁿvʳ n ⁿd ⁿdʳ ⁿdʷ ⁿdʒ ⁿgʳ ⁿs ⁿsʳ ⁿʃ ⁿt ⁿtʳ ⁿtʃ ⁿtʃʳ nʷ ⁿz ⁿzʳ ɲ ŋ ⁿg ⁿgʷ ⁿk ⁿkʳ ⁿkʷ ⁿgb ⁿkp ⁿkpʳ ŋʷ o ɔ ɔː p pʲ pʳ pʷ ɾ s sʳ sʷ ʃ t tʳ tʃ tʃʳ tʃʷ tʷ u uː v vʲ vʳ vʷ w z zʳ ʒ
piny1238-1632	Pinyin	piny1238	Atlantic-Congo	Africa	5.7991	10.0682	66	42	14	0	5	42	19	3.0	⁵¹ ⁴ ³ ² ¹⁵ a aː b bʲ d dʲ dʷ ə əː ɛ f g gʲ gᶣ gʷ i iː iə iɛ ɨ ɨː ɨə j k kʲ kᶣ kʷ m mʲ n nʲ nʷ ɲ ɲʷ ŋ ŋʷ ɔ ɔː pʷ s sʷ ʃ ʃʷ t tʲ ts tsʷ tʃ tʃʷ tʷ u uː uə ɥ w y yə z zʷ ʒ ʒʷ
wuzl1236-1635	Wuzlam	wuzl1236	Afro-Asiatic	Africa	10.955	14.1378	42	34	5	0	0	34	5	6.8	⁴ ³ ² a b ɓ d dz ɗ e ə f g gʷ ɣ ɣʷ hʷ i j k kʷ l ɬ ɮ m ⁿb n ⁿd ⁿz ŋ ⁿg ⁿgʷ p r s t ts u v w z χ
lese1243-1636	Lese	lese1243	Central Sudanic	Africa	1.3	29.3	42	28	10	1	0	29	10	2.8	⁴ ³ ² a b bv ɓ d dʷ dʒ e ɛ f g gb ɠɓ h i ɪ j k ɭ ɭʷ m n o œ ɔ p pf ɾ ɾʲ ɾʷ s sʷ t tʃ ʈ u ʊ w ʔ
gwen1239-1638	Gweno	gwen1239	Atlantic-Congo	Africa	-3.68407	37.6827	29	24	5	0	0	24	5	4.8	a b c d e f g ɣ h i j ɟ k kʲ l m n ɲ ŋ o p pf r ʃ t u w β θ
sumb1240-1639	Sumbwa	sumb1240	Atlantic-Congo	Africa	-3.47335	31.9457	32	20	10	0	0	20	10	2.0	⁴ ² a aː b d dʒ e eː f g h i iː j k l m n o oː p s ʃ t tʃ u uː v w z β
zinz1238-1640	Zinza	zinz1238	Atlantic-Congo	Africa	-2.64132	32.1755	30	20	10	0	0	20	10	2.0	a aː b c d e eː f g h i iː j ɟ k l m n ɲ o oː p s ʃ t u uː v w z
meru1245-1641	Meru	meru1245	Atlantic-Congo	Africa	0.26484	37.7396	27	17	10	0	0	17	10	1.7	a aː b d e eː f i iː j k l m n ɲ ŋ o oː p r s ʃ t u uː w β
kahe1238-1642	Kahe	kahe1238	Atlantic-Congo	Africa	-3.51412	37.5759	32	22	10	0	0	22	10	2.2	ɑ ɑː b c d ɛ ɛː f g ɣ h i iː j ɟ k l m n ɲ ŋ ɔ ɔː p r s ʃ t u uː v w
hang1260-1643	Hangaza	hang1260	Atlantic-Congo	Africa	-2.52347	30.7074	35	23	10	0	0	23	10	2.3	⁴ ² a aː c d e eː f g h i iː j ɟ k m n ɲ o oː p pf r s ʃ t ts u uː v w z ʒ β
moch1256-1644	Mochi	moch1256	Atlantic-Congo	Africa	-3.33743	37.3357	25	20	5	0	0	20	5	4.0	a b c d e f g h i j ɟ k l m n ɲ o p pf s ʃ t ts u w
suba1252-1645	Suba-Simbiti	suba1252	Atlantic-Congo	Africa	-1.103296	34.268	39	23	14	0	0	23	14	1.6428571428571428	⁴ ² a aː c d e eː ɛ ɛː f g ɣ h i iː j ɟ k l m n ɲ ŋ o oː ɔ ɔː p r s ʃ t u uː v w z β
kway1241-1646	Kwaya	kway1241	Atlantic-Congo	Africa	-1.80737	33.71	29	17	10	0	0	17	10	1.7	⁴ ² a aː b d e eː f g i iː j ɟ k l m n ɲ o oː p s t tʃ u uː w β
wawa1246-1647	Wawa	wawa1246	Atlantic-Congo	Africa	6.68974	11.7802	49	29	16	1	0	30	16	1.8125	⁴ ³ ² a aː b d dʒ e eː ə əː ɛ ɛː f g gb gʷ h i iː j k kp kʷ l m ⁿb ⁿv n ⁿd ⁿdʒ ɲ ŋ ⁿg ⁿgʷ ŋm ⁿgb o oː ɔ ɔː p s t tʃ u uː w
tach1250-1648	Tachelhit	tach1250	Afro-Asiatic	Africa	29.7854	-7.77879	37	33	4	0	0	33	4	8.25	a b d̪ dˤ ə f g gʷ ɣ ɣʷ h ħ i j k kʷ l̪ lˤ m n̪ q qʷ rˤ ɾ̪ s̪ sˤ ʃ t̪ tˤ u w x xʷ z̪ zˤ ʒ ʕ
fuli1240-1651	Fuliiru	fuli1240	Atlantic-Congo	Africa	-3.04022	28.9865	36	24	10	0	0	24	10	2.4	⁴ ² a aː b d dʒ e eː f g h i iː j k l m ⁿb n ⁿd ɲ ⁿg o oː p r s ʃ t u uː v w z ʒ
ejag1239-1654	Ejagham	ejag1239	Atlantic-Congo	Africa	5.54442	8.90959	29	19	7	0	0	19	7	2.7142857142857144	⁴ ³ ² a b d dʒ ə ɛ f g gb i j k kp m n ɲ ŋ ɔ p ɾ s t tʃ u w y
yemb1246-1655	Yemba	yemb1246	Atlantic-Congo	Africa	5.47421	10.0214	27	17	7	0	0	17	7	2.4285714285714284	⁵¹ ⁴ ² a b d e ɛ f g i j k m n ŋ o ɔ pf s t ts u v w z ʔ
anii1245-1658	Anii	anii1245	Atlantic-Congo	Africa	9.11127	1.60169	36	23	11	0	0	23	11	2.090909090909091	⁴ ² a b d dʒ e ə ɛ f g gb h i ɪ ɨ j k kp l m n ɲ ŋ ŋm o ɔ p r s ʃ t tʃ u ʊ w
fipa1238-1659	Fipa	fipa1238	Atlantic-Congo	Africa	-7.88963	31.3442	35	20	14	0	0	20	14	1.4285714285714286	⁴ a aː b d e eː f g i iː ɪ ɪː j k l m n ɲ ŋ o oː p s ʃ t tʃ u uː ʊ ʊː v w z ʒ
nawu1242-1660	Nawuri	nawu1242	Atlantic-Congo	Africa	8.45116	0.04947	40	29	9	0	0	29	9	3.2222222222222223	⁴ ² a b bʷ d dʒ e ɛ f fʷ g gb h i ɪ j k kp kʷ l m mʷ n ɲ ŋ ŋm o ɔ p pʷ r s sʷ t tʃ tʃʷ u u̞ w
ntom1248-1662	Ntomba	ntom1248	Atlantic-Congo	Africa	-1.99062	18.265	30	23	7	0	0	23	7	3.2857142857142856	a b e ɛ f g h i j k l m ⁿb ⁿp n ⁿd ⁿdʒ ⁿs ⁿt ɲ ⁿg ⁿk o ɔ p s t ts u w
tumt1243-1663	Tumtum	tumt1243	Kadugli-Krongo	Africa	10.6378	30.4128	55	39	14	0	0	39	14	2.7857142857142856	⁴ ² a aː ɓ ɓː d̪ d̪ː ɖ ɖː ɗ ɗː e eː f g gː i iː ɪ ɪː j jː ɟ l lː m mː ⁿb n nː ⁿd̪ ⁿɗ ɲ ɲː ⁿɟ ⁿɖ ŋ ŋː ⁿg ɔ ɔː pf r rː s sː ʃ u uː ʊ ʊː w wː ʔ
iyiv1238-1664	Iyive	iyiv1238	Atlantic-Congo	Africa	6.50437	9.53302	64	52	7	1	0	53	7	7.428571428571429	⁵¹ ⁴ ² ¹⁵ a b bʷ d dʲ dz dzʷ dʒ ə ɛ f fʷ g gb gʲ gʷ h hʲ hʷ i j k kp kʷ lʲ lʷ m ⁿb ⁿbʷ mʷ n ⁿd ⁿdz ⁿdzʷ ⁿdʒ ⁿz ɲ ŋ ⁿg ⁿgʲ ⁿgʷ ⁿgb o ɔ p pʷ s sʷ ʃ ʃʷ t tʲ ts tsʷ tʃ tʃʷ tʷ u v w
bata1293-1665	Batak Karo	bata1293	Austronesian	Papunesia	2.12787	98.2517	24	16	8	0	0	16	8	2.0	a b d dʒ e ə g h i k l m n ŋ o p r s t tʃ u ɯ w y
taga1270-1666	Tagalog	taga1270	Austronesian	Papunesia	14.06	121.747	24	19	5	0	0	19	5	3.8	a b c d e f g h i j ɟ k l m n ŋ o p r s t u w ʔ
sout2918-1667	Southern Sama	sout2918	Austronesian	Papunesia	4.755836	119.483887	23	17	6	0	0	17	6	2.8333333333333335	a b d e ə g h i j ɟ k l m n ɲ ŋ o p s t u w ʔ
kima1244-1668	Kimaragang	kima1244	Austronesian	Papunesia	6.61982	116.96	23	18	5	0	0	18	5	3.6	a b ɓ d dʒ ɗ e ɤ g i j k l m n ŋ p ɾ s t u w ʔ
bela1260-1669	Lemeting	bela1260	Austronesian	Papunesia	4.96207	114.933	25	19	5	0	1	19	6	3.8	a b c d e g h i iə j ɟ k l m n ɲ ŋ o p ʁ s t u w ʔ
ilok1237-1670	Iloko	ilok1237	Austronesian	Papunesia	15.9361	120.993	23	17	6	0	0	17	6	2.8333333333333335	a b d e ɛ g h i j k l m n ŋ ɔ p r s t ts u w ʔ
east2563-1671	Eastern Cham	east2563	Austronesian	Eurasia	11.2853	108.49	30	21	9	0	0	21	9	2.3333333333333335	a ɓ c cʰ ɗ e ə ɛ h i ɨ j k kʰ l m n ɲ ŋ o ɔ p pʰ r s t tʰ u w ʔ
mokl1243-1672	Moklen	mokl1243	Austronesian	Eurasia	8.16761	98.3176	46	19	19	0	8	19	27	1.0	a aː au̯ ay b d e eː ə əː əy ɛ ɛː ɛo g h i iː ia k kʰ l m n ɲ ŋ o oː ɔ ɔː p pʰ t tʰ tʃ tʃʰ u uː uə uy ɯ ɯː ɯə w y ʔ
moke1242-1673	Moken	moke1242	Austronesian	Eurasia	10.1474	98.6765	38	20	16	0	2	20	18	1.25	a aː b d dʒ e eː ea ə ɛ ɛː g h i iː k kʰ l m n ɲ ŋ o oː oa ɔ ɔː p pʰ t tʰ tʃ tʃʰ u uː w y ʔ
nias1242-1674	Nias	nias1242	Austronesian	Papunesia	0.90691	97.4961	25	19	6	0	0	19	6	3.1666666666666665	a b d dʳ dʒ e ɤ f g h i j k m n o s t tʃ u v ʋ w x ʔ
java1254-1675	Javanese	java1254	Austronesian	Papunesia	-0.572307	110.885	33	24	9	0	0	24	9	2.6666666666666665	a b d dʒ ɖ e ə ɛ f g h i k l m n ɲ ŋ o ɔ p r s ʃ t tʃ ʈ u w x y z ʔ
buol1237-1676	Buol	buol1237	Austronesian	Papunesia	0.97727	121.519	23	17	6	0	0	17	6	2.8333333333333335	a b d dʒ e g h i k l m n ŋ o p r s t̪ u w y ʔ β
maka1311-1677	Makasar	maka1311	Austronesian	Papunesia	-5.65551	119.838	23	18	5	0	0	18	5	3.6	a b c d e g h i j ɟ k l m n ɲ ŋ o p r s t u w
mori1268-1678	Mori Bawah	mori1268	Austronesian	Papunesia	-2.56016	121.37	27	22	5	0	0	22	5	4.4	a b d e g h i k l m ⁿb ⁿp n ⁿd ⁿs ⁿt ŋ ⁿg ⁿk o p r s t u ʔ β
kamb1299-1679	Kambera	kamb1299	Austronesian	Papunesia	-9.88447	120.235	29	19	8	0	2	19	10	2.375	a aː ai au ɓ dʒ ɗ e h i iː j k l m ⁿb n ⁿd ⁿdʒ ɲʲ ŋ ⁿg o p r t u uː w
tetu1245-1680	Tetum	tetu1245	Austronesian	Papunesia	-9.11217	125.528	18	13	5	0	0	13	5	2.6	a b d e f h i k l m n o r s t u w ʔ
leti1246-1681	Leti (Indonesia)	leti1246	Austronesian	Papunesia	-8.19808	127.674	22	10	12	0	0	10	12	0.8333333333333334	a aː d e eː ɛ i iː k l m n o oː ɔ p r s t u uː β
east2440-1682	East Makian	east2440	Austronesian	Papunesia	0.07337	127.423	23	18	5	0	0	18	5	3.6	a b d dʒ e f g i j k l m n ŋ o p r s t tʃ u w ʔ
biak1248-1683	Biak	biak1248	Austronesian	Papunesia	-0.9523	135.879	19	14	5	0	0	14	5	2.8	a b d e g i j k m n o p ɸ r s t u w β
ambo1250-1684	Ambonese Malay	ambo1250	Austronesian	Papunesia	-3.71342	128.184	23	18	5	0	0	18	5	3.6	a b c d e f g i j ɟ k l m n ɲ ŋ o p r s t u w
band1353-1685	Banda Malay	band1353	Austronesian	Papunesia	-4.55565	129.905	23	18	5	0	0	18	5	3.6	a b c d e f g i j ɟ k l m n ɲ ŋ o p r s t u w
mala1481-1686	Manado Malay	mala1481	Austronesian	Papunesia	1.48099	124.843	25	19	6	0	0	19	6	3.1666666666666665	a b c d e ə f g i j ɟ k l m n ɲ ŋ o p r s t u w ʔ
kupa1239-1687	Kupang Malay	kupa1239	Austronesian	Papunesia	-10.2526	123.63	25	19	6	0	0	19	6	3.1666666666666665	a b c d e ə f g i j ɟ k l m n ɲ ŋ o p r s t u w ʔ
lara1260-1688	Larantuka Malay	lara1260	Austronesian	Papunesia	-8.4746	122.7619	25	19	6	0	0	19	6	3.1666666666666665	a b c d e ə f g i j ɟ k l m n ɲ ŋ o p r s t u w ʔ
nort2828-1689	North Moluccan Malay	nort2828	Austronesian	Papunesia	-0.86437	128.323	27	21	6	0	0	21	6	3.5	a b c d e ə f g i j ɟ k l m n ɲ ŋ o p r s ʃ t u w x ʔ
indo1316-1690	Indonesian	indo1316	Austronesian	Papunesia	-7.33458	109.716	31	23	8	0	0	23	8	2.875	a b d dʒ e ə ɛ f g h i k l m n ɲ ŋ o p r s ʃ t tʃ u v w x y z ʔ
nucl1460-1691	Madurese	nucl1460	Austronesian	Papunesia	-7.0	113.0	35	27	8	0	0	27	8	3.375	a b c cʰ d̪ ɖ ə ɛ ɤ f g h i ɨ j ɟ k kʰ l m n ɲ ŋ ɔ p pʰ r s t̪ t̪ʰ ʈ ʈʰ u w ʔ
cebu1242-1692	Cebuano	cebu1242	Austronesian	Papunesia	8.38799	124.367	21	18	3	0	0	18	3	6.0	a b d dʒ g h i j k l m n ŋ p r s t tʃ u w ʔ
bali1278-1693	Balinese	bali1278	Austronesian	Papunesia	-8.35714	115.075	24	18	6	0	0	18	6	3.0	a b d dʒ e ə g h i j k l m n ɲ ŋ o p r s t tʃ u w
bugi1244-1694	Buginese	bugi1244	Austronesian	Papunesia	-4.47	119.977	25	19	6	0	0	19	6	3.1666666666666665	a b d dʒ e ə g h i j k l m n ɲ ŋ o p r s t tʃ u w ʔ
cent2087-1695	Coastal-Naga Bikol	cent2087	Austronesian	Papunesia	13.7574	123.403	28	23	5	0	0	23	5	4.6	a b d dz e f g i j k l ʎ m n ɲ ŋ o p r s ʃ t ts u v w z ʔ
hili1240-1696	Hiligaynon	hili1240	Austronesian	Papunesia	10.4018	122.974	25	20	5	0	0	20	5	4.0	a b d dʒ e f g h i j k l m n ŋ o p r s t tʃ u v w ʔ
pamp1243-1697	Pampanga	pamp1243	Austronesian	Papunesia	14.9603	120.502	22	17	5	0	0	17	5	3.4	a b d dʒ e g h i k l m n ŋ o p r s t tʃ u w ʔ
mina1268-1698	Minangkabau	mina1268	Austronesian	Papunesia	4.17	96.25	33	23	5	0	5	23	10	4.6	a ai̯ au b d dʒ e f g h i iə j k l m n ɲ ŋ o p r s ʃ t tʃ u uə ui̯ w x z ʔ
pang1290-1699	Pangasinan	pang1290	Austronesian	Papunesia	15.9377	120.365	21	16	5	0	0	16	5	3.2	a b d dʒ e g i j k l m n ŋ o p s t tʃ u w ʔ
stan1318-2157	Standard Arabic	stan1318	Afro-Asiatic	Eurasia	27.9625	43.8525	37	29	6	0	2	29	8	4.833333333333333	a aː ai au b d̪ ð dʒ d̙ˤ ð̙ˤ f ɣ h ħ i i̯ː j kʰ l lˤ m n̪ q r s s̙ˤ ʃ t̪ʰ t̪̙ˤ u u̯ː w xʀ̥ z ʔ ʕ̙ θ
east2379-2158	Eastern Arrernte	east2379	Pama-Nyungan	Australia	-23.3583	135.046	31	27	4	0	0	27	4	6.75	a bⁿ dⁿ d̪ⁿ ɖⁿ ə i j k kⁿ l l̪ lʲ ɭ m n n̪ ɳ ȵ ŋ p ɻ ɾ t t̪ tʲ ʈ ȶⁿ u ɰ w
assa1263-2159	Assamese	assa1263	Indo-European	Eurasia	26.0876	91.2932	33	23	10	0	0	23	10	2.3	ɑ ɑ̃ b bʱ d dʱ ə ɛ g gʱ h i j k kʰ l m n ŋ o ɔ p pʰ ɹ s t tʰ u ʊ ʊ̃ w x z
bard1255-2160	Bardi	bard1255	Nyulnyulan	Australia	-16.6274	122.906	25	18	7	0	0	18	7	2.5714285714285716	a aː c̻ i iː j j̻ k l ɭ̺ ʎ̻ m n ɲ̻ ɳ̺ ŋ o p r ɻ̺ t ʈ̺ u uː w
basq1248-2161	Basque	basq1248		Eurasia	43.2787	-1.31622	35	23	5	0	5	23	10	4.6	³⁵ ³¹ a ai̯ au̯ b c d̪ e ei̯ eu̯ f g i j k l ʎ m n ɲ o oi̯ p r ɾ s̺ s̪̻ ʃ t̪ ts̺ ts̪̻ tʃ u x
beng1280-2162	Bengali	beng1280	Indo-European	Eurasia	24.0	90.0	72	49	8	0	15	49	23	6.125	a ae ai ao au b bː bʱ bʱː d d̪ dː d̪ː dʱ d̪ʱ d̪ʱː dʑ dʑː dʑʱ dʑʱː e ei eu ɛ ɛe ɛo f g gː gʱ h i iu k kː kʰ kʰː l lː m mː n nː ŋ o oe oi oː ou ɔ ɔe ɔo p pː ɹ s ʃ ʃː t t̪ tː t̪ː tɕ tɕː tɕʰ tɕʰː tʰ t̪ʰ tʰː t̪ʰː u ui
bulg1262-2163	Bulgarian	bulg1262	Indo-European	Eurasia	43.3646	25.047	30	23	7	0	0	23	7	3.2857142857142856	a ɐ b d̟ dz̟ dʒ̟ ɛ f g ɣ i j k l̟ m n o ɔ p r̟ s̟ ʃ t̟ ts̟ tʃ̟ u v x z̟ ʒ
dani1285-2167	Danish	dani1285	Indo-European	Eurasia	54.8655	9.36284	69	20	15	0	34	20	49	1.3333333333333333	a æ æu̯ æʌ̯ ɑ ɑi̯ ɑu̯ ɒ ɒu̯ b̥ b̥ʰ ɕ d̥ ɹ̪ dz̥ e eu̯ eʌ̯ ɛ ɛu̯ f g̊ g̊ʰ h i i̯a i̯æ i̯ɑ i̯ɒ i̯e i̯ɛ i̯o i̯ø i̯œ i̯œ̞ i̯ɔ iu̯ i̯u iʌ̯ i̯ʌ i̯y j l m n ŋ o ø œ œ̞ œi̯ œu̯ œ̞ʌ̯ øu̯ oʌ̯ øʌ̯ ɔ r ʁ̞ s u ui̯ uʌ̯ ʋ ʌ w y yu̯ yʌ̯
dutc1256-2169	Dutch	dutc1256	Indo-European	Eurasia	52.0	5.0	37	22	12	0	3	22	15	1.8333333333333333	aː ɑ b d eː ɛ ɛi f ɣ ɦ i ɪ j k l m n ŋ oː øː œy ɔ ɔu p r s ʃ t u v w x yː ʏ z ʒ ʔ
dutc1256-2170	Dutch	dutc1256	Indo-European	Eurasia	52.0	5.0	56	22	26	0	7	22	33	0.8461538461538461	² aː æ æ̃ː aɪ ɑ ɑː ɑ̃ː b d dʒ eː eɪ ə ɛ ɛː f g ɣ h i iː ɪ ɪə j k l m n ŋ ø oː øː œ œː œ̃ː øɪ ou ɔ ɔː ɔ̃ː ɔɪ p r s ʃ t u uː uɪ v x y yː z β̞
dutc1256-2173	Dutch	dutc1256	Indo-European	Eurasia	52.0	5.0	58	22	23	0	13	22	36	0.9565217391304348	aː æ æː ɑ ɑː ɑu ɑuː b d eː ə ɛ ɛː ɛi ɛiː f ɣ ɦ i iː iːə ɪ j k l m n ŋ oː øː oːə œ œː œy œyː ɔ ɔː ɔːə ɔu ɔuː p ʀ s ʃ t u uː uːə v x y yː yːə ʏ z ʒ ʔ β̞
dutc1256-2174	Dutch	dutc1256	Indo-European	Eurasia	52.0	5.0	57	24	21	0	12	24	33	1.1428571428571428	a aː aɪ aʊ ɒ ɒː b d eː eə ei ə əʊ ɛ ɛː ɛə ɛɪ ɞʊ f ɣ h iː iə ɪ j k kʲ l m n ŋ o oː øː œ œː œʏ øy ɔ p pʲ r s ʃ t tʲ uː uɪ ʊ v x y yː ʏ z ʒ β̞
stan1293-2175	English	stan1293	Indo-European	Eurasia	53.0	-1.0	39	24	9	0	6	24	15	2.6666666666666665	æ aɪ aʊ ɑ b d ð dʒ eɪ̯ ə ɛ ə˞ː f g h iɪ ɪ j kʰ l m n ŋ oʊ ɔɪ pʰ ɹ s ʃ tʰ tʃ uː ʊ v ʌ w z ʒ θ
stan1293-2176	English	stan1293	Indo-European	Eurasia	53.0	-1.0	39	24	10	0	5	24	15	2.4	æ aɪ aʊ ɑ b d ð dʒ ei ɛ ə˞ f g h i ɪ j kʰ l m n ŋ oʊ ɔ ɔɪ pʰ ɹ s ʃ tʰ tʃ u ʊ v ʌ w z ʒ θ
stan1293-2177	English	stan1293	Indo-European	Eurasia	53.0	-1.0	44	25	12	0	7	25	19	2.0833333333333335	æ æɪ æɔ ɐ ɐː ɑe b d ð dʒ e eː əʉ ɜː f g h iː ɪ ɪə j k kʰ l m n ŋ oː oɪ ɔ pʰ ɹ s ʃ tʰ tʃ ʉː ʊ ʊə v w z ʒ θ
stan1293-2178	English	stan1293	Indo-European	Eurasia	53.0	-1.0	41	24	11	0	5	24	16	2.1818181818181817	⁴ a aɪ aʊ ɑː ɒ b d ð dʒ eː eɪ ə ɛ ɛʉ f g h iː ɪ j kʰ l m n ŋ ɔː ɔɪ pʰ ɹ s ʃ tʰ tʃ ʉː ʊ v w z ʒ θ
stan1293-2179	English	stan1293	Indo-European	Eurasia	53.0	-1.0	45	24	12	0	9	24	21	2.0	æe æo ɐ ɐː ɐʉ ɑe ɒ ɒɯ b d ð dʒ e eə ɛ ɘ f g h i iː iə j kx l m n ŋ oː oe ɵː pʰ ɹ s ʃ ts tʃ ʉː ʉə ʊ v w z ʒ θ
stan1293-2180	English	stan1293	Indo-European	Eurasia	53.0	-1.0	39	24	15	0	0	24	15	1.6	a aː ɒ ɒː b d ð dʒ eː ə ɛ ɛː f g h iː ɪ j k l m n ŋ oː øː ɔː pʰ ɹ s ʃ tʰ tʃ uː ʊ v w z ʒ θ
esto1258-2181	Estonian	esto1258	Uralic	Eurasia	58.55	25.82	54	45	9	0	0	45	9	5.0	æ ɑ e ɤ f fː fˑ h i j k kː kˑ l lː lˑ lʲ lʲː lʲˑ m mː mˑ n nː nˑ nʲ nʲː nʲˑ o ø p pː pˑ r rː rˑ s sː sˑ sʲ sʲː sʲˑ ʃ ʃː ʃˑ t tː tˑ tʲ tʲː tʲˑ u v y
stan1290-2182	French	stan1290	Indo-European	Eurasia	48.0	2.0	36	21	15	0	0	21	15	1.4	a ɑ ɑ̃ b d̪ e ə ɛ ɛ̃ f g i j k l̪ m n ɲ ŋ o ø œ ɔ ɔ̃ p ʁ s̪ ʃ t̪ u ɥ v w y z̪ ʒ
stan1295-2184	German	stan1295	Indo-European	Eurasia	48.649	12.4676	40	21	16	0	3	21	19	1.3125	a aː aɪ aʊ b d e ə ɛ ɛː f g h iː ɪ j kʰ l m n ŋ oː øː œ ɔ ɔɪ pʰ ʁ s ʃ tʰ uː ʊ v x y ʏː z ʒ ʔ
swis1247-2185	Swiss German	swis1247	Indo-European	Eurasia	47.0516	8.46419	56	27	21	0	8	27	29	1.2857142857142858	æ æː æi̯ æu̯ ɒ ɒː e eː ei̯ ə ɛ ɛː f f̚ h i iː iə̯ j k k̚ kx l m n ŋ o ø oː øː œ œː oi̯ ou̯ p p̚ pf r s s̚ ʃ ʃ̚ t t̚ ts tʃ u uː uə̯ ʋ x x̚ y yː yə̯ ʔ
mode1248-2186	Modern Greek	mode1248	Indo-European	Eurasia	42.3224	24.8699	41	36	5	0	0	36	5	7.2	ɐ ð ðː ɛ f fː ɣ ɣː i k kʰː l lː m mː n̪ n̪ː ɔ p pʰː rː ɾ s sː ʃ ʃː t̪ t̪ʰː tʃ tʃʰː u v vː x xː z zː ʒ ʒː θ θː
mode1248-2187	Modern Greek	mode1248	Indo-European	Eurasia	42.3224	24.8699	23	18	5	0	0	18	5	3.6	ɐ b d̪ ð ɛ f g ɣ i k l m n̪ o p ɾ s t̪ u v x z θ
hebr1245-2189	Modern Hebrew	hebr1245	Afro-Asiatic	Eurasia	31.1056	35.0179	27	22	5	0	0	22	5	4.4	a b d e f g h ħ i j k l m n o p r s ʃ t u v z ʒ ʔ ʕ χ
hind1269-2190	Hindi	hind1269	Indo-European	Eurasia	25.0	77.0	74	63	11	0	0	63	11	5.7272727272727275	æ ɑ b bʱ bː d̪ d̪ʱ d̪ː d̪ʱː dʒ dʒʱ dʒː dʒʱː ɖ ɖʱ ɖː ɖʱː e ə ɛ f fː g gʱ gː gʱː h i ɪ j k kː kʰ kʰː l lː m mː n nː ŋ ŋː o ɔ p pː pʰ pʰː rː ɽ ɽʱ ɾ s sː ʃ ʃː t̪ t̪ː t̪ʰ t̪ʰː tʃ tʃː tʃʰ tʃʰː ʈ ʈː ʈʰ ʈʰː u ʊ ʋ ʋː z zː
iris1253-2193	Irish	iris1253	Indo-European	Eurasia	53.2186	-7.61509	50	35	12	0	3	35	15	2.9166666666666665	a æː au bˠ bʲ ç cʰ ɕ d̪ˠ dz̠ʲ eː ə ɛ ɤ fˠ fʲ g ɣ h iː ia ɪ j ɟʝ kʰ l l̪ˠ l̠ʲ mˠ mʲ n n̪ˠ n̠ʲ ɲ ŋ oː ɔː pˠʰ pʰʲ ɾˠ ɾʲ sˠ t̪ˠʰ ts̠ʲʰ uː ua vʲ ʌ w x
ladi1251-2194	Ladino	ladi1251	Indo-European	Eurasia	41.205	28.6632	34	20	5	0	9	20	14	4.0	a ai̯ b d̻ dʒ e ei̯ f g i ia ie io j k l m n o oi̯ p r s ʃ t̻ tʃ u ua ue ui̯ v x z ʒ
nucl1643-2196	Japanese	nucl1643	Japonic	Eurasia	35.0	135.0	21	16	5	0	0	16	5	3.2	a b d d̠ e g h i j k m n ɴ o p s t ts u w z
kore1280-2197	Korean	kore1280	Koreanic	Eurasia	37.5	128.0	48	20	16	0	12	20	28	1.25	a aː e eː əː ɛ ɛː h i iː ia ie iɛ io iu iʌ k k̚ kʰ l lː m n ŋ o oː p p̚ pʰ s s̚ t t̚ tɕ tɕ̚ tɕʰ tʰ u uː ua ue uɛ ui uʌ ɯ ɯː ɯi ʌ
kuna1268-2198	Kunama	kuna1268		Africa	14.5879	37.5292	34	23	5	0	3	23	8	4.6	⁴ ³ ² ɑ ɑi ɑu b d̪ dʒ e f g gʷ h i j k kʷ l ʎ m n ɲ ŋ o oi r s ʃ t̪ tʃ u z β̞
ersu1241-2199	Ersu	ersu1241	Sino-Tibetan	Eurasia	29.2867	102.213	61	51	8	0	0	51	8	6.375	⁵¹ ¹³ æ ɐ b ɕ d dz dʑ dʒ e ə g ɣ h i j k kʰ l ɬ m ⁿb ⁿpʰ n ⁿd ⁿdz ⁿdʒ ⁿtʰ ⁿtsʰ ⁿtʃʰ ⁿqʰ ɲ ⁿdʑ ⁿtɕʰ ŋ̍ ⁿg o p pʰ q qʰ ɹ s ʃ t tɕ tɕʰ tʰ ts tsʰ tʃ tʃʰ u x y z ʑ ʒ ʔ β̞
luxe1241-2200	Luxembourgish	luxe1241	Indo-European	Eurasia	49.6839	6.14931	46	24	14	0	8	24	22	1.7142857142857142	aː æ æːɪ æːʊ ɐ ɑ ɑɪ ɑʊ e eː ə əʊ ɛː ɜɪ f h i iː iə j k̚ kʰ l m n ŋ o oː p̚ pʰ ʀ ʁ s ʃ t̚ tʰ ts tʃ u uː uə v w z ʒ χ
mafe1237-2202	Mafea	mafe1237	Austronesian	Papunesia	-15.4316	167.241	24	19	5	0	0	19	5	3.8	ɑ ɖ e i k l lː m n̼ mː n nː ŋ o p t̼ r rː s t u ɰ v ð̼
nara1262-2203	Nara	nara1262		Africa	15.3251	37.499	59	43	10	0	0	43	10	4.3	⁴ ⁴⁴² ⁴²² ² ²⁴⁴ ²²⁴ ɑ ɑː b bː ɕ̟ ɕ̟ː d̪ d̪ː dʑ̟ː dʑ̟ e eː f fː g gː gʷ h hː i iː j jː k kː kʷ l lː m mː ⁿb n̪ n̪ː ⁿd̪ ɲ ⁿg ⁿgʷ ŋ o oː rː ɾ s sː t̪ t̪ː tɕ̟ː tɕ̟ u uː w wː z
west2369-2205	Western Farsi	west2369	Indo-European	Eurasia	28.6593	55.1586	29	23	6	0	0	23	6	3.8333333333333335	æ ɒ b d dʒ e f g ɣ h i j kʰ l m n o pʰ r s ʃ tʰ tʃ u v x z ʒ ʔ
cent2092-2208	Central Sama	cent2092	Austronesian	Papunesia	7.004574	118.455978	36	30	6	0	0	30	6	5.0	a b bː d dː dʒː dʒ e ə g gː h i j jː k kː l lː m mː n nː ɲ ŋ ŋː o p pː s sː t̪ t̪ː u w ʔ
slov1269-2209	Slovak	slov1269	Indo-European	Eurasia	48.545705	18.78479	44	29	11	0	4	29	15	2.6363636363636362	a aː æ b c d dz dʒ ɛ ɛː f g ɦ i̞ i̞ː ɪ̯a ɪ̯ɛ ɪ̯u̞ j ɟ k l lː ʎ m n ɲ ɔ ɔː p r rː s ʃ t ts tʃ u̞ u̞ː ʊ̯ɔ v x z ʒ
sumi1235-2211	Sumi Naga	sumi1235	Sino-Tibetan	Eurasia	25.9996	94.4235	41	32	6	0	0	32	6	5.333333333333333	⁴ ³ ² a b d e f g ɣ h i ɨ k kʰ l lʱ m mʱ n nʱ ŋ o p pʰ q qʰ ɹ s ʃ t tʰ ts tsʰ tʃ tʃʰ u v x z ʒ
taus1251-2212	Tausug	taus1251	Austronesian	Papunesia	5.12236	118.88	23	20	3	0	0	20	3	6.666666666666667	a b d dʒ g h i j k l m n ɲ ŋ p r s t̪ tʃ u w z ʔ
timn1235-2213	Timne	timn1235	Atlantic-Congo	Africa	8.90294	-12.3331	36	19	9	0	6	19	15	2.111111111111111	⁴ ² a ai̯ b d e ei̯ ə ɛ ɜ f gb h i j k l m n ŋ o oi̯ ɔ ɔi̯ p r s ʃ t t̪ tʃ u ui̯ ʌi̯ w
tera1251-2214	Tera	tera1251	Afro-Asiatic	Africa	11.0376	11.80953	53	35	11	0	4	35	15	3.1818181818181817	⁴ ³ ² a aː ai au b ɓ d dʒ ɗ e eː eu f g ɠ ɣ h i iː ɨ j k l ɬ ɮ m ⁿb n ⁿd ⁿdʒ ɲ ŋ ⁿg o oː oi p r s ʃ t tʃ u uː v w x z ʒ ʔʲ
thai1261-2215	Thai	thai1261	Tai-Kadai	Eurasia	14.192	100.671	47	21	18	0	3	21	21	1.1666666666666667	⁵¹ ⁴ ³ ³⁵ ² a aː b d e eː ɛ ɛː ɤ ɤː f h i iː ia j k kʰ l m n ŋ o oː ɔ ɔː p pʰ ɾ s t tɕ tɕʰ tʰ u uː ua ɯ ɯː ɯa w ʔ
nucl1301-2217	Turkish	nucl1301	Turkic	Eurasia	39.8667	32.8667	36	24	12	0	0	24	12	2.0	a aː b c d̪ dʒ e eː f g ɣ h i iː j ɟ k l̪ˠ lʲ m n̪ o œ p ɾ s̪ ʃ t̪ tʃ u uː ɯ v y z̪ ʒ
bukh1238-2219	Bukharic	bukh1238	Indo-European	Eurasia	41.0	64.0	29	23	6	0	0	23	6	3.8333333333333335	ɑ b ɕ̟ d̻ dʑ e f g h i j k l m n o ɵ p q ɾ ʁ s t̻ tɕ u v x z ʑ̟
kera1255-2220	Kera	kera1255	Afro-Asiatic	Africa	9.88165	15.1419	30	24	6	0	0	24	6	4.0	a b ɓ d dʒ ɗ e f g h i ɨ j k l m n ŋ o p ɾ s t tʃ u v ⱱ w z ʔ
kumz1235-2221	Kumzari	kumz1235	Indo-European	Eurasia	26.1602	56.4202	35	27	8	0	0	27	8	3.375	aː ɐ̟ b d dˠ dʒ eː f g ħ ɦ i̽ iː j k l m n oː p q ɻ ʁ s sˠ ʃ t tˠ tʃ uː ʊ̽ w zˠ ʔ χ
coco1260-2222	Cocos Islands Malay	coco1260	Austronesian	Papunesia	-12.193342	96.833679	27	19	6	0	2	19	8	3.1666666666666665	a ai au b d dʒ e ə g h i j k l m n ɲ ŋ o p ʁ s t̪ tʃ u w ʔ
stan1306-2223	Standard Malay	stan1306	Austronesian	Eurasia	3.08896	101.699	30	24	6	0	0	24	6	4.0	a b d dʒ e ə f g h i j k l m n ɲ ŋ o p r s ʃ t tʃ u v w x z ʔ
pitj1243-2226	Pitjantjatjara	pitj1243	Pama-Nyungan	Australia	-26.9704	131.357	25	17	6	0	2	17	8	2.8333333333333335	ɐ ɐː ɐɪ ɐʊ c̟̻ ɪ ɪː j k l ɭ̟ ȴ̻ m n ɲ̟̻ ɳ̟ ŋ p r ɻ̟ t ʈ̟ ʊ ʊː w
sout2672-2227	Southeast Pashayi	sout2672	Indo-European	Eurasia	34.43099	70.30351	40	29	11	0	0	29	11	2.6363636363636362	a ɑ ɑː b d dʒ ɖ e eː f g ɣ h i iː j k l ɬ m n ɳ o oː p q r ɽ s ʂ ʃ t tʃ ʈ uː ʊ w x z ʒ
vlax1238-2228	Vlax Romani	vlax1238	Indo-European	Eurasia	46.8191	14.8451	39	27	8	0	4	27	12	3.375	ɑ ɑi b d ð dʒ e ei f g ɣ i j k kʰ l m n o œ oi p pʰ ɾ s ʃ t tʰ tʃ tʃʰ ɯ ʊ ʊi v y z ʒ θ χ
tach1250-2229	Tachelhit	tach1250	Afro-Asiatic	Africa	29.7854	-7.77879	74	71	3	0	0	71	3	23.666666666666668	a b bː d̪ d̪ː d̪ˤ d̪ˤː f fː g gː gʷ gʷː h hː ʜ ʜː i j jː k kː kʷ kʷː l̪ l̪ː l̪ˤ l̪ˤː m mː n̪ n̪ː n̪ˤ q qː qʷ qʷː r̪ r̪ː r̪ˤ r̪ˤː ʁ ʁː ʁʷ ʁʷː s̪ s̪ː s̪ˤ s̪ˤː ʃ ʃː ʃˤ t̪ t̪ː t̪ˤ t̪ˤː u w wː z̪ z̪ː z̪ˤ z̪ˤː ʒ ʒː ʒˤ ʒˤː ʔ ʕ ʕː χ χː χʷ χʷː
uppe1400-2232	Upper Saxon	uppe1400	Indo-European	Eurasia	51.152	12.692	35	16	16	0	3	16	19	1.0	ae̯ aɵ̯ ɑˤː eː ɛ ɛː ɞ ɞʏ̯ f h iː ɪ j k kʰ l̪ m n̪ ŋ oˤː ɔˤː ɵ ɵː p ʁ̞ s̪ ʃ t̪ ʉː ʊˤː ʋ ʌ ʌː ʌˤː χ
pite1240-2234	Pite Saami	pite1240	Uralic	Eurasia	66.4011	17.4261	52	43	8	0	1	43	9	5.375	a aː e ɛ f fː h ʰk ʰkː ʰp ʰpː ʰt ʰtː ʰts ʰtsː ʰtʃ ʰtʃː i j jː k kː l lː m mː n nː ɲ ɲː ŋ ŋː o ɔ p pː r rː s sː ʃ ʃː t tː ts tsː tʃ tʃː u ua v vː
nort2671-2235	North Saami	nort2671	Uralic	Eurasia	68.725	22.1113	74	63	10	0	1	63	11	6.3	a aː b bː d ð dː ðː dz dzː dʒ dʒː e eː f fː g gː h ʰk ʰkː ʰp ʰpː ʰt ʰtː ʰts ʰtsː ʰtʃ ʰtʃː i iː j jː k kː l lː ʎ ʎː m mː n nː ɲ ɲː ŋ ŋː o oː p pː r rː s sː ʃ ʃː t tː ts tsː tʃ tʃː u uː ua v vː ˀm ˀmː ˀn ˀnː ˀɲ ˀɲː
even1259-2238	Evenki	even1259	Tungusic	Eurasia	53.85	108.626	29	18	11	0	0	18	11	1.6363636363636365	a aː b d̪ dʒ eː ə əː g h i iː j k l m n ɲ ŋ o oː p r s t̪ tʃ u uː β
